address,CMANAME,CSDNAME,Facility name,URL,Facility Type,Facility Sub-Type,Exposure,Ownership Type,Civic #,Street name,Unit/block,City name,Province,Postal Code,Longitude (X),Latitude (Y),Facility Comments/Notes,Address Comments/Notes,lat,lon
"1 Athletes Way, Vancouver, BC V5Y 0B1",,,Creekside Community Recreation Centre,https://vancouver.ca/parks-recreation-culture/creekside-community-recreation-centre.aspx,Leisure / Community Centres,General,Indoor,Public,1,Athletes Way,,Vancouver,BC,V5Y 0B1,,,"community centre, fitness, gym",,49.2717209,-123.1053657
"1 Athletes Way, Vancouver, BC V5Y 0B1",,,Creekside Community Recreation Centre,https://vancouver.ca/parks-recreation-culture/creekside-community-recreation-centre.aspx,Physical Recreation & Sports,Fitness centres / areas ,Indoor,Public,1,Athletes Way,,Vancouver,BC,V5Y 0B1,,,"community centre, fitness, gym",,49.2717209,-123.1053657
"1 Athletes Way, Vancouver, BC V5Y 0B1",,,Creekside Community Recreation Centre,https://vancouver.ca/parks-recreation-culture/creekside-community-recreation-centre.aspx,Physical Recreation & Sports,Gymnasiums ,Indoor,Public,1,Athletes Way,,Vancouver,BC,V5Y 0B1,,,"community centre, fitness, gym",,49.2717209,-123.1053657
"1 Kingsway, Vancouver, BC V5T 3H7",,,Mount Pleasant Community Centre,https://vancouver.ca/parks-recreation-culture/mount-pleasant-community-centre.aspx,Leisure / Community Centres,General,Indoor,Public,1,Kingsway ,,Vancouver,BC,V5T 3H7,,,community centre and fitness,,49.26431,-123.10041
"1 Kingsway, Vancouver, BC V5T 3H7",,,Mount Pleasant Community Centre,https://vancouver.ca/parks-recreation-culture/mount-pleasant-community-centre.aspx,Physical Recreation & Sports,Fitness centres / areas ,Indoor,Public,1,Kingsway ,,Vancouver,BC,V5T 3H7,,,community centre and fitness,,49.26431,-123.10041
"100 W 49th Ave, Vancouver, BC V5Y 2Z6",,,Langara College Gymnasium and Lockers,https://langara.ca/campus-facilities/gym-and-lockers/index.html,Physical Recreation & Sports,Gymnasiums ,Indoor,Public,100,W 49th Avenue ,,Vancouver,BC,V5Y 2Z6,,,"gymnasium, badminton",,49.2245437,-123.1087889
"100 W 49th Ave, Vancouver, BC V5Y 2Z6",,,Langara College Gymnasium and Lockers,https://langara.ca/campus-facilities/gym-and-lockers/index.html,Physical Recreation & Sports,"Racquet courts (squash, racquetball, badminton)",Indoor,Public,100,W 49th Avenue ,,Vancouver,BC,V5Y 2Z6,,,"gymnasium, badminton",,49.2245437,-123.1087889
"1019 Broughton St, Vancouver, BC V6G 2A7",,,Gordon Neighbourhood House,https://gordonhouse.org/,Leisure / Community Centres,General,Indoor,Public,1019,Broughton Street,,Vancouver,BC,V6G 2A7,,,"programs for families, youth and seniors",,49.2857058,-123.1336593
"10388 Nordel Ct, Delta, BC V4G 1J7",,,Great Pacific Forum Planet Ice Delta,https://planetice.ca/delta/index.cfm,Ice,2+ surfaces,Indoor,Public,10387,Nordel Court,,Delta,BC,V4G 2L2,,,,,49.1486494,-122.9363338
"1041 Mt Gardner Rd, Bowen Island, BC V0N 1G0",,Bowen Island,Bowen Island Community Recreation,https://www.bowencommunityrecreation.com/,Leisure / Community Centres,General,Indoor,Public,,,,,,,,,,,49.3814217,-123.3422529
"1041 Mt Gardner Rd, Bowen Island, BC V0N 1G0",,,Bowen Island Community Recreation,https://www.bowencommunityrecreation.com/,Physical Recreation & Sports,Fitness centres / areas ,Indoor,Public,,,,,,,,,,,49.3814217,-123.3422529
"1050 Beach Ave, Vancouver, BC V6E 1T7",,,Vancouver Aquatic Centre,https://vancouver.ca/parks-recreation-culture/vancouver-aquatic-centre.aspx/,Aquatics,50m+ pool with or without other pools,Indoor,Public,1050,Beach Avenue,,Vancouver,BC,V6E 1T7,,,,,49.2768415,-123.1353774
"10588 160 St, Surrey, BC V4N 0A1",,,Fraser Heights Recreation Centre,https://www.surrey.ca/culture-recreation/1928.aspx,Leisure / Community Centres,General,Indoor,Public,10588,160 Street,,Surrey,BC,V4N 0A1,,,"community centre with programs for children, youth and seniors, gym, fitness, tennis",,49.1949992,-122.7771404
"10588 160 St, Surrey, BC V4N 0A1",,,Fraser Heights Recreation Centre,https://www.surrey.ca/culture-recreation/1928.aspx,Physical Recreation & Sports,Gymnasiums ,Indoor,Public,10588,160 Street,,Surrey,BC,V4N 0A1,,,"community centre with programs for children, youth and seniors, gym, fitness, tennis",,49.1949992,-122.7771404
"10588 160 St, Surrey, BC V4N 0A1",,,Fraser Heights Recreation Centre,https://www.surrey.ca/culture-recreation/1928.aspx,Physical Recreation & Sports,Fitness centres / areas ,Indoor,Public,10588,160 Street,,Surrey,BC,V4N 0A1,,,"community centre with programs for children, youth and seniors, gym, fitness, tennis",,49.1949992,-122.7771404
"1088 Burrard St, Vancouver, BC V6Z 2R9",,,Swim Lessons Vancouver,https://www.swimlessonsvancouver.ca/,Aquatics,25m pool with or without other pools,Indoor,Private,1088,Burrard Street,,Vancouver,BC,V6Z 2R9,,,private swimming lessons at the Sheraton Wall Centre Hotel Swim Pool,,49.2801681,-123.1271342
"10932 Barnston View Rd, Pitt Meadows, BC V3Y 0B9",,,South Bonson Community Centre,http://www.placemaillardville.ca/,Leisure / Community Centres,General,Indoor,Public,,,,,,,,,,,49.2017956,-122.6802009
"10950 126a St, Surrey, BC V3W 7J9",,,North Surrey Sport & Ice Complex,https://www.surrey.ca/culture-recreation/23437.aspx,Ice,2+ surfaces,Indoor,Public,10950,126a Street,,Surrey,BC,V3W 7J9,,,"3 ice sheets, fitness",,49.1481612,-122.8720549
"10950 126a St, Surrey, BC V3W 7J9",,,North Surrey Sport & Ice Complex,https://www.surrey.ca/culture-recreation/23437.aspx,Physical Recreation & Sports,Fitness centres / areas ,Indoor,Public,10950,126a Street,,Surrey,BC,V3W 7J9,,,"3 ice sheets, fitness",,49.1481612,-122.8720549
"110-13100 Mitchell Rd, Richmond, BC V6V 1M8",,,Badminton Vancouver,http://www.badminton-vancouver.com/,Physical Recreation & Sports,"Racquet courts (squash, racquetball, badminton)",Indoor,Public,,,,,,,,,,,49.2047772,-123.0794756
"11111 Horseshoe Way, Richmond, BC V7A 4Y1",,,Vancouver International Tennis Academy,https://vancouvertennisacademy.com/,Physical Recreation & Sports,Tennis and/or pickleball courts ,Both,Private,1111,Horseshoe Way ,,Richmond,BC,V7A 4Y1,,,"tennis, fitness, swimming, racquet courts",,49.1314649,-123.0937797
"11111 Horseshoe Way, Richmond, BC V7A 4Y1",,,Vancouver International Tennis Academy,https://vancouvertennisacademy.com/,Aquatics,25m pool with or without other pools,Indoor,Private,1111,Horseshoe Way ,,Richmond,BC,V7A 4Y1,,,"tennis, fitness, swimming, racquet courts",,49.1314649,-123.0937797
"11111 Horseshoe Way, Richmond, BC V7A 4Y1",,,Vancouver International Tennis Academy,https://vancouvertennisacademy.com/,Aquatics,Leisure / wading pools,Indoor,Private,1111,Horseshoe Way ,,Richmond,BC,V7A 4Y1,,,"tennis, fitness, swimming, racquet courts",,49.1314649,-123.0937797
"11111 Horseshoe Way, Richmond, BC V7A 4Y1",,,Vancouver International Tennis Academy,https://vancouvertennisacademy.com/,Physical Recreation & Sports,Fitness centres / areas ,Indoor,Private,1111,Horseshoe Way ,,Richmond,BC,V7A 4Y1,,,"tennis, fitness, swimming, racquet courts",,49.1314649,-123.0937797
"11111 Horseshoe Way, Richmond, BC V7A 4Y1",,,Vancouver International Tennis Academy,https://vancouvertennisacademy.com/,Physical Recreation & Sports,"Racquet courts (squash, racquetball, badminton)",Indoor,Private,1111,Horseshoe Way ,,Richmond,BC,V7A 4Y1,,,"tennis, fitness, swimming, racquet courts",,49.1314649,-123.0937797
"112 E 3rd Ave, Vancouver, BC V5T 1C8",,,Tennis British Columbia,http://www.tennisbc.org/,Physical Recreation & Sports,Tennis and/or pickleball courts ,Indoor,Private,112,E 3rd Avenue,,Vancouver,BC,V5T 1C8,,,,,49.2679414,-123.1023448
"11339 84 Ave, Delta, BC V4C 2L9",,,Boys & Girls Clubs of South Coast BC,https://bgcbc.ca/locations/hillside/,Leisure / Community Centres,Youth,Indoor,Public,,,,,,,,,,,49.1563369,-122.9086057
"11415 84 Ave, Delta, BC V4C 2L9",,,Delta Thistle Curling Club,https://deltathistle.ca/,Ice,Curling,Indoor,Public,11415,84 Avenue,,Delta,BC,V4C 2L9,,,,,49.1570784,-122.9059379
"11415 84 Ave, Delta, BC V4C 2L9",,,North Delta Recreation Centre,http://www.delta.ca/parks-recreation/sport-recreation/indoor-facilities/north-delta-recreation-centre,Ice,2+ surfaces,Indoor,Public,11415,84 Avenue,,Delta,BC,V4C 2L9,,,"ice arena, outdoor pool, gym, fitness, curling",,49.1570784,-122.9059379
"11415 84 Ave, Delta, BC V4C 2L9",,,North Delta Recreation Centre,http://www.delta.ca/parks-recreation/sport-recreation/indoor-facilities/north-delta-recreation-centre,Ice,Curling,Indoor,Public,11415,84 Avenue,,Delta,BC,V4C 2L9,,,"ice arena, outdoor pool, gym, fitness, curling",,49.1570784,-122.9059379
"11415 84 Ave, Delta, BC V4C 2L9",,,North Delta Recreation Centre,http://www.delta.ca/parks-recreation/sport-recreation/indoor-facilities/north-delta-recreation-centre,Physical Recreation & Sports,Gymnasiums ,Indoor,Public,11415,84 Avenue,,Delta,BC,V4C 2L9,,,"ice arena, outdoor pool, gym, fitness, curling",,49.1570784,-122.9059379
"11415 84 Ave, Delta, BC V4C 2L9",,,North Delta Recreation Centre,http://www.delta.ca/parks-recreation/sport-recreation/indoor-facilities/north-delta-recreation-centre,Physical Recreation & Sports,Fitness centres / areas ,Indoor,Public,11415,84 Avenue,,Delta,BC,V4C 2L9,,,"ice arena, outdoor pool, gym, fitness, curling",,49.1570784,-122.9059379
"11435 Bonson Rd, Pitt Meadows, BC V3Y 2S3",,,Pitt Meadows Arena Complex,http://www.pittmeadowsarena.com/,Ice,2+ surfaces,Indoor,Public,,,,,,,,,,,49.2114078,-122.6782959
"11475 126a St, Surrey, BC V3V 5G8",,,Bridgeview Community Centre,https://www.surrey.ca/culture-recreation/11534.aspx,Leisure / Community Centres,General,Both,Public,11475,126a Street,,Surrey,BC,V3V 5G8,,,"community centre, gym, fitness, tennis, sports fields, water park, playground",,49.2112504,-122.8717627
"11475 126a St, Surrey, BC V3V 5G8",,,Bridgeview Community Centre,https://www.surrey.ca/culture-recreation/11534.aspx,Physical Recreation & Sports,Gymnasiums ,Indoor,Public,11475,126a Street,,Surrey,BC,V3V 5G8,,,"community centre, gym, fitness, tennis, sports fields, water park, playground",,49.2112504,-122.8717627
"11739 223 St, Maple Ridge, BC V2X 5X8",,,CEED Centre Society,https://www.ceedcentre.com/,Leisure / Community Centres,General,Indoor,Public,,,,,,,,,,,49.215304,-122.6048391
"11925 Haney Pl, Maple Ridge, BC V2X 6G2",,,Greg Moore Youth Centre,,Leisure / Community Centres,Youth,Indoor,Public,,,,,,,,,"youth centre, indoor skate park (website difficult to navigate, so I used the Google comments)",,49.2190204,-122.5977879
"11925 Haney Pl, Maple Ridge, BC V2X 6G2",,,Maple Ridge Leisure Centre,https://www.mapleridge.ca/Facilities/Facility/Details/Maple-Ridge-Leisure-Centre-145,Aquatics,25m pool with or without other pools,Indoor,Public,,,,,,,,,"pools, gym, fitness, racquet courts",,49.2190204,-122.5977879
"11925 Haney Pl, Maple Ridge, BC V2X 6G2",,,Maple Ridge Leisure Centre,https://www.mapleridge.ca/Facilities/Facility/Details/Maple-Ridge-Leisure-Centre-145,Aquatics,Leisure / wading pools,Indoor,Public,,,,,,,,,"pools, gym, fitness, racquet courts",,49.2190204,-122.5977879
"11925 Haney Pl, Maple Ridge, BC V2X 6G2",,,Maple Ridge Leisure Centre,https://www.mapleridge.ca/Facilities/Facility/Details/Maple-Ridge-Leisure-Centre-145,Physical Recreation & Sports,Gymnasiums ,Indoor,Public,,,,,,,,,"pools, gym, fitness, racquet courts",,49.2190204,-122.5977879
"11925 Haney Pl, Maple Ridge, BC V2X 6G2",,,Maple Ridge Leisure Centre,https://www.mapleridge.ca/Facilities/Facility/Details/Maple-Ridge-Leisure-Centre-145,Physical Recreation & Sports,Fitness centres / areas ,Indoor,Public,,,,,,,,,"pools, gym, fitness, racquet courts",,49.2190204,-122.5977879
"11925 Haney Pl, Maple Ridge, BC V2X 6G2",,,Maple Ridge Leisure Centre,https://www.mapleridge.ca/Facilities/Facility/Details/Maple-Ridge-Leisure-Centre-145,Physical Recreation & Sports,"Racquet courts (squash, racquetball, badminton)",Indoor,Public,,,,,,,,,"pools, gym, fitness, racquet courts",,49.2190204,-122.5977879
"1200 Cartier Ave, Coquitlam, BC V3K 2C3",,,Place Maillardville Community Centre,http://www.placemaillardville.ca/,Leisure / Community Centres,General,Indoor,Public,,,,,,,,,"community centre with programs for children, youth, adults, families and seniors",,49.240856,-122.8585229
"1200 Glen Pine Court, Coquitlam, BC V3B 2P7",,,Glen Pine Pavilion,https://www.coquitlam.ca/parks-recreation-and-culture/sport-and-recreation/recreation-centres/glen-pine-pavilion.aspx,Leisure / Community Centres,General,Indoor,Public,,,,,,,,,"adult community centre, fitness",,49.283191,-122.7950109
"1200 Glen Pine Court, Coquitlam, BC V3B 2P7",,,Glen Pine Pavilion,https://www.coquitlam.ca/parks-recreation-and-culture/sport-and-recreation/recreation-centres/glen-pine-pavilion.aspx,Physical Recreation & Sports,Fitness centres / areas ,Indoor,Public,,,,,,,,,"adult community centre, fitness",,49.283191,-122.7950109
"12027 Harris Rd, Pitt Meadows, BC V3Y 0B9",,,Pitt Meadows Family Recreation Centre,https://www.pittmeadows.ca/parks-recreation/parks-fields-facilities/parks-list/pitt-meadows-family-recreation-centre,Physical Recreation & Sports,Fitness centres / areas ,Indoor,Public,,,,,,,,,"fitness, gym, sports",,49.2209883,-122.6915058
"12027 Harris Rd, Pitt Meadows, BC V3Y 0B9",,,Pitt Meadows Family Recreation Centre,https://www.pittmeadows.ca/parks-recreation/parks-fields-facilities/parks-list/pitt-meadows-family-recreation-centre,Physical Recreation & Sports,Gymnasiums ,Indoor,Public,,,,,,,,,"fitness, gym, sports",,49.2209883,-122.6915058
"12027 Harris Rd, Pitt Meadows, BC V3Y 0B9",,,Pitt Meadows Family Recreation Centre,https://www.pittmeadows.ca/parks-recreation/parks-fields-facilities/parks-list/pitt-meadows-family-recreation-centre,Physical Recreation & Sports,Sport fields,Indoor,Public,,,,,,,,,"fitness, gym, sports",,49.2209883,-122.6915058
"1210 Pinetree Way, Coquitlam, BC V3B 7T8",,,City Centre Aquatic Complex,https://www.coquitlam.ca/parks-recreation-and-culture/sport-and-recreation/sports-facilities/indoors/city-centre-aquatic-complex.aspx,Aquatics,50m+ pool with or without other pools,Indoor,Public,1210,Pinetree Way,,Coquitlam,BC,V3B 7T8,,,"Olympic-sized pool, wave pool, fitness",,49.28601,-122.793331
"1210 Pinetree Way, Coquitlam, BC V3B 7T8",,,City Centre Aquatic Complex,https://www.coquitlam.ca/parks-recreation-and-culture/sport-and-recreation/sports-facilities/indoors/city-centre-aquatic-complex.aspx,Aquatics,25m pool with or without other pools,Indoor,Public,1210,Pinetree Way,,Coquitlam,BC,V3B 7T8,,,"Olympic-sized pool, wave pool, fitness",,49.28601,-122.793331
"1210 Pinetree Way, Coquitlam, BC V3B 7T8",,,City Centre Aquatic Complex,https://www.coquitlam.ca/parks-recreation-and-culture/sport-and-recreation/sports-facilities/indoors/city-centre-aquatic-complex.aspx,Aquatics,Leisure / wading pools,Indoor,Public,1210,Pinetree Way,,Coquitlam,BC,V3B 7T8,,,"Olympic-sized pool, wave pool, fitness",,49.28601,-122.793331
"1210 Pinetree Way, Coquitlam, BC V3B 7T8",,,City Centre Aquatic Complex,https://www.coquitlam.ca/parks-recreation-and-culture/sport-and-recreation/sports-facilities/indoors/city-centre-aquatic-complex.aspx,Physical Recreation & Sports,Fitness centres / areas ,Indoor,Public,1210,Pinetree Way,,Coquitlam,BC,V3B 7T8,,,"Olympic-sized pool, wave pool, fitness",,49.28601,-122.793331
"12150 224 St, Maple Ridge, BC V2X 6B6",,,Maple Ridge Seniors Activity Centre,https://rmssseniors.org/,Leisure / Community Centres,Seniors,Indoor,Public,,,,,,,,,,,49.2233331,-122.6002128
"123 23rd St E, North Vancouver, BC V7L 3E2",,,Harry Jerome Community Recreation Centre,https://www.nvrc.ca/facilities-fields/locations-hours/community-recreation-centres/harry-jerome-community-recreation,Leisure / Community Centres,General,Indoor,Public,123,23rd Avenue ,,North Vancouver,BC,V7L 3E2,,,"community centre, pool, fitness",,49.3298116,-123.0709021
"123 23rd St E, North Vancouver, BC V7L 3E2",,,Harry Jerome Community Recreation Centre,https://www.nvrc.ca/facilities-fields/locations-hours/community-recreation-centres/harry-jerome-community-recreation,Aquatics,25m pool with or without other pools,Indoor,Public,123,23rd Avenue ,,North Vancouver,BC,V7L 3E2,,,"community centre, pool, fitness",,49.3298116,-123.0709021
"123 23rd St E, North Vancouver, BC V7L 3E2",,,Harry Jerome Community Recreation Centre,https://www.nvrc.ca/facilities-fields/locations-hours/community-recreation-centres/harry-jerome-community-recreation,Physical Recreation & Sports,Fitness centres / areas ,Indoor,Public,123,23rd Avenue ,,North Vancouver,BC,V7L 3E2,,,"community centre, pool, fitness",,49.3298116,-123.0709021
"123 23rd St E, North Vancouver, BC V7L 3E2",,,Harry Jerome Community Recreation Centre,https://www.nvrc.ca/facilities-fields/locations-hours/community-recreation-centres/harry-jerome-community-recreation,Ice,Single surface,Indoor,Public,123,23rd Avenue ,,North Vancouver,BC,V7L 3E2,,,"community centre, pool, fitness",,49.3298116,-123.0709021
"123 23rd St E, North Vancouver, BC V7L 3E2",,,Chief Joe Mathias Centre,https://www.squamish.net/,Leisure / Community Centres,General,Indoor,Public,123,23rd Avenue ,,North Vancouver,BC,V7L 3E2,,,"community centre, Aboriginal",,49.3298116,-123.0709021
"123 East 23rd Street, North Vancouver, BC V7N 2L3",,,Memorial Community Recreation Centre,https://www.nvrc.ca/facilities-fields/locations-hours/community-recreation-centres/memorial-community-recreation-centre,Leisure / Community Centres,General,Indoor,Public,123,East 23rd Street,,North Vancouver,BC,V7N 2L3,,,community centre with gymnasium,,49.3298116,-123.0709021
"123 East 23rd Street, North Vancouver, BC V7N 2L3",,,Memorial Community Recreation Centre,https://www.nvrc.ca/facilities-fields/locations-hours/community-recreation-centres/memorial-community-recreation-centre,Physical Recreation & Sports,Gymnasiums ,Indoor,Public,123,East 23rd Street,,North Vancouver,BC,V7N 2L3,,,community centre with gymnasium,,49.3298116,-123.0709021
"1234 Hornby St, Vancouver, BC V6Z 1W2",,,Propel Swimming Lessons,https://www.propelhq.com/,Aquatics,25m pool with or without other pools,Indoor,Private,1234,Hornby Street,,Vancouver,BC,V6Z 1W2,,,private swimming lessons at the Residence Inn by Marriott,,49.2778649,-123.1284885
"125 Kyle St, Port Moody, BC  V3H 3B3",,,Kyle Centre,https://www.portmoody.ca/en/recreation-parks-and-environment/facilities-and-rentals.aspx#Kyle-Centre,Leisure / Community Centres,General,Indoor,Public,,,,,,,,,,,49.2759719,-122.8575604
"1260 Pinetree Way, Coquitlam, BC  V3B 7Z4",,,Pinetree Community Centre,https://www.coquitlam.ca/parks-recreation-and-culture/sport-and-recreation/recreation-centres/pinetree-community-centre.aspx,Leisure / Community Centres,General,Indoor,Public,,,,,,,,,"community centre, fitness, gym",,49.2894463,-122.7916051
"1260 Pinetree Way, Coquitlam, BC  V3B 7Z4",,,Pinetree Community Centre,https://www.coquitlam.ca/parks-recreation-and-culture/sport-and-recreation/recreation-centres/pinetree-community-centre.aspx,Physical Recreation & Sports,Gymnasiums ,Indoor,Public,,,,,,,,,"community centre, fitness, gym",,49.2894463,-122.7916051
"1260 Pinetree Way, Coquitlam, BC  V3B 7Z4",,,Pinetree Community Centre,https://www.coquitlam.ca/parks-recreation-and-culture/sport-and-recreation/recreation-centres/pinetree-community-centre.aspx,Physical Recreation & Sports,Fitness centres / areas ,Indoor,Public,,,,,,,,,"community centre, fitness, gym",,49.2894463,-122.7916051
"12800 Cambie Rd, Richmond, BC V6V 0A9",,,Cambie Community Centre,https://www.richmond.ca/parksrec/centres/cambiecentre/cambie.htm,Leisure / Community Centres,General,Indoor,Public,12800,Cambie Road,,Richmond,BC,V6V 0A9,,,"community centre shares facilities with HJ Cambie Secondary School - gymnasiums, fitness",,49.1837264,-123.0816757
"12800 Cambie Rd, Richmond, BC V6V 0A9",,,Cambie Community Centre,https://www.richmond.ca/parksrec/centres/cambiecentre/cambie.htm,Physical Recreation & Sports,Gymnasiums ,Indoor,Public,12800,Cambie Road,,Richmond,BC,V6V 0A9,,,"community centre shares facilities with HJ Cambie Secondary School - gymnasiums, fitness",,49.1837264,-123.0816757
"12800 Cambie Rd, Richmond, BC V6V 0A9",,,Cambie Community Centre,https://www.richmond.ca/parksrec/centres/cambiecentre/cambie.htm,Physical Recreation & Sports,Fitness centres / areas ,Indoor,Public,12800,Cambie Road,,Richmond,BC,V6V 0A9,,,"community centre shares facilities with HJ Cambie Secondary School - gymnasiums, fitness",,49.1837264,-123.0816757
"1318 Cartwright St, Vancouver, BC V6H 3R8",,,False Creek Community Centre,https://falsecreekcc.ca/,Leisure / Community Centres,General,Both,Public,1318,Cartwright Street,,Vancouver,BC,V6H 3R8,,,"community centre with programs for children, youth, adults and seniors, fitness, tennis, sports, water park",,49.2696114,-123.1341742
"1318 Cartwright St, Vancouver, BC V6H 3R8",,,False Creek Community Centre,https://falsecreekcc.ca/,Physical Recreation & Sports,Fitness centres / areas ,Indoor,Public,1318,Cartwright Street,,Vancouver,BC,V6H 3R8,,,"community centre with programs for children, youth, adults and seniors, fitness, tennis, sports, water park",,49.2696114,-123.1341742
"1320 E Hastings St, Vancouver, BC V5L 1S3",,,Korean Community Centre,http://www.eastvillagevancouver.ca/business/korean-community-centre/,Leisure / Community Centres,General,Indoor,Public,,,,,,,,,,,49.2811709,-123.07671
"1325 Keith Rd E, North Vancouver, BC V7J 1J3",,,North Shore Winter Club,https://www.nswc.ca/,Ice,2+ surfaces,Indoor,Private,1325,Keith Road E,,North Vancouver,BC,V7J 1J3,,,"3 ice rinks, 11 tennis courts, 2 outdoor pools, fitness, racquet courts ",,49.3114336,-123.0373038
"1325 Keith Rd E, North Vancouver, BC V7J 1J3",,,North Shore Winter Club,https://www.nswc.ca/,Physical Recreation & Sports,Fitness centres / areas ,Indoor,Private,1325,Keith Road E,,North Vancouver,BC,V7J 1J3,,,"3 ice rinks, 11 tennis courts, 2 outdoor pools, fitness, racquet courts ",,49.3114336,-123.0373038
"1325 Keith Rd E, North Vancouver, BC V7J 1J3",,,North Shore Winter Club,https://www.nswc.ca/,Physical Recreation & Sports,"Racquet courts (squash, racquetball, badminton)",Indoor,Private,1325,Keith Road E,,North Vancouver,BC,V7J 1J3,,,"3 ice rinks, 11 tennis courts, 2 outdoor pools, fitness, racquet courts ",,49.3114336,-123.0373038
"13458 107a Ave, Surrey, BC V3T 0G4",,,Chuck Bailey Recreation Centre,https://www.surrey.ca/culture-recreation/1914.aspx,Leisure / Community Centres,General,Indoor,Public,13458,107a Avenue,,Surrey,BC,V3T 0G4,,,"community centre with programs for children, youth and seniors, gym, fitness, skate park",,49.1969064,-122.8493325
"13458 107a Ave, Surrey, BC V3T 0G4",,,Chuck Bailey Recreation Centre,https://www.surrey.ca/culture-recreation/1914.aspx,Physical Recreation & Sports,Gymnasiums ,Indoor,Public,13458,107a Avenue,,Surrey,BC,V3T 0G4,,,"community centre with programs for children, youth and seniors, gym, fitness, skate park",,49.1969064,-122.8493325
"13458 107a Ave, Surrey, BC V3T 0G4",,,Chuck Bailey Recreation Centre,https://www.surrey.ca/culture-recreation/1914.aspx,Physical Recreation & Sports,Fitness centres / areas ,Indoor,Public,13458,107a Avenue,,Surrey,BC,V3T 0G4,,,"community centre with programs for children, youth and seniors, gym, fitness, skate park",,49.1969064,-122.8493325
"13458 107a Ave, Surrey, BC V3T 0G4",,,Chuck Bailey Recreation Centre,https://www.surrey.ca/culture-recreation/1914.aspx,Physical Recreation & Sports,Skate parks,Indoor,Public,13458,107a Avenue,,Surrey,BC,V3T 0G4,,,"community centre with programs for children, youth and seniors, gym, fitness, skate park",,49.1969064,-122.8493325
"13479 76 Ave, Surrey, BC V3W 2W3",,,Newton Youth Hub,https://pcrs.ca/service-resource-centres/surrey-youth-resource-centre/,Leisure / Community Centres,Youth,Indoor,Public,,,,,,,,,,,49.1410351,-122.8490883
"13730 72 Ave, Surrey, BC V3W 2P4",,,Newton Recreation Centre,https://www.surrey.ca/culture-recreation/7325.aspx,Aquatics,25m pool with or without other pools,Indoor,Public,13730,72 Avenue,,Surrey,BC,V3W 2P4,,,"wave pool, gym, fitness",,49.13288,-122.8420851
"13730 72 Ave, Surrey, BC V3W 2P4",,,Newton Recreation Centre,https://www.surrey.ca/culture-recreation/7325.aspx,Ice,Single surface,Indoor,Public,,,,,,,,,across from the lot from the wave pool,,49.13288,-122.8420851
"13730 72 Ave, Surrey, BC V3W 2P4",,,Newton Recreation Centre,https://www.surrey.ca/culture-recreation/7325.aspx,Physical Recreation & Sports,Gymnasiums ,Indoor,Public,13730,72 Avenue,,Surrey,BC,V3W 2P4,,,"wave pool, gym, fitness",,49.13288,-122.8420851
"13730 72 Ave, Surrey, BC V3W 2P4",,,Newton Recreation Centre,https://www.surrey.ca/culture-recreation/7325.aspx,Physical Recreation & Sports,Fitness centres / areas ,Indoor,Public,13730,72 Avenue,,Surrey,BC,V3W 2P4,,,"wave pool, gym, fitness",,49.13288,-122.8420851
"1379 Laurier Ave, Port Coquitlam, BC V3B 2B9",,,Hyde Creek Recreation Centre,https://www.portcoquitlam.ca/recreation/hyde-creek-recreation-centre/,Aquatics,25m pool with or without other pools,Indoor,Public,,,,,,,,,"pools, racquet courts, gym, fitness",,49.275501,-122.7509744
"1379 Laurier Ave, Port Coquitlam, BC V3B 2B9",,,Hyde Creek Recreation Centre,https://www.portcoquitlam.ca/recreation/hyde-creek-recreation-centre/,Aquatics,Leisure / wading pools,Indoor,Public,,,,,,,,,"pools, racquet courts, gym, fitness",,49.275501,-122.7509744
"1379 Laurier Ave, Port Coquitlam, BC V3B 2B9",,,Hyde Creek Recreation Centre,https://www.portcoquitlam.ca/recreation/hyde-creek-recreation-centre/,Physical Recreation & Sports,"Racquet courts (squash, racquetball, badminton)",Indoor,Public,,,,,,,,,"pools, racquet courts, gym, fitness",,49.275501,-122.7509744
"1379 Laurier Ave, Port Coquitlam, BC V3B 2B9",,,Hyde Creek Recreation Centre,https://www.portcoquitlam.ca/recreation/hyde-creek-recreation-centre/,Physical Recreation & Sports,Gymnasiums ,Indoor,Public,,,,,,,,,"pools, racquet courts, gym, fitness",,49.275501,-122.7509744
"1379 Laurier Ave, Port Coquitlam, BC V3B 2B9",,,Hyde Creek Recreation Centre,https://www.portcoquitlam.ca/recreation/hyde-creek-recreation-centre/,Physical Recreation & Sports,Fitness centres / areas ,Indoor,Public,,,,,,,,,"pools, racquet courts, gym, fitness",,49.275501,-122.7509744
"1381 George St, White Rock, BC V4B 2L1",,,ThirdSpace,http://www.ourthirdspace.com/,Leisure / Community Centres,General,Indoor,Public,,,,,,,,,,,49.0272746,-122.7999866
"14140 Triangle Rd, Richmond, BC V6W 1B1",,Richmond,Richmond Ice Centre,https://www.richmond.ca/parksrec/arenas/about.htm,Ice,2+ surfaces,Indoor,Public,14140,Triangle Road,,Richmond,BC,V6W 1B1,,,,,49.1361826,-123.0666353
"14300 Entertainment Blvd, Richmond, BC V6W 1K3",,,Watermania,https://www.richmond.ca/parksrec/pools/watermania.htm,Aquatics,50m+ pool with or without other pools,Indoor,Public,,,,,,,,,"pools, spray park, fitness",,49.1358937,-123.0631315
"14300 Entertainment Blvd, Richmond, BC V6W 1K3",,,Watermania,https://www.richmond.ca/parksrec/pools/watermania.htm,Aquatics,Spray parks / splash pads,Indoor,Public,,,,,,,,,"pools, spray park, fitness",,49.1358937,-123.0631315
"14300 Entertainment Blvd, Richmond, BC V6W 1K3",,,Watermania,https://www.richmond.ca/parksrec/pools/watermania.htm,Aquatics,Leisure / wading pools,Indoor,Public,,,,,,,,,,,49.1358937,-123.0631315
"14300 Entertainment Blvd, Richmond, BC V6W 1K3",,,Watermania,https://www.richmond.ca/parksrec/pools/watermania.htm,Physical Recreation & Sports,Fitness centres / areas ,Indoor,Public,,,,,,,,,"pools, spray park, fitness",,49.1358937,-123.0631315
"1447 Barclay St, Vancouver, BC V6G 1J6",,,Barclay Manor,https://westendcc.ca/barclay-manor/,Leisure / Community Centres,Seniors,Indoor,Public,1447,Barclay Street,,Vancouver,BC,V6G 1J6,,,senior's centre with fitness classes,,49.2872096,-123.1325898
"1447 Barclay St, Vancouver, BC V6G 1J6",,,Barclay Manor,https://westendcc.ca/barclay-manor/,Physical Recreation & Sports,Fitness centres / areas ,Indoor,Public,1447,Barclay Street,,Vancouver,BC,V6G 1J6,,,senior's centre with fitness classes,,49.2872096,-123.1325898
"145 W 1st St, North Vancouver, BC V7M 1B1",,,John Braithwaite Community Centre,https://www.nvrc.ca/facilities-fields/locations-hours/community-recreation-centres/john-braithwaite-community-centre,Leisure / Community Centres,General,Indoor,Public,145,W 1st Street,,North Vancouver,BC,V7M 1B1,,,"community centre with senior's centre, fitness, gym, badminton, pickleball",,49.312323,-123.0808707
"145 W 1st St, North Vancouver, BC V7M 1B1",,,John Braithwaite Community Centre,https://www.nvrc.ca/facilities-fields/locations-hours/community-recreation-centres/john-braithwaite-community-centre,Physical Recreation & Sports,Fitness centres / areas ,Indoor,Public,145,W 1st Street,,North Vancouver,BC,V7M 1B1,,,"community centre with senior's centre, fitness, gym, badminton, pickleball",,49.312323,-123.0808707
"145 W 1st St, North Vancouver, BC V7M 1B1",,,John Braithwaite Community Centre,https://www.nvrc.ca/facilities-fields/locations-hours/community-recreation-centres/john-braithwaite-community-centre,Physical Recreation & Sports,Gymnasiums ,Indoor,Public,145,W 1st Street,,North Vancouver,BC,V7M 1B1,,,"community centre with senior's centre, fitness, gym, badminton, pickleball",,49.312323,-123.0808707
"145 W 1st St, North Vancouver, BC V7M 1B1",,,John Braithwaite Community Centre,https://www.nvrc.ca/facilities-fields/locations-hours/community-recreation-centres/john-braithwaite-community-centre,Physical Recreation & Sports,"Racquet courts (squash, racquetball, badminton)",Indoor,Public,145,W 1st Street,,North Vancouver,BC,V7M 1B1,,,"community centre with senior's centre, fitness, gym, badminton, pickleball",,49.312323,-123.0808707
"145 W 1st St, North Vancouver, BC V7M 1B1",,,John Braithwaite Community Centre,https://www.nvrc.ca/facilities-fields/locations-hours/community-recreation-centres/john-braithwaite-community-centre,Physical Recreation & Sports,Tennis and/or pickleball courts ,Indoor,Public,145,W 1st Street,,North Vancouver,BC,V7M 1B1,,,"community centre with senior's centre, fitness, gym, badminton, pickleball",,49.312323,-123.0808707
"1450 Parkway Blvd, Coquitlam, BC V3E 3L2",,,Summit Community Centre,https://www.coquitlam.ca/parks-recreation-and-culture/sport-and-recreation/recreation-centres/summit-community-centre.aspx,Leisure / Community Centres,General,Indoor,Public,,,,,,,,,"pools, fitness",,49.295501,-122.8064909
"1450 Parkway Blvd, Coquitlam, BC V3E 3L2",,,Summit Community Centre,https://www.coquitlam.ca/parks-recreation-and-culture/sport-and-recreation/recreation-centres/summit-community-centre.aspx,Physical Recreation & Sports,Gymnasiums ,Indoor,Public,,,,,,,,,"pools, fitness",,49.295501,-122.8064909
"14600 North Bluff Rd, White Rock, BC V4B 3C9",,,Centennial Arena,https://www.whiterockcity.ca/Facilities/Facility/Details/Centennial-Park-Leisure-Centre-Arena-15,Ice,Single surface,Indoor,Public,14600,North Bluff Road,,White Rock,BC,V4B 3C9,,,Ice think (becomes dry floor from April to August),,49.0311682,-122.8174569
"14600 North Bluff Rd, White Rock, BC V4B 3C9",,,Centennial Arena,https://www.whiterockcity.ca/Facilities/Facility/Details/Centennial-Park-Leisure-Centre-Arena-15,Physical Recreation & Sports,Gymnasiums ,Indoor,Public,14600,North Bluff Road,,White Rock,BC,V4B 3C9,,,Ice think (becomes dry floor from April to August),,49.0311682,-122.8174569
"14601 20 Ave, Surrey, BC V4A 9P5",,,South Surrey Recreation and Arts Centre,https://www.surrey.ca/culture-recreation/1918.aspx,Leisure / Community Centres,General,Indoor,Public,14601,20 Avenue,,Surrey,BC,V4A 9P5,,,"community centre with programs for children, youth and seniors, gym, fitness, tennis, skate park",,49.0398213,-122.8186066
"14601 20 Ave, Surrey, BC V4A 9P5",,,South Surrey Recreation and Arts Centre,https://www.surrey.ca/culture-recreation/1918.aspx,Physical Recreation & Sports,Gymnasiums ,Indoor,Public,14601,20 Avenue,,Surrey,BC,V4A 9P5,,,"community centre with programs for children, youth and seniors, gym, fitness, tennis, skate park",,49.0398213,-122.8186066
"14601 20 Ave, Surrey, BC V4A 9P5",,,South Surrey Recreation and Arts Centre,https://www.surrey.ca/culture-recreation/1918.aspx,Physical Recreation & Sports,Fitness centres / areas ,Indoor,Public,14601,20 Avenue,,Surrey,BC,V4A 9P5,,,"community centre with programs for children, youth and seniors, gym, fitness, tennis, skate park",,49.0398213,-122.8186066
"14655 17 Ave, Surrey, BC V4A 5M2",,,South Surrey Indoor Pool,https://www.surrey.ca/culture-recreation/1755.aspx,Aquatics,25m pool with or without other pools,Indoor,Public,14655,17 Avenue,,Surrey,BC,V4A 5M2,,,pool and fitness,,49.0333255,-122.8157273
"14655 17 Ave, Surrey, BC V4A 5M2",,,South Surrey Indoor Pool,https://www.surrey.ca/culture-recreation/1755.aspx,Aquatics,Leisure / wading pools,Indoor,Public,14655,17 Avenue,,Surrey,BC,V4A 5M2,,,pool and fitness,,49.0333255,-122.8157273
"14655 17 Ave, Surrey, BC V4A 5M2",,,South Surrey Indoor Pool,https://www.surrey.ca/culture-recreation/1755.aspx,Physical Recreation & Sports,Fitness centres / areas ,Indoor,Public,14655,17 Avenue,,Surrey,BC,V4A 5M2,,,pool and fitness,,49.0333255,-122.8157273
"1475 Anderson St, White Rock, BC V4B 0A8",,White Rock,Peace Arch Curling Club,https://peacearchcurling.com/,Ice,Curling,Indoor,Public,1475,Anderson Street,,White Rock,BC,V4B 0A8,,,,,49.0287965,-122.8173146
"1475 Anderson St, White Rock, BC V4B 0A8",,,Horst and Emmy Werner Centre for Active Living,https://www.whiterockcity.ca/Facilities/Facility/Details/Horst-and-Emmy-Werner-Centre-for-Active--20,Leisure / Community Centres,General,Indoor,Public,,,,,,,,,,,49.0287965,-122.8173146
"1475 Kent St, White Rock, BC V4B 5A2",,,Kent Street Activity Centre,https://www.whiterockcity.ca/Facilities/Facility/Details/Kent-Street-Activity-Centre-12,Leisure / Community Centres,General,Indoor,Public,,,,,,,,,,,49.0289149,-122.7849962
"1491 Carleton Ave, Burnaby, BC V5C 4V5",,,Willingdon Community Centre,https://www.burnaby.ca/Things-To-Do/Community-Centres/Willingdon-Centre.html,Leisure / Community Centres,General,Indoor,Public,1491,Carleton Avenue,,Burnaby ,BC,V5C 4V5,,,"community centre, fitness",,49.2711845,-123.0131254
"1491 Carleton Ave, Burnaby, BC V5C 4V5",,,Willingdon Community Centre,https://www.burnaby.ca/Things-To-Do/Community-Centres/Willingdon-Centre.html,Physical Recreation & Sports,Fitness centres / areas ,Indoor,Public,1491,Carleton Avenue,,Burnaby ,BC,V5C 4V5,,,"community centre, fitness",,49.2711845,-123.0131254
"1491 Carleton Ave, Burnaby, BC V5C 4V5",,,Willingdon Community Centre,https://www.burnaby.ca/Things-To-Do/Community-Centres/Willingdon-Centre.html,Physical Recreation & Sports,Gymnasiums ,Indoor,Public,,,,,,,,,,,49.2711845,-123.0131254
"15000 54a Ave, Surrey, BC V3S 5X7",,,Excellent Ice,https://excellentice.com/,Ice,2+ surfaces,Indoor,Public,15000,54a Avenue,,Surrey,BC,V3S 5X7,,,,,49.1012476,-122.8076873
"15105 105 Ave, Surrey, BC V3R 7G8",,,Guildford Recreation Centre,https://www.surrey.ca/culture-recreation/1876.aspx,Aquatics,25m pool with or without other pools,Indoor,Public,15105,105 Avenue,,Surrey,BC,V3R 7G8,,,"pool, gym, fitness, indoor track",,49.1935859,-122.8026847
"15105 105 Ave, Surrey, BC V3R 7G8",,,Guildford Recreation Centre,https://www.surrey.ca/culture-recreation/1876.aspx,Physical Recreation & Sports,Gymnasiums ,Indoor,Public,15105,105 Avenue,,Surrey,BC,V3R 7G8,,,"pool, gym, fitness, indoor track",,49.1935859,-122.8026847
"15105 105 Ave, Surrey, BC V3R 7G8",,,Guildford Recreation Centre,https://www.surrey.ca/culture-recreation/1876.aspx,Physical Recreation & Sports,Fitness centres / areas ,Indoor,Public,15105,105 Avenue,,Surrey,BC,V3R 7G8,,,"pool, gym, fitness, indoor track",,49.1935859,-122.8026847
"15105 105 Ave, Surrey, BC V3R 7G8",,,Guildford Recreation Centre,https://www.surrey.ca/culture-recreation/1876.aspx,Physical Recreation & Sports,Running tracks (track and field),Indoor,Public,15105,105 Avenue,,Surrey,BC,V3R 7G8,,,"pool, gym, fitness, indoor track",,49.1935859,-122.8026847
"15154 Russell Ave, White Rock, BC V4B 0A6",,,White Rock Community Centre,https://www.whiterockcity.ca/Facilities/Facility/Details/White-Rock-Community-Centre-1,Leisure / Community Centres,General,Indoor,Public,,,,,,,,,,,49.0290134,-122.8022107
"1544 Foster St, White Rock, BC V4B 3X8",,,White Rock South Surrey Skating Club,https://www.wrsssc.com/,Ice,Single surface,Indoor,Public,1544,Foster Street,,White Rock,BC,V4B 3X8,,,,,49.0306936,-122.8038578
"15996 84 Ave, Surrey, BC V4N 0W1",,,Fleetwood Community Centre,https://www.surrey.ca/culture-recreation/1858.aspx,Leisure / Community Centres,General,Indoor,Public,15996,84 Avenue,,Surrey,BC,V4N 0W1,,,"community centre with programs for children, youth and seniors, gym, fitness",,49.1552275,-122.7797924
"15996 84 Ave, Surrey, BC V4N 0W1",,,Fleetwood Community Centre,https://www.surrey.ca/culture-recreation/1858.aspx,Physical Recreation & Sports,Gymnasiums ,Indoor,Public,15996,84 Avenue,,Surrey,BC,V4N 0W1,,,"community centre with programs for children, youth and seniors, gym, fitness",,49.1552275,-122.7797924
"15996 84 Ave, Surrey, BC V4N 0W1",,,Fleetwood Community Centre,https://www.surrey.ca/culture-recreation/1858.aspx,Physical Recreation & Sports,Fitness centres / areas ,Indoor,Public,15996,84 Avenue,,Surrey,BC,V4N 0W1,,,"community centre with programs for children, youth and seniors, gym, fitness",,49.1552275,-122.7797924
"1630 W 15th Ave, Vancouver, BC V6J 2K7",,,Vancouver Lawn Tennis & Badminton Club,https://www.vanlawn.com/default.aspx?p=DynamicModule&pageid=354597&ssid=261054&vnf=1,Aquatics,25m pool with or without other pools,Both,Private,1630,W 15th Avenue,,Vancouver,BC,V6J 2K7,,,"indoor/outdoor pool, tennis, badminton, fitness",,49.2578591,-123.141893
"1630 W 15th Ave, Vancouver, BC V6J 2K7",,,Vancouver Lawn Tennis & Badminton Club,https://www.vanlawn.com/default.aspx?p=DynamicModule&pageid=354597&ssid=261054&vnf=1,Physical Recreation & Sports,Tennis and/or pickleball courts ,Both,Private,1630,W 15th Avenue,,Vancouver,BC,V6J 2K7,,,"indoor/outdoor pool, tennis, badminton, fitness",,49.2578591,-123.141893
"1630 W 15th Ave, Vancouver, BC V6J 2K7",,,Vancouver Lawn Tennis & Badminton Club,https://www.vanlawn.com/default.aspx?p=DynamicModule&pageid=354597&ssid=261054&vnf=1,Physical Recreation & Sports,"Racquet courts (squash, racquetball, badminton)",Both,Private,1630,W 15th Avenue,,Vancouver,BC,V6J 2K7,,,"indoor/outdoor pool, tennis, badminton, fitness",,49.2578591,-123.141893
"1630 W 15th Ave, Vancouver, BC V6J 2K7",,,Vancouver Lawn Tennis & Badminton Club,https://www.vanlawn.com/default.aspx?p=DynamicModule&pageid=354597&ssid=261054&vnf=1,Physical Recreation & Sports,Fitness centres / areas ,Both,Private,1630,W 15th Avenue,,Vancouver,BC,V6J 2K7,,,"indoor/outdoor pool, tennis, badminton, fitness",,49.2578591,-123.141893
"1630 W 5th Ave, Vancouver, BC V6J 1N8",,,Aquaventures Swim Centre,https://www.aquaventuresswim.com/,Aquatics,25m pool with or without other pools,Indoor,Public,1630,W 5th Avenue ,,Vancouver,BC,V6J 1N8,,,,,49.2666823,-123.1420412
"1650 Foster Ave, Coquitlam, BC V3J 7X1",,,The Tennis Centre,http://coquitlam.thetenniscentre.ca/,Physical Recreation & Sports,Tennis and/or pickleball courts ,Both,Public,5891,144 Street,,Coquitlam,BC,V3X 1A6,,,,,49.255568,-122.8489072
"1655 Winslow Ave, Coquitlam, BC V3J 0E7",,,Dogwood Pavilion,https://www.coquitlam.ca/parks-recreation-and-culture/sport-and-recreation/recreation-centres/dogwood-pavilion.aspx,Leisure / Community Centres,General,Indoor,Public,,,,,,,,,,,49.2542081,-122.8471909
"16555 Fraser Hwy, Surrey, BC V4N 0E9",,,Surrey Sport & Leisure Complex,https://www.surrey.ca/culture-recreation/1888.aspx,Aquatics,50m+ pool with or without other pools,Indoor,Public,16555,Fraser Highway #100,,Surrey,BC,V4N 0E9,,,"Olympic-sized pool, ice rinks, gym, fitness",,49.1527858,-122.7640361
"16555 Fraser Hwy, Surrey, BC V4N 0E9",,,Surrey Sport & Leisure Complex,https://www.surrey.ca/culture-recreation/1888.aspx,Aquatics,Leisure / wading pools,Indoor,Public,16555,Fraser Highway #100,,Surrey,BC,V4N 0E9,,,"Olympic-sized pool, ice rinks, gym, fitness",,49.1527858,-122.7640361
"16555 Fraser Hwy, Surrey, BC V4N 0E9",,,Surrey Sport & Leisure Complex,https://www.surrey.ca/culture-recreation/1888.aspx,Ice,2+ surfaces,Indoor,Public,16555,Fraser Highway #100,,Surrey,BC,V4N 0E9,,,"Olympic-sized pool, ice rinks, gym, fitness",,49.1527858,-122.7640361
"16555 Fraser Hwy, Surrey, BC V4N 0E9",,,Surrey Sport & Leisure Complex,https://www.surrey.ca/culture-recreation/1888.aspx,Physical Recreation & Sports,Gymnasiums ,Indoor,Public,16555,Fraser Highway #100,,Surrey,BC,V4N 0E9,,,"Olympic-sized pool, ice rinks, gym, fitness",,49.1527858,-122.7640361
"16555 Fraser Hwy, Surrey, BC V4N 0E9",,,Surrey Sport & Leisure Complex,https://www.surrey.ca/culture-recreation/1888.aspx,Physical Recreation & Sports,Fitness centres / areas ,Indoor,Public,16555,Fraser Highway #100,,Surrey,BC,V4N 0E9,,,"Olympic-sized pool, ice rinks, gym, fitness",,49.1527858,-122.7640361
"1661 Napier St, Vancouver, BC V5L 4X4",,,Britannia Centre,https://www.britanniacentre.org/facilities.php,Leisure / Community Centres,General,Both,Public,1661,Napier Street,,Vancouver,BC,V5L 4X4,,,"community centre with programs for children, youth, adults, 55+, pool, ice rink, fitness, gym, sports fields, tennis, running track",,49.2750517,-123.070414
"1661 Napier St, Vancouver, BC V5L 4X4",,,Britannia Centre,https://www.britanniacentre.org/facilities.php,Aquatics,25m pool with or without other pools,Indoor,Public,1661,Napier Street,,Vancouver,BC,V5L 4X4,,,"community centre with programs for children, youth, adults, 55+, pool, ice rink, fitness, gym, sports fields, tennis, running track",,49.2750517,-123.070414
"1661 Napier St, Vancouver, BC V5L 4X4",,,Britannia Centre,https://www.britanniacentre.org/facilities.php,Aquatics,Leisure / wading pools,Indoor,Public,1661,Napier Street,,Vancouver,BC,V5L 4X4,,,"community centre with programs for children, youth, adults, 55+, pool, ice rink, fitness, gym, sports fields, tennis, running track",,49.2750517,-123.070414
"1661 Napier St, Vancouver, BC V5L 4X4",,,Britannia Centre,https://www.britanniacentre.org/facilities.php,Ice,Single surface,Indoor,Public,1661,Napier Street,,Vancouver,BC,V5L 4X4,,,"community centre with programs for children, youth, adults, 55+, pool, ice rink, fitness, gym, sports fields, tennis, running track",,49.2750517,-123.070414
"1661 Napier St, Vancouver, BC V5L 4X4",,,Britannia Centre,https://www.britanniacentre.org/facilities.php,Physical Recreation & Sports,Fitness centres / areas ,Indoor,Public,1661,Napier Street,,Vancouver,BC,V5L 4X4,,,"community centre with programs for children, youth, adults, 55+, pool, ice rink, fitness, gym, sports fields, tennis, running track",,49.2750517,-123.070414
"1661 Napier St, Vancouver, BC V5L 4X4",,,Britannia Centre,https://www.britanniacentre.org/facilities.php,Physical Recreation & Sports,Gymnasiums ,Indoor,Public,1661,Napier Street,,Vancouver,BC,V5L 4X4,,,"community centre with programs for children, youth, adults, 55+, pool, ice rink, fitness, gym, sports fields, tennis, running track",,49.2750517,-123.070414
"16824 32 Ave, Surrey, BC V3S 0L5",,,Kensington Prairie Community Centre,https://www.surrey.ca/culture-recreation/7794.aspx,Leisure / Community Centres,Youth,Indoor,Public,16824,32 Avenue,,Surrey,BC,V3S 0L5,,,"community centre with programs for children, gym",,49.0598683,-122.7553195
"16824 32 Ave, Surrey, BC V3S 0L5",,,Kensington Prairie Community Centre,https://www.surrey.ca/culture-recreation/7794.aspx,Physical Recreation & Sports,Gymnasiums ,Indoor,Public,16824,32 Avenue,,Surrey,BC,V3S 0L5,,,"community centre with programs for children, gym",,49.0598683,-122.7553195
"16855 24 Ave, Surrey, BC V3S 0A2",,,Grandview Heights Aquatic Centre,https://www.surrey.ca/culture-recreation/14315.aspx,Aquatics,50m+ pool with or without other pools,Indoor,Public,16855,24 Avenue,,Surrey,BC,V3S 0A2,,,"Olympic-size competition pool, fitness",,49.0461582,-122.7555516
"16855 24 Ave, Surrey, BC V3S 0A2",,,Grandview Heights Aquatic Centre,https://www.surrey.ca/culture-recreation/14315.aspx,Aquatics,Leisure / wading pools,Indoor,Public,16855,24 Avenue,,Surrey,BC,V3S 0A2,,,"Olympic-size competition pool, fitness",,49.0461582,-122.7555516
"16855 24 Ave, Surrey, BC V3S 0A2",,,Grandview Heights Aquatic Centre,https://www.surrey.ca/culture-recreation/14315.aspx,Physical Recreation & Sports,Fitness centres / areas ,Indoor,Public,16855,24 Avenue,,Surrey,BC,V3S 0A2,,,"Olympic-size competition pool, fitness",,49.0461582,-122.7555516
"1720 56 St, Delta, BC V4L 2B1",,,Tunnel Town Curling Club,http://www.tunneltowncurlingclub.com/,Ice,Curling,Indoor,Both,1720,56 Street,,Delta,BC,V4L 2B1,,,,,49.0352568,-123.0668149
"1720 56 St, Delta, BC V4L 2B1",,,South Delta Recreation Centre,http://www.delta.ca/parks-recreation/sport-recreation/indoor-facilities/south-delta-recreation-centre,Ice,Single surface,Indoor,Public,,,,,,,,,"arena, gym",,49.0352568,-123.0668149
"1720 56 St, Delta, BC V4L 2B1",,,South Delta Recreation Centre,http://www.delta.ca/parks-recreation/sport-recreation/indoor-facilities/south-delta-recreation-centre,Physical Recreation & Sports,Gymnasiums ,Indoor,Public,,,,,,,,,"arena, gym",,49.0352568,-123.0668149
"1720 56 St, Delta, BC V4L 2B1",,,South Delta Recreation Centre,http://www.delta.ca/parks-recreation/sport-recreation/indoor-facilities/south-delta-recreation-centre,Ice,Curling,Indoor,Public,,,,,,,,,,,49.0352568,-123.0668149
"1750 Haro St, Vancouver, BC V6G 1K6",,,West End Rink,https://vancouver.ca/parks-recreation-culture/west-end-rink.aspx,Ice,Single surface,Indoor,Public,,,,,,,,,,,49.290205,-123.1363811
"1751 Savage Rd, Richmond, BC V6V 1R1",,,Marina's Swim School ,https://marinaswimschool.com/,Aquatics,25m pool with or without other pools,Indoor,Public,,,,,,,,,,,49.2014294,-123.0605251
"181 Keefer Pl, Vancouver, BC V6B 6C1",,,Ajyal Islamic Centre,http://www.ajyal.ca/,Leisure / Community Centres,General,Indoor,Public,181,Keefer Place,202,Vancouver,BC,V6B 6C1,,,islamic community centre,,49.2800759,-123.1083327
"181 Roundhouse Mews, Vancouver, BC V6Z 2W3",,,Roundhouse Community Arts & Recreation Centre,http://roundhouse.ca/,Leisure / Community Centres,General,Both,Public,181,Roundhouse Mews,,Vancouver,BC,V6Z 2W3,,,"community centre with programs for children, youth, adults and 'older adults', fitness",,49.273368,-123.1217496
"181 Roundhouse Mews, Vancouver, BC V6Z 2W3",,,Roundhouse Community Arts & Recreation Centre,http://roundhouse.ca/,Physical Recreation & Sports,Fitness centres / areas ,Both,Public,181,Roundhouse Mews,,Vancouver,BC,V6Z 2W3,,,"community centre with programs for children, youth, adults and 'older adults', fitness",,49.273368,-123.1217496
"181 Roundhouse Mews, Vancouver, BC V6Z 2W3",,,Roadhouse Community Arts & Recreation Centre,http://roundhouse.ca/,Leisure / Community Centres,General,Indoor,Public,181,Roundhouse Mews,,Vancouver,BC,V6Z 2W3,,,"programs for children, youth, adults and seniors",,49.273368,-123.1217496
"1845 154 St, Surrey, BC V4A 5J8",,,Sunnyside Community Hall,https://www.surrey.ca/culture-recreation/6054.aspx,Leisure / Community Centres,General,Indoor,Public,,,,,,,,,,,49.0358069,-122.7961525
"18513 70 Ave, Surrey, BC  V4N 6B6",,,Clayton Hall,https://www.surrey.ca/culture-recreation/13137.aspx,Leisure / Community Centres,General,Indoor,Public,18513,70 Avenue,,Surrey,BC,V4N 6B6,,,,,49.1300447,-122.7091312
"1st St &, 3rd Ave, New Westminster, BC V3L 1L7",,New Westminster,Queen's Park Arena,https://www.newwestcity.ca/parks-and-recreation/facilities/queens-park-arena,Ice,Single surface,Indoor,Private,?,1st Street and 3rd Avenue,,New Westminster,BC,V3l 1L7,,,skating/hockey/lacrosse,only intersection provided - no civic address,36.307721,-95.302866
"1st St &, 3rd Ave, New Westminster, BC V3L 1L7",,,Queen's Park Arena,https://www.newwestcity.ca/parks-and-recreation/facilities/queens-park-arena,Physical Recreation & Sports,Gymnasiums ,Indoor,Private,?,1st Street and 3rd Avenue,,New Westminster,BC,V3l 1L7,,,skating/hockey/lacrosse,only intersection provided - no civic address,36.307721,-95.302866
"200 Panorama Pl, Port Moody, BC V3H 5H5",,,Heritage Mountain Community Centre,https://www.portmoody.ca/en/recreation-parks-and-environment/facilities-and-rentals.aspx#Heritage-Mountain-Community-Centre,Leisure / Community Centres,General,Indoor,Public,,,,,,,,,,,49.3017444,-122.8301661
"2001 Nanton Ave, Vancouver, BC V6J 4A1",,,The Arbutus Club,https://www.arbutusclub.com/,Aquatics,25m pool with or without other pools,Indoor,Private,2001,Nanton Avenue,,Vancouver,BC,V6J 4A1,,,"aquatics, fitness, racquetball, tennis, ice rink",,49.2487192,-123.1517219
"2001 Nanton Ave, Vancouver, BC V6J 4A1",,,The Arbutus Club,https://www.arbutusclub.com/,Aquatics,Leisure / wading pools,Indoor,Private,2001,Nanton Avenue,,Vancouver,BC,V6J 4A1,,,"aquatics, fitness, racquetball, tennis, ice rink",,49.2487192,-123.1517219
"2001 Nanton Ave, Vancouver, BC V6J 4A1",,,The Arbutus Club,https://www.arbutusclub.com/,Ice,Single surface,Indoor,Private,2001,Nanton Avenue,,Vancouver,BC,V6J 4A1,,,"aquatics, fitness, racquetball, tennis, ice rink",,49.2487192,-123.1517219
"2001 Nanton Ave, Vancouver, BC V6J 4A1",,,The Arbutus Club,https://www.arbutusclub.com/,Physical Recreation & Sports,"Racquet courts (squash, racquetball, badminton)",Indoor,Private,2001,Nanton Avenue,,Vancouver,BC,V6J 4A1,,,"aquatics, fitness, racquetball, tennis, ice rink",,49.2487192,-123.1517219
"2001 Nanton Ave, Vancouver, BC V6J 4A1",,,The Arbutus Club,https://www.arbutusclub.com/,Physical Recreation & Sports,Fitness centres / areas ,Indoor,Private,2001,Nanton Avenue,,Vancouver,BC,V6J 4A1,,,"aquatics, fitness, racquetball, tennis, ice rink",,49.2487192,-123.1517219
"2001 Nanton Ave, Vancouver, BC V6J 4A1",,,The Arbutus Club,https://www.arbutusclub.com/,Physical Recreation & Sports,Gymnasiums ,Indoor,Private,,,,,,,,,,,49.2487192,-123.1517219
"2001 Nanton Ave, Vancouver, BC V6J 4A1",,,The Arbutus Club,https://www.arbutusclub.com/,Physical Recreation & Sports,Tennis and/or pickleball courts ,Indoor,Private,2001,Nanton Avenue,,Vancouver,BC,V6J 4A1,,,"aquatics, fitness, racquetball, tennis, ice rink",,49.2487192,-123.1517219
"20165 91a Ave, Langley City, BC V1M 3A2",,,Langley Sportsplex,http://www.sportsplexbc.com/,Ice,Single surface,Indoor,Public,20165,91a Avenue,100,Langley City,BC,V1M 3A2,,,ice rink and private fitness facility,,49.1692102,-122.6634894
"20165 91a Ave, Langley City, BC V1M 3A2",,,Langley Sportsplex,http://www.sportsplexbc.com/,Physical Recreation & Sports,Fitness centres / areas ,Indoor,Private,20165,91a Avenue,100,Langley City,BC,V1M 3A2,,,ice rink and private fitness facility,,49.1692102,-122.6634894
"20338 65 Ave, Langley City, BC V2Y 3J1",,,Willowbrook Recreation Centre,https://www.tol.ca/recreation-culture/facilities/willowbrook-recreation-centre/,Physical Recreation & Sports,Fitness centres / areas ,Indoor,Public,20338,65 Avenue,,Langley City,BC,V2Y 3J1,,,,,49.1203699,-122.6592704
"20399 Douglas Crescent, Langley City, BC V3A 4B3",,,Timms Community Centre,https://city.langley.bc.ca/index.php/parks-recreation/recreation/fitness-schedule,Physical Recreation & Sports,Gymnasiums ,Indoor,Public,20399,Douglas Crescent,,Langley City,BC,V3A 4B3,,,"gym, fitness",,49.1039437,-122.6570497
"20399 Douglas Crescent, Langley City, BC V3A 4B3",,,Timms Community Centre,https://city.langley.bc.ca/index.php/parks-recreation/recreation/fitness-schedule,Physical Recreation & Sports,Fitness centres / areas ,Indoor,Public,20399,Douglas Crescent,,Langley City,BC,V3A 4B3,Douglas Crescent,,"gym, fitness",,49.1039437,-122.6570497
"2055 Rosser Ave, Burnaby, BC V5C 0H1",,,Burnaby Community Services,https://www.bbyservices.ca/index.php,Leisure / Community Centres,General,Indoor,Public,2055,Rosser Avenue,,Burnaby ,BC,V5C 0H1,,,,,49.2661932,-123.0063858
"2055 Rosser Ave, Burnaby, BC V5C 5Y1",,,Brentwood Community Resource Centre,https://www.mosaicbc.org/venue/brentwood-community-resource-centre/,Leisure / Community Centres,General,Indoor,Public,2055,Rosser Avenue,,Burnaby ,BC,V5C 5Y1,,,,,49.2661932,-123.0063858
"20550 Douglas Crescent, Langley City, BC V3A 4B3",,,Douglas Recreation Centre,https://www.google.ca/search?ei=G0MoXvPUKozl_QaN-IGgAg&q=douglas+recreation+centre+langley&oq=douglas+recreation+centre+la&gs_l=psy-ab.3.0.0j0i22i30l3.54093.58472..59368...0.1..0.155.2457.25j3......0....1..gws-wiz.......0i71j0i273j0i131j0i67.4wrA6eaUM6k,Physical Recreation & Sports,Fitness centres / areas ,Indoor,Public,20550,Douglas Crescent,,Langley City,BC,V3A 4B3,,,no website - Google comments state there is a fitness studio,,49.1024149,-122.652825
"20605 51b Ave, Langley City, BC V3A 9H1",,,Langley Senior Resources Society,http://lsrs.ca/,Leisure / Community Centres,Seniors,Indoor,Public,,,,,,,,,,,49.0974495,-122.6508082
"20699 42 Ave, Langley City, BC V3A 3B1",,,Langley Curling Club ,http://langleycurlingclub.com/,Ice,Curling,Indoor,Private,20699,42 Avenue,,Langley City,BC,V3A 3B1,,,,,49.0788972,-122.6517063
"20699 42 Ave, Langley City, BC V3A 3B1",,,Langley Figure Skating Club,http://www.skatelangley.com/,Ice,Single surface,Indoor,Private,20699,42 Avenue,,Langley City,BC,V3A 3B1,,,,,49.0788972,-122.6517063
"20699 42 Ave, Langley City, BC V3A 3B1",,,George Preston Recreation Centre,https://www.tol.ca/recreation-culture/facilities/george-preston-recreation-centre/,Ice,Single surface,Indoor,Public,,,,,,,,,,,49.0788972,-122.6517063
"20740 Mufford Crescent, Langley City, BC V2Y 1N9",,,National Hockey Training Centre,https://www.nhtclangley.com/,Ice,Single surface,Indoor,Public,20740,Mufford Crescent,110,Langley City,BC,V2Y 1N9,,,,,49.1154797,-122.6490693
"2114 W 4th Ave, Vancouver, BC V6K 4R8",,,Russian Community Centre,http://www.russiancentrevancouver.com/,Leisure / Community Centres,General,Indoor,Public,2114,W 4th Avenue ,,Vancouver,BC,V6K 4R8,,,for people interested in Russian culture,,49.2679037,-123.1533575
"2121 Marine Dr, West Vancouver, BC V7V 4Y2",,,West Vancouver Aquatic Centre,https://westvancouver.ca/parks-recreation/community-centres/aquatic-centre,Aquatics,25m pool with or without other pools,Indoor,Public,2121,Marine Drive,,West Vancouver,BC,V7V 4Y2,,,"3 pools, fitness area",,49.3314067,-123.1703167
"2121 Marine Dr, West Vancouver, BC V7V 4Y2",,,West Vancouver Aquatic Centre,https://westvancouver.ca/parks-recreation/community-centres/aquatic-centre,Aquatics,Leisure / wading pools,Indoor,Public,2121,Marine Drive,,West Vancouver,BC,V7V 4Y2,,,"3 pools, fitness area",,49.3314067,-123.1703167
"2121 Marine Dr, West Vancouver, BC V7V 4Y2",,,West Vancouver Aquatic Centre,https://westvancouver.ca/parks-recreation/community-centres/aquatic-centre,Physical Recreation & Sports,Fitness centres / areas ,Indoor,Public,2121,Marine Drive,,West Vancouver,BC,V7V 4Y2,,,"3 pools, fitness area",,49.3314067,-123.1703167
"2121 Marine Dr, West Vancouver, BC V7V 4Y2",,,West Vancouver Community Centre,https://westvancouver.ca/parks-recreation/community-centres/west-vancouver-community-centre,Leisure / Community Centres,General,Indoor,Public,2121,Marine Drive,,West Vancouver,BC,V7V 4Y2,,,"community centre, fitness, gym",,49.3314067,-123.1703167
"2121 Marine Dr, West Vancouver, BC V7V 4Y2",,,West Vancouver Community Centre,https://westvancouver.ca/parks-recreation/community-centres/west-vancouver-community-centre,Physical Recreation & Sports,Fitness centres / areas ,Indoor,Public,2121,Marine Drive,,West Vancouver,BC,V7V 4Y2,,,"community centre, fitness, gym",,49.3314067,-123.1703167
"2121 Marine Dr, West Vancouver, BC V7V 4Y2",,,West Vancouver Community Centre,https://westvancouver.ca/parks-recreation/community-centres/west-vancouver-community-centre,Physical Recreation & Sports,Gymnasiums ,Indoor,Public,2121,Marine Drive,,West Vancouver,BC,V7V 4Y2,,,"community centre, fitness, gym",,49.3314067,-123.1703167
"2150 Wilson Ave, Port Coquitlam, BC V3C 6J5",,,Port Coquitlam Community Centre,https://www.portcoquitlam.ca/recreation/port-coquitlam-recreation-complex/,Leisure / Community Centres,General,Indoor,Public,2150,Wilson Avenue,,Port Coquitlam,BC,V3C 6J5,,,"community centre with seniors' and youth programs, ice rinks, fitness, pool (opening in March), gym, ",,49.2598603,-122.7767353
"2150 Wilson Ave, Port Coquitlam, BC V3C 6J5",,,Port Coquitlam Community Centre,https://www.portcoquitlam.ca/recreation/port-coquitlam-recreation-complex/,Ice,2+ surfaces,Indoor,Public,2150,Wilson Avenue,,Port Coquitlam,BC,V3C 6J5,,,"ice rinks, fitness, pool (opening in March), gym, ",,49.2598603,-122.7767353
"2150 Wilson Ave, Port Coquitlam, BC V3C 6J5",,,Port Coquitlam Community Centre,https://www.portcoquitlam.ca/recreation/port-coquitlam-recreation-complex/,Aquatics,Leisure / wading pools,Indoor,Public,2150,Wilson Avenue,,Port Coquitlam,BC,V3C 6J5,,,"ice rinks, fitness, pool (opening in March), gym, fitness",,49.2598603,-122.7767353
"2150 Wilson Ave, Port Coquitlam, BC V3C 6J5",,,Port Coquitlam Community Centre,https://www.portcoquitlam.ca/recreation/port-coquitlam-recreation-complex/,Physical Recreation & Sports,Gymnasiums ,Indoor,Public,2150,Wilson Avenue,,Port Coquitlam,BC,V3C 6J5,,,"ice rinks, fitness, pool (opening in March), gym, fitness",,49.2598603,-122.7767353
"2150 Wilson Ave, Port Coquitlam, BC V3C 6J5",,,Port Coquitlam Community Centre,https://www.portcoquitlam.ca/recreation/port-coquitlam-recreation-complex/,Physical Recreation & Sports,Fitness centres / areas ,Indoor,Public,2150,Wilson Avenue,,Port Coquitlam,BC,V3C 6J5,,,"ice rinks, fitness, pool (opening in March), gym, fitness",,49.2598603,-122.7767353
"2199 148 St, Surrey, BC V4A 8L5",,,South Surrey Arena,https://www.surrey.ca/culture-recreation/1919.aspx,Ice,Single surface,Indoor,Public,2199,148 Street,,Surrey,BC,V4A 8L5,,,Olympic-sized rink,,49.0413799,-122.812665
"22200 Fraser Hwy, Langley City, BC V3A 3T2",,,W.C. Blair Recreation Centre,https://www.tol.ca/recreation-culture/facilities/w.c.-blair-recreation-centre/,Aquatics,25m pool with or without other pools,Indoor,Public,22200,Fraser Highway  ,,Langley City,BC,V3A 3T2,,,"wave pool, fitness",,49.0912268,-122.609776
"22200 Fraser Hwy, Langley City, BC V3A 3T2",,,W.C. Blair Recreation Centre,https://www.tol.ca/recreation-culture/facilities/w.c.-blair-recreation-centre/,Aquatics,Spray parks / splash pads,Indoor,Public,22200,Fraser Highway  ,,Langley City,BC,V3A 3T2,,,"wave pool, fitness",,49.0912268,-122.609776
"22200 Fraser Hwy, Langley City, BC V3A 3T2",,,W.C. Blair Recreation Centre,https://www.tol.ca/recreation-culture/facilities/w.c.-blair-recreation-centre/,Physical Recreation & Sports,Fitness centres / areas ,Indoor,Public,22200,Fraser Highway  ,,Langley City,BC,V3A 3T2,,,"wave pool, fitness",,49.0912268,-122.609776
"225 2nd St E, North Vancouver, BC V7L 1C4",,,North Shore Neighbourhood House,https://www.nsnh.bc.ca/,Leisure / Community Centres,General,Indoor,Public,225,2nd Street E,,North Vancouver,BC,V7L 1C4,,,,,49.3107815,-123.0739512
"225 2nd St E, North Vancouver, BC V7L 1C4",,,North Shore Neighbourhood House,https://www.nsnh.bc.ca/,Physical Recreation & Sports,Gymnasiums ,Indoor,Public,225,2nd Street E,,North Vancouver,BC,V7L 1C4,,,,,49.3107815,-123.0739512
"2300 Kirkstone Rd, North Vancouver, BC V7J 1Z6",,,Karen Magnussen Community Recreation Centre,https://www.nvrc.ca/facilities-fields/locations-hours/community-recreation-centres/karen-magnussen-community-recreation,Aquatics,25m pool with or without other pools,Indoor,Public,2300,Kirkstone Road,,North Vancouver,BC,V7J 1Z6,,,"pool, fitness",,49.3306856,-123.0459827
"2300 Kirkstone Rd, North Vancouver, BC V7J 1Z6",,,Karen Magnussen Community Recreation Centre,https://www.nvrc.ca/facilities-fields/locations-hours/community-recreation-centres/karen-magnussen-community-recreation,Physical Recreation & Sports,Fitness centres / areas ,Indoor,Public,2300,Kirkstone Road,,North Vancouver,BC,V7J 1Z6,,,"pool, fitness",,49.3306856,-123.0459827
"2300 Rocket Way, Coquitlam, BC V3K 6Z2",,,Planet Ice ,https://planetice.ca/coquitlam/,Ice,2+ surfaces,Indoor,Public,2300,Rocket Way,,Coquitlam,BC,V3K 6Z2,,,"4 rinks, Innovative fitness club",,49.230809,-122.82803
"2300 Rocket Way, Coquitlam, BC V3K 6Z2",,,Planet Ice ,https://planetice.ca/coquitlam/,Physical Recreation & Sports,Fitness centres / areas ,Indoor,Private,2300,Rocket Way,,Coquitlam,BC,V3K 6Z2,,,"4 rinks, Innovative fitness club",,49.230809,-122.82803
"2311 Cassiar St, Vancouver, BC V5M 3X3",,,Thunderbird Community Centre,https://www.thunderbirdcc.ca/,Leisure / Community Centres,General,Indoor,Public,2311,Cassiar Street,,Vancouver,BC,V5M 3X3,,,"community centre with programs for children, youth, adult and 'older adult', fitness, gym",,49.2638999,-123.0313168
"2311 Cassiar St, Vancouver, BC V5M 3X3",,,Thunderbird Community Centre,https://www.thunderbirdcc.ca/,Physical Recreation & Sports,Gymnasiums ,Indoor,Public,2311,Cassiar Street,,Vancouver,BC,V5M 3X3,,,"community centre with programs for children, youth, adult and 'older adult', fitness, gym",,49.2638999,-123.0313168
"2311 Cassiar St, Vancouver, BC V5M 3X3",,,Thunderbird Community Centre,https://www.thunderbirdcc.ca/,Physical Recreation & Sports,Fitness centres / areas ,Indoor,Public,2311,Cassiar Street,,Vancouver,BC,V5M 3X3,,,"community centre with programs for children, youth, adult and 'older adult', fitness, gym",,49.2638999,-123.0313168
"2351 No 6 Rd, Richmond, BC V6V 1P3",,,Stage 18 Badminton Centre,https://www.stage18badminton.com/,Physical Recreation & Sports,"Racquet courts (squash, racquetball, badminton)",Indoor,Public,,,,,,,,,,,49.1967646,-123.0701928
"23580 105 Ave, Maple Ridge, BC V2W 1B8",,Maple Ridge,Golden Ears Winter Club,http://gewc.ca/,Ice,Curling,Indoor,Private,23580,105 Avenue,,Maple Ridge,BC,V2W 1B8,,,,,49.194551,-122.566611
"23588 105 Ave, Maple Ridge, BC V2W 1B8",,,Planet Ice - Maple Ridge,https://planetice.ca/mapleridge/,Ice,2+ surfaces,Indoor,Public,23588,105 Avenue,,Maple Ridge,Bc,V2W 1B8,,,,,49.193836,-122.5658851
"2390 W 10th Ave, Vancouver, BC V6K 4K9",,,Connaught Park,https://covapp.vancouver.ca/parkfinder/parkdetail.aspx?inparkid=108,Leisure / Community Centres,General,Both,Public,2390,W 10th Avenue ,,Vancouver,BC,V6K 4K9,,,"community centre, sports fields, playgrounds, ice rink (in Kitsilano Community Centre), water park",,49.2627999,-123.1597174
"240 23rd St E, North Vancouver, BC V7L 3L2",,,Mickey McDougall Community Recreation Centre,https://www.nvrc.ca/facilities-fields/locations-hours/community-recreation-centres/mickey-mcdougall-community-recreation,Physical Recreation & Sports,Gymnasiums ,Indoor,Public,240,23rd Street E,,North Vancouver,BC,V7L 3L2,,,"gym, badminton",,49.3307005,-123.0674157
"240 23rd St E, North Vancouver, BC V7L 3L2",,,Mickey McDougall Community Recreation Centre,https://www.nvrc.ca/facilities-fields/locations-hours/community-recreation-centres/mickey-mcdougall-community-recreation,Physical Recreation & Sports,"Racquet courts (squash, racquetball, badminton)",Indoor,Public,240,23rd Street E,,North Vancouver,BC,V7L 3L2,,,"gym, badminton",,49.3307005,-123.0674157
"240 Willingdon Ave, Burnaby, BC V5C 5E9",,,Eileen Dailly Leisure Pool & Fitness Centre,https://www.burnaby.ca/Things-To-Do/Community-Centres/Eileen-Dailly.html,Aquatics,25m pool with or without other pools,Indoor,Public,240,Willingdont Avenue,,Burnaby ,BC,V5C 5E9,,,"pool, fitness",,49.2832339,-123.002392
"240 Willingdon Ave, Burnaby, BC V5C 5E9",,,Eileen Dailly Leisure Pool & Fitness Centre,https://www.burnaby.ca/Things-To-Do/Community-Centres/Eileen-Dailly.html,Aquatics,Leisure / wading pools,Indoor,Public,240,Willingdont Avenue,,Burnaby ,BC,V5C 5E9,,,"pool, fitness",,49.2832339,-123.002392
"240 Willingdon Ave, Burnaby, BC V5C 5E9",,,Eileen Dailly Leisure Pool & Fitness Centre,https://www.burnaby.ca/Things-To-Do/Community-Centres/Eileen-Dailly.html,Physical Recreation & Sports,Fitness centres / areas ,Indoor,Public,240,Willingdont Avenue,,Burnaby ,BC,V5C 5E9,,,"pool, fitness",,49.2832339,-123.002392
"2411 Mt Seymour Pkwy, North Vancouver, BC V7H 2Y9",,"North Vancouver, DM",Canlan Ice Sports,https://www.icesports.com/CORPORATE/facility-listings.aspx,Ice,2+ surfaces,Indoor,Private,2411,Mount Seymour Parkway,,North Vancouver,BC,V7H 2Y9,,,,,49.313575,-123.00326
"2425 Oxford St, Vancouver, BC V5K 1M7",,,Kiwassa Neighbourhood House,https://www.kiwassa.ca/,Leisure / Community Centres,General,Indoor,Public,2425,Oxford Street,,Vancouver,BC,V5K 1M7,,,,,49.2859829,-123.0555911
"2425 Oxford St, Vancouver, BC V5K 1M7",,,Vancouver Family Connections,https://www.vancouverfamilyconnections.org/,Leisure / Community Centres,General,Indoor,Public,,,,,,,,,,,49.2859829,-123.0555911
"2500 Capilano Rd, North Vancouver, BC V7R 4H2",,,Capilano Tennis Club,https://www.capilanotennisclub.com/,Physical Recreation & Sports,Tennis and/or pickleball courts ,Both,Private,2500,Capilano Road,,North Vancouver,,V7R 4H2,,,,,49.3332128,-123.1163478
"26007 98 Ave, Maple Ridge, BC V2W 1T3",,,Thornhill Community Hall,http://thornhillhall.ca/,Leisure / Community Centres,General,Indoor,Public,,,,,,,,,"community hall, tennis",,49.180993,-122.500908
"26770 29 Ave, Langley Twp, BC V4W 3B8",,,Aldergrove Kinsmen Community Centre,https://www.tol.ca/recreation-culture/facilities/aldergrove-kinsmen-community-centre/,Leisure / Community Centres,General,Indoor,Public,,,,,,,,,,,49.055212,-122.482885
"2690 Larch St, Vancouver, BC V6K 4K9",,,Kitsilano War Memorial Community Centre,https://vancouver.ca/parks-recreation-culture/kitsilano-war-memorial-community-centre.aspx,Leisure / Community Centres,General,Indoor,Public,2690,Larch Street,,Vancouver,BC,V6K 4K9,,,"community centre, fitness centre, ice rink, spray park",,49.2615316,-123.162041
"2690 Larch St, Vancouver, BC V6K 4K9",,,Kitsilano War Memorial Community Centre,https://vancouver.ca/parks-recreation-culture/kitsilano-war-memorial-community-centre.aspx,Physical Recreation & Sports,Fitness centres / areas ,Indoor,Public,2690,Larch Street,,Vancouver,BC,V6K 4K9,,,"community centre, fitness centre, ice rink, spray park",,49.2615316,-123.162041
"2690 Larch St, Vancouver, BC V6K 4K9",,,Kitsilano War Memorial Community Centre,https://vancouver.ca/parks-recreation-culture/kitsilano-war-memorial-community-centre.aspx,Ice,Single surface,Indoor,Public,2690,Larch Street,,Vancouver,BC,V6K 4K9,,,"community centre, fitness centre, ice rink, spray park",,49.2615316,-123.162041
"2690 Larch St, Vancouver, BC V6K 4K9",,,Kitsilano Community Centre,https://kitscc.com/,Physical Recreation & Sports,Fitness centres / areas ,Indoor,Public,2690,Larch Street,,Vancouver,BC,V6K 4K9,,,,,49.2615316,-123.162041
"2690 Larch St, Vancouver, BC V6K 4K9",,,Kitsilano Community Centre,https://kitscc.com/,Ice,Single surface,Indoor,Public,2690,Larch Street,,Vancouver,BC,V6K 4K9,,,,,49.2615316,-123.162041
"27032 Fraser Hwy, Aldergrove, BC V4W 3P6",,,Aldergrove Credit Union Community Centre,https://www.tol.ca/recreation-culture/facilities/aldergrove-credit-union-community-centre/,Ice,Single surface,Indoor,Public,,,,,,,,,"ice, pool, fitness",,49.0579339,-122.4748936
"27032 Fraser Hwy, Aldergrove, BC V4W 3P6",,,Aldergrove Credit Union Community Centre,https://www.tol.ca/recreation-culture/facilities/aldergrove-credit-union-community-centre/,Physical Recreation & Sports,Fitness centres / areas ,Indoor,Public,,,,,,,,,"ice, pool, fitness",,49.0579339,-122.4748936
"2720 Beaverbrook Crescent, Burnaby, BC V3J 7K3",,,Creekside Youth Centre,https://www.burnaby.ca/Things-To-Do/Community-Centres/Youth-Centres/Creekside.html,Leisure / Community Centres,Youth,Indoor,Public,,,,,,,,,,,49.2595361,-122.9029453
"2720 Beaverbrook Crescent, Burnaby, BC V3J 7K3",,,Creekside Youth Centre,https://www.burnaby.ca/Things-To-Do/Community-Centres/Youth-Centres/Creekside.html,Physical Recreation & Sports,Gymnasiums ,Indoor,Public,,,,,,,,,,,49.2595361,-122.9029453
"2720 Beaverbrook Crescent, Burnaby, BC V3J 7K3",,,Creekside Youth Centre,https://www.burnaby.ca/Things-To-Do/Community-Centres/Youth-Centres/Creekside.html,Physical Recreation & Sports,Sport fields,Indoor,Public,,,,,,,,,,,49.2595361,-122.9029453
"2750 E 29th Ave, Vancouver, BC V5R 1V5",,,Slocan Community Hall,https://www.renfrewcc.com/facilities/rentals/#slocan-hall,Leisure / Community Centres,General,Indoor,Public,,,,,,,,,,,49.2446242,-123.0489203
"280 Lloyd Ave, North Vancouver, BC V7P 3H3",,,North Vancouver Tennis Centre,https://www.nvrc.ca/facilities-fields/locations-hours/community-recreation-centres/north-vancouver-tennis-centre,Physical Recreation & Sports,Tennis and/or pickleball courts ,Indoor,Public,280,Lloyd Avenue,,North Vancouver,BC,V7P 3H3,,,,,49.31975,-123.104425
"282 W 49th Ave, Vancouver, BC V5Y 2Z5",,,Langara Family YMCA,https://gv.ymca.ca/Locations/Area-One/Langara/Langara-Family-YMCA,Aquatics,25m pool with or without other pools,Indoor,Public,282,W 49th Avenue ,,Vancouver,BC,V5Y 2Z5,,,"pool, fitness, gym",,49.2255323,-123.1123927
"282 W 49th Ave, Vancouver, BC V5Y 2Z5",,,Langara Family YMCA,https://gv.ymca.ca/Locations/Area-One/Langara/Langara-Family-YMCA,Physical Recreation & Sports,Fitness centres / areas ,Indoor,Public,282,W 49th Avenue ,,Vancouver,BC,V5Y 2Z5,,,"pool, fitness, gym",,49.2255323,-123.1123927
"282 W 49th Ave, Vancouver, BC V5Y 2Z5",,,Langara Family YMCA,https://gv.ymca.ca/Locations/Area-One/Langara/Langara-Family-YMCA,Physical Recreation & Sports,Gymnasiums ,Indoor,Public,282,W 49th Avenue ,,Vancouver,BC,V5Y 2Z5,,,"pool, fitness, gym",,49.2255323,-123.1123927
"28395 96 Ave, Maple Ridge, BC V2W 1L2",,,Ruskin Community Hall,http://ruskinhall.com/,Leisure / Community Centres,General,Indoor,Public,,,,,,,,,,,49.1769547,-122.4347808
"2929 E 22nd Ave, Vancouver, BC V5M 2Y3",,,Renfrew Park Community Centre,https://vancouver.ca/parks-recreation-culture/renfrew-park-community-centre.aspx,Leisure / Community Centres,General,Indoor,Public,2929,E 22nd Avenue,,Vancouver,BC,V5M 2Y3,,,"community centre, indoor pool, wading pool, sports fields, playground, fitness",,49.2520583,-123.0429661
"2929 E 22nd Ave, Vancouver, BC V5M 2Y3",,,Renfrew Park Community Centre,https://vancouver.ca/parks-recreation-culture/renfrew-park-community-centre.aspx,Physical Recreation & Sports,Fitness centres / areas ,Indoor,Public,2929,E 22nd Avenue,,Vancouver,BC,V5M 2Y3,,,"community centre, indoor pool, wading pool, sports fields, playground, fitness",,49.2520583,-123.0429661
"2929 E 22nd Ave, Vancouver, BC V5M 2Y3",,,Renfrew Park Community Centre,https://vancouver.ca/parks-recreation-culture/renfrew-park-community-centre.aspx,Aquatics,25m pool with or without other pools,Indoor,Public,2929,E 22nd Avenue,,Vancouver,BC,V5M 2Y3,,,"community centre, indoor pool, wading pool, sports fields, playground, fitness",,49.2520583,-123.0429661
"300 Ioco Rd, Port Moody, BC V3H 2V7",,Port Moody,Port Moody Recreation Complex & Weight Room,https://www.portmoody.ca/en/recreation-parks-and-environment/fitness-and-weight-room.aspx,Ice,Curling,Indoor,Public,300,Ioco Road,,Port Moody,BC,V3H 2V7,,,"curling, fitness, gym, track, sports fields",,49.2843456,-122.8313402
"300 Loco Rd, Port Moody, BC V3H 2V7",,,Port Moody Recreation Complex & Weight Room,https://www.portmoody.ca/en/recreation-parks-and-environment/fitness-and-weight-room.aspx,Physical Recreation & Sports,Fitness centres / areas ,Indoor,Public,300,Ioco Road,,Port Moody,BC,V3H 2V7,,,"curling, fitness, gym, track, sports fields",,49.2843456,-122.8313402
"300 Loco Rd, Port Moody, BC V3H 2V7",,,Port Moody Recreation Complex & Weight Room,https://www.portmoody.ca/en/recreation-parks-and-environment/fitness-and-weight-room.aspx,Physical Recreation & Sports,Gymnasiums ,Indoor,Public,300,Ioco Road,,Port Moody,BC,V3H 2V7,,,"curling, fitness, gym, track, sports fields",,49.2843456,-122.8313402
"300 Loco Rd, Port Moody, BC V3H 2V7",,,Port Moody Recreation Complex & Weight Room,https://www.portmoody.ca/en/recreation-parks-and-environment/fitness-and-weight-room.aspx,Physical Recreation & Sports,Running tracks (track and field),Indoor,Public,300,Ioco Road,,Port Moody,BC,V3H 2V7,,,"curling, fitness, gym, track, sports fields",,49.2843456,-122.8313402
"300 Loco Rd, Port Moody, BC V3H 2V7",,,Port Moody Recreation Complex & Weight Room,https://www.portmoody.ca/en/recreation-parks-and-environment/fitness-and-weight-room.aspx,Physical Recreation & Sports,Sport fields,Indoor,Public,300,Ioco Road,,Port Moody,BC,V3H 2V7,,,"curling, fitness, gym, track, sports fields",,49.2843456,-122.8313402
"3010 Sleil Waututh Rd, North Vancouver, BC V7H 2V5",,,Tsleil-Waututh Cultural and Recreation Centre,,Leisure / Community Centres,General,Indoor,Public,3010,Sleil Waututh Road,,North Vancouver,BC,V7H 2V5,,,no website - Google reviews state the centre has a gym,,49.3095642,-122.9884235
"3010 Sleil Waututh Rd, North Vancouver, BC V7H 2V5",,,Tsleil-Waututh Cultural and Recreation Centre,,Physical Recreation & Sports,Fitness centres / areas ,Indoor,Public,3010,Sleil Waututh Road,,North Vancouver,BC,V7H 2V5,,,no website - Google reviews state the centre has a gym,,49.3095642,-122.9884235
"302 Columbia St, Vancouver, BC V6A 4J1",,,Downtown Eastside Women's Centre,http://dewc.ca/,Leisure / Community Centres,General,Indoor,Public,,,,,,,,,,,49.2821393,-123.1020496
"305 Royal Ave, New Westminster, BC V3L 1G7",,,New Westminster Tennis Club,https://nwtennis.com/,Physical Recreation & Sports,Tennis and/or pickleball courts ,Both,Private,305,Royal Avenue,,New Westminster,BC,V3L 1G7,,,,,49.2079057,-122.9069512
"3096 E Hastings St, Vancouver, BC V5K 2A3",,,Hastings Community Centre,https://vancouver.ca/parks-recreation-culture/hastings-community-centre.aspx,Leisure / Community Centres,General,Both,Public,3096,E Hastings Street,,Vancouver,BC,V5K 2A3,,,"community centre, gym, fitness, racquetball, tennis, playground, water park",,49.280658,-123.0394186
"3096 E Hastings St, Vancouver, BC V5K 2A3",,,Hastings Community Centre,https://vancouver.ca/parks-recreation-culture/hastings-community-centre.aspx,Physical Recreation & Sports,Gymnasiums ,Indoor,Public,3096,E Hastings Street,,Vancouver,BC,V5K 2A3,,,"community centre, gym, fitness, racquetball, tennis, playground, water park",,49.280658,-123.0394186
"3096 E Hastings St, Vancouver, BC V5K 2A3",,,Hastings Community Centre,https://vancouver.ca/parks-recreation-culture/hastings-community-centre.aspx,Physical Recreation & Sports,Fitness centres / areas ,Indoor,Public,3096,E Hastings Street,,Vancouver,BC,V5K 2A3,,,"community centre, gym, fitness, racquetball, tennis, playground, water park",,49.280658,-123.0394186
"3096 E Hastings St, Vancouver, BC V5K 2A3",,,Hastings Community Centre,https://vancouver.ca/parks-recreation-culture/hastings-community-centre.aspx,Physical Recreation & Sports,"Racquet courts (squash, racquetball, badminton)",Indoor,Public,3096,E Hastings Street,,Vancouver,BC,V5K 2A3,,,"community centre, gym, fitness, racquetball, tennis, playground, water park",,49.280658,-123.0394186
"315 Klahanie Court, West Vancouver, BC  V7P 1V7",,,Evergreen Squash Club,http://www.evergreensquash.com/w/homepage,Physical Recreation & Sports,"Racquet courts (squash, racquetball, badminton)",Indoor,Private,,,,,,,,,"racquet courts, fitness",,49.3263489,-123.124807
"315 Klahanie Court, West Vancouver, BC  V7P 1V7",,,Evergreen Squash Club,http://www.evergreensquash.com/w/homepage,Physical Recreation & Sports,Fitness centres / areas ,Indoor,Private,,,,,,,,,"racquet courts, fitness",,49.3263489,-123.124807
"320 Alexander St, Vancouver, BC V6A 1C3",,,Evelyne Saller Centre,https://vancouver.ca/parks-recreation-culture/evelyne-saller-centre.aspx,Leisure / Community Centres,General,Indoor,Public,320,Alexander Street,,Vancouver,BC,V6A 1C3,,,community centre for at risk adults,,49.283951,-123.096892
"3335 Webber Ln, Vancouver, BC V6S 0H3",,,Westbrook Community Centre,http://www.discoverwesbrook.com/posts/wesbrook-community-centre#.XiIJaSiJJdg,Leisure / Community Centres,General,Indoor,Public,3335,Webber Lane,,Vancouver,BC,V6S 0H3,,,"community centre, fitness, splash pad",,49.2541076,-123.2375546
"3335 Webber Ln, Vancouver, BC V6S 0H3",,,Westbrook Community Centre,http://www.discoverwesbrook.com/posts/wesbrook-community-centre#.XiIJaSiJJdg,Physical Recreation & Sports,Fitness centres / areas ,Indoor,Public,3335,Webber Lane,,Vancouver,BC,V6S 0H3,,,"community centre, fitness, splash pad",,49.2541076,-123.2375546
"3335 Webber Ln, Vancouver, BC V6S 0H3",,,Westbrook Community Centre,http://www.discoverwesbrook.com/posts/wesbrook-community-centre#.XiIJaSiJJdg,Physical Recreation & Sports,Gymnasiums ,Indoor,Public,,,,,,,,,,,49.2541076,-123.2375546
"3350 Maquinna Dr, Vancouver, BC V5S 4C6",,,Champlain Heights Community Centre,https://champlainheightscc.ca/facilities,Leisure / Community Centres,General,Indoor,Public,3350,Maquinna Drive,,Vancouver,BC,V5S 4C6,,,"community centre, gym, fitness, badminton",,49.2144481,-123.0320663
"3350 Maquinna Dr, Vancouver, BC V5S 4C6",,,Champlain Heights Community Centre,https://champlainheightscc.ca/facilities,Physical Recreation & Sports,Gymnasiums ,Indoor,Public,3350,Maquinna Drive,,Vancouver,BC,V5S 4C6,,,"community centre, gym, fitness, badminton",,49.2144481,-123.0320663
"3350 Maquinna Dr, Vancouver, BC V5S 4C6",,,Champlain Heights Community Centre,https://champlainheightscc.ca/facilities,Physical Recreation & Sports,Fitness centres / areas ,Indoor,Public,3350,Maquinna Drive,,Vancouver,BC,V5S 4C6,,,"community centre, gym, fitness, badminton",,49.2144481,-123.0320663
"3360 Victoria Dr, Vancouver, BC V5N 4M4",,,Trout Lake Community Centre,https://vancouver.ca/parks-recreation-culture/trout-lake-community-centre.aspx,Leisure / Community Centres,General,Both,Public,3360,Victoria Drive,,Vancouver,BC,V5N 4M4,,,"community centre, ice rink, gym, fitness, outdoor performance plaza",,49.255178,-123.0652081
"3360 Victoria Dr, Vancouver, BC V5N 4M4",,,Trout Lake Community Centre,https://vancouver.ca/parks-recreation-culture/trout-lake-community-centre.aspx,Ice,Single surface,Indoor,Public,3360,Victoria Drive,,Vancouver,BC,V5N 4M4,,,"community centre, ice rink, gym, fitness, outdoor performance plaza",,49.255178,-123.0652081
"3360 Victoria Dr, Vancouver, BC V5N 4M4",,,Trout Lake Community Centre,https://vancouver.ca/parks-recreation-culture/trout-lake-community-centre.aspx,Physical Recreation & Sports,Gymnasiums ,Indoor,Public,3360,Victoria Drive,,Vancouver,BC,V5N 4M4,,,"community centre, ice rink, gym, fitness, outdoor performance plaza",,49.255178,-123.0652081
"3360 Victoria Dr, Vancouver, BC V5N 4M4",,,Trout Lake Community Centre,https://vancouver.ca/parks-recreation-culture/trout-lake-community-centre.aspx,Physical Recreation & Sports,Fitness centres / areas ,Indoor,Public,3360,Victoria Drive,,Vancouver,BC,V5N 4M4,,,"community centre, ice rink, gym, fitness, outdoor performance plaza",,49.255178,-123.0652081
"3456 Princeton Ave, Coquitlam, BC V3E 3H1",,,Smiling Creek Activity Centre,https://www.coquitlam.ca/parks-recreation-and-culture/sport-and-recreation/recreation-centres/smiling-creek-activity-centre,Leisure / Community Centres,General,Indoor,Public,3456,Princeton Avenue,,Coquitlam,BC,V3E 3H1,,,"community centre located within Smiling Creek Elementary School, gym, sports courts, playgrounds",,49.2980668,-122.7503512
"3456 Princeton Ave, Coquitlam, BC V3E 3H1",,,Smiling Creek Activity Centre,https://www.coquitlam.ca/parks-recreation-and-culture/sport-and-recreation/recreation-centres/smiling-creek-activity-centre,Physical Recreation & Sports,Gymnasiums ,Indoor,Public,3456,Princeton Avenue,,Coquitlam,BC,V3E 3H1,,,"community centre located within Smiling Creek Elementary School, gym, sports courts, playgrounds",,49.2980668,-122.7503512
"3590 Mountain Hwy, North Vancouver, BC V7K 0A2",,,Lynn Valley Community Recreation Centre,https://www.nvrc.ca/facilities-fields/locations-hours/community-recreation-centres/lynn-valley-community-recreation,Physical Recreation & Sports,Fitness centres / areas ,Indoor,Public,3590,Mountain Highway Avenue,,North Vancouver,BC,V7K 0A2,,,,,49.341232,-123.0377061
"3625 Banff Ct, North Vancouver, BC V7H 2Z8",,,Parkgate Community Centre,https://www.myparkgate.com/,Leisure / Community Centres,General,Indoor,Public,3625,Banff Court,,North Vancouver,BC,V7H 2Z8,,,"community centre, gym, fitness",,49.3178742,-122.9708249
"3625 Banff Ct, North Vancouver, BC V7H 2Z8",,,Parkgate Community Centre,https://www.myparkgate.com/,Physical Recreation & Sports,Gymnasiums ,Indoor,Public,3625,Banff Court,,North Vancouver,BC,V7H 2Z8,,,"community centre, gym, fitness",,49.3178742,-122.9708249
"3625 Banff Ct, North Vancouver, BC V7H 2Z8",,,Parkgate Community Centre,https://www.myparkgate.com/,Physical Recreation & Sports,Fitness centres / areas ,Indoor,Public,3625,Banff Court,,North Vancouver,BC,V7H 2Z8,,,"community centre, gym, fitness",,49.3178742,-122.9708249
"3630 Lozells Ave, Burnaby, BC V5A 2Y8",,,Charles Rummel Centre,https://www.burnaby.ca/Things-To-Do/Community-Centres/Other-Centres/Charles-Rummel.html,Leisure / Community Centres,General,Indoor,Public,3630,Lozells Avenue,,Burnaby ,BC,V5A 2Y8,,,,,49.2522359,-122.9414669
"3676 Kensington Ave, Burnaby, BC V5B 4Z6",,,Bill Copeland Sports Centre,https://www.burnaby.ca/Things-To-Do/Community-Centres/Bill-Copeland-Sports-Centre.html,Ice,2+ surfaces,Indoor,Private,3676,Kensington Avenue,,Burnaby ,BC,V5B 4Z6,,,arena ,,49.2519651,-122.9654182
"3676 Kensington Ave; Burnaby, British Columbia V5B 4Z6 ",,,Burnaby Lake Arena,https://www.burnaby.ca/Things-To-Do/Be-Active-Programs/Rates-and-Schedules/Skating.html,Ice,Single surface,Indoor,Public,?,Kensington Avenue,,Burnaby ,BC,V5B 4Z6,,,,,49.2519651,-122.9654182
"3700, Willingdon Ave, Burnaby, BC V5G 3H2",,,BCIT Recreation Services,https://www.bcit.ca/recreation/contact.shtml,Physical Recreation & Sports,Fitness centres / areas ,Indoor,Public,3700,Willingdon Avenue,,Burnaby ,BC,V5G 3H2,,,"fitness, gym, racquet courts, sports field",,49.2518242,-123.0042561
"3700, Willingdon Ave, Burnaby, BC V5G 3H2",,,BCIT Recreation Services,https://www.bcit.ca/recreation/contact.shtml,Physical Recreation & Sports,Gymnasiums ,Indoor,Public,3700,Willingdon Avenue,,Burnaby ,BC,V5G 3H2,,,"fitness, gym, racquet courts, sports field",,49.2518242,-123.0042561
"3700, Willingdon Ave, Burnaby, BC V5G 3H2",,,BCIT Recreation Services,https://www.bcit.ca/recreation/contact.shtml,Physical Recreation & Sports,"Racquet courts (squash, racquetball, badminton)",Indoor,Public,3700,Willingdon Avenue,,Burnaby ,BC,V5G 3H2,,,"fitness, gym, racquet courts, sports field",,49.2518242,-123.0042561
"3702 Kensington Ave, Burnaby, BC V5B 4Z6",,,C.G. Brown Memorial Pool,https://www.burnaby.ca/Things-To-Do/Community-Centres/CG-Brown-Pool.html,Aquatics,25m pool with or without other pools,Indoor,Public,3702,Kensington Avenue,,Burnaby ,BC,V5B 4Z6,,,pool and fitness,,49.2505967,-122.9658123
"3702 Kensington Ave, Burnaby, BC V5B 4Z6",,,C.G. Brown Memorial Pool,https://www.burnaby.ca/Things-To-Do/Community-Centres/CG-Brown-Pool.html,Aquatics,Leisure / wading pools,Indoor,Public,3702,Kensington Avenue,,Burnaby ,BC,V5B 4Z6,,,pool and fitness,,49.2505967,-122.9658123
"3702 Kensington Ave, Burnaby, BC V5B 4Z6",,,C.G. Brown Memorial Pool,https://www.burnaby.ca/Things-To-Do/Community-Centres/CG-Brown-Pool.html,Physical Recreation & Sports,Fitness centres / areas ,Indoor,Public,3702,Kensington Avenue,,Burnaby ,BC,V5B 4Z6,,,pool and fitness,,49.2505967,-122.9658123
"3702 Kensington Ave, Burnaby, BC V5B 4Z6",,,Dynamo Swim Club,https://www.teamunify.com/Home.jsp?team=bcdsc,Aquatics,25m pool with or without other pools,Indoor,Private,,,,,,,,,,,49.2505967,-122.9658123
"3837 Point Grey Rd, Vancouver, BC V6R 1B3",,,Jericho Tennis Club,https://jerichotennisclub.com/,Physical Recreation & Sports,"Racquet courts (squash, racquetball, badminton)",Indoor,Private,3837,Point Grey Road,,Vancouver,BC,V6R 1B3,,,"tennis, racquet courts, fitness, outdoor pool",,49.2724414,-123.1894442
"3837 Point Grey Rd, Vancouver, BC V6R 1B3",,,Jericho Tennis Club,https://jerichotennisclub.com/,Physical Recreation & Sports,Fitness centres / areas ,Indoor,Private,3837,Point Grey Road,,Vancouver,BC,V6R 1B3,,,"tennis, racquet courts, fitness, outdoor pool",,49.2724414,-123.1894442
"3890 Kensington Ave, Burnaby, BC V5B 4V8",,,Burnaby Tennis Club,https://www.burnabytennis.ca/burnaby/home/readPage.do?id=141&history=clear,Physical Recreation & Sports,Tennis and/or pickleball courts ,Both,Both,3890,Kensington Avenue,,Burnaby ,BC,V5B 4V8,,,,,49.2495242,-122.966057
"390 E 51st Ave, Vancouver, BC V5X 1C5",,,Sunset Arena,https://vancouver.ca/parks-recreation-culture/sunset-rink.aspx,Ice,Single surface,Indoor,Public,390,E 51st Avenue,,Vancouver,BC,V5X 1C5,,,,,49.2231447,-123.0980992
"3990 W 14th Ave, Vancouver, BC V6R 4H2",,,Lord Byng Pool,https://vancouver.ca/parks-recreation-culture/lord-byng-pool.aspx,Aquatics,25m pool with or without other pools,Indoor,Public,3990,W 14th Avenue,,Vancouver,BC,V6R 4H2,,,wheelchair-accessible indoor pool,,49.259309,-123.1928684
"401 Main St, Vancouver, BC V6A 2T7",,,Carnegie Centre Community Centre,https://vancouver.ca/parks-recreation-culture/carnegie-community-centre.aspx,Leisure / Community Centres,General,Indoor,Public,401,Main Street,,Vancouver,BC,V6A 2T7,,,"community centre for low income adults (including seniors), gym, fitness",,49.281052,-123.1001272
"401 Main St, Vancouver, BC V6A 2T7",,,Carnegie Centre Community Centre,https://vancouver.ca/parks-recreation-culture/carnegie-community-centre.aspx,Physical Recreation & Sports,Gymnasiums ,Indoor,Public,401,Main Street,,Vancouver,BC,V6A 2T7,,,"community centre for low income adults (including seniors), gym, fitness",,49.281052,-123.1001272
"401 Main St, Vancouver, BC V6A 2T7",,,Carnegie Centre Community Centre,https://vancouver.ca/parks-recreation-culture/carnegie-community-centre.aspx,Physical Recreation & Sports,Fitness centres / areas ,Indoor,Public,401,Main Street,,Vancouver,BC,V6A 2T7,,,"community centre for low income adults (including seniors), gym, fitness",,49.281052,-123.1001272
"4015 Fraser St, Vancouver, BC V5V 4E6",,,Polish Community Centre,http://polishsocietyvancouver.ca/,Leisure / Community Centres,General,Indoor,Public,,,,,,,,,,,49.2490708,-123.090514
"4111 Moncton Street, Richmond, BC V7E 3A8",,,Steveston Community Centre,https://www.richmond.ca/parksrec/centres/stevestoncentre/steveston.htm,Leisure / Community Centres,General,Both,Public,4111,Moncton Street,,Richmond,BC,V7E 3A8,,,"fitness, gym, racquet courts, indoor and outdoor tennis courts, sports fields, playground, water park",,49.1254527,-123.1786576
"4111 Moncton Street, Richmond, BC V7E 3A8",,,Steveston Community Centre,https://www.richmond.ca/parksrec/centres/stevestoncentre/steveston.htm,Physical Recreation & Sports,Fitness centres / areas ,Indoor,Public,4111,Moncton Street,,Richmond,BC,V7E 3A8,,,"fitness, gym, racquet courts, indoor and outdoor tennis courts, sports fields, playground, water park",,49.1254527,-123.1786576
"4111 Moncton Street, Richmond, BC V7E 3A8",,,Steveston Community Centre,https://www.richmond.ca/parksrec/centres/stevestoncentre/steveston.htm,Physical Recreation & Sports,Gymnasiums ,Indoor,Public,4111,Moncton Street,,Richmond,BC,V7E 3A8,,,"fitness, gym, racquet courts, indoor and outdoor tennis courts, sports fields, playground, water park",,49.1254527,-123.1786576
"4111 Moncton Street, Richmond, BC V7E 3A8",,,Steveston Community Centre,https://www.richmond.ca/parksrec/centres/stevestoncentre/steveston.htm,Physical Recreation & Sports,"Racquet courts (squash, racquetball, badminton)",Indoor,Public,4111,Moncton Street,,Richmond,BC,V7E 3A8,,,"fitness, gym, racquet courts, indoor and outdoor tennis courts, sports fields, playground, water park",,49.1254527,-123.1786576
"4111 Moncton Street, Richmond, BC V7E 3A8",,,Steveston Community Centre,https://www.richmond.ca/parksrec/centres/stevestoncentre/steveston.htm,Physical Recreation & Sports,Tennis and/or pickleball courts ,Both,Public,4111,Moncton Street,,Richmond,BC,V7E 3A8,,,"fitness, gym, racquet courts, indoor and outdoor tennis courts, sports fields, playground, water park",,49.1254527,-123.1786576
"4175 W 29th Ave, Vancouver, BC V6S 1V1",,,Kerr Pool at St. George's School,https://www.lifesaving.bc.ca/facility/st-georges-school-kerr-pool,Aquatics,25m pool with or without other pools,Indoor,Private,4175,W 29th Avenue,,Vancouver,BC,V6S 1V1,,,pool at boys school,,49.2471603,-123.1983488
"4295 Garden Grove Dr, Burnaby, BC V5G 4G8",,,Greentree Community Centre,https://greentreecommunitycenter.com/,Leisure / Community Centres,General,Indoor,Public,,,,,,,,,"community centre, pool, fitness",,49.245903,-122.997226
"4295 Garden Grove Dr, Burnaby, BC V5G 4G8",,,Greentree Community Centre,https://greentreecommunitycenter.com/,Aquatics,25m pool with or without other pools,Indoor,Public,,,,,,,,,"community centre, pool, fitness",,49.245903,-122.997226
"4295 Garden Grove Dr, Burnaby, BC V5G 4G8",,,Greentree Community Centre,https://greentreecommunitycenter.com/,Physical Recreation & Sports,Fitness centres / areas ,Indoor,Public,,,,,,,,,"community centre, pool, fitness",,49.245903,-122.997226
"4397 W 2nd Ave, Vancouver, BC V6R 1K4",,,West Point Grey Community Centre,http://westpointgrey.org/program-facility/,Leisure / Community Centres,General,Indoor,Public,4397,W 2nd Avenue,,Vancouver,BC,V6R 1K4,,,"community centre with programs for children, youth, adults and seniors, gym, fitness",,49.2715534,-123.2051522
"4397 W 2nd Ave, Vancouver, BC V6R 1K4",,,West Point Grey Community Centre,http://westpointgrey.org/program-facility/,Physical Recreation & Sports,Gymnasiums ,Indoor,Public,4397,W 2nd Avenue,,Vancouver,BC,V6R 1K4,,,"community centre with programs for children, youth, adults and seniors, gym, fitness",,49.2715534,-123.2051522
"4397 W 2nd Ave, Vancouver, BC V6R 1K4",,,West Point Grey Community Centre,http://westpointgrey.org/program-facility/,Physical Recreation & Sports,Fitness centres / areas ,Indoor,Public,4397,W 2nd Avenue,,Vancouver,BC,V6R 1K4,,,"community centre with programs for children, youth, adults and seniors, gym, fitness",,49.2715534,-123.2051522
"4460 Beresford St, Burnaby, BC V5H 0B8",,,South Burnaby Neighbourhood House,https://burnabynh.ca/,Leisure / Community Centres,General,Indoor,Public,,,,,,,,,,,49.2253401,-123.0042517
"4575 Clancy Loranger Way, Vancouver, BC V5Y 2M4",,,Hillcrest Community Centre,https://vancouver.ca/parks-recreation-culture/hillcrest-centre.aspx,Leisure / Community Centres,General,Both,Public,4575,Clancy Loranger Way,,Vancouver,BC,V5Y 2M4,,,"community centre, aquatic centre, fitness, ice rink, curling, gym, playgrounds",,49.2442998,-123.1076556
"4575 Clancy Loranger Way, Vancouver, BC V5Y 2M4",,,Hillcrest Community Centre,https://vancouver.ca/parks-recreation-culture/hillcrest-centre.aspx,Aquatics,25m pool with or without other pools,Both,Public,4575,Clancy Loranger Way,,Vancouver,BC,V5Y 2M4,,,"community centre, aquatic centre, fitness, ice rink, curling, gym, playgrounds",,49.2442998,-123.1076556
"4575 Clancy Loranger Way, Vancouver, BC V5Y 2M4",,,Hillcrest Community Centre,https://vancouver.ca/parks-recreation-culture/hillcrest-centre.aspx,Ice,Single surface,Indoor,Public,4575,Clancy Loranger Way,,Vancouver,BC,V5Y 2M4,,,"community centre, aquatic centre, fitness, ice rink, curling, gym, playgrounds",,49.2442998,-123.1076556
"4575 Clancy Loranger Way, Vancouver, BC V5Y 2M4",,,Hillcrest Community Centre,https://vancouver.ca/parks-recreation-culture/hillcrest-centre.aspx,Ice,Curling,Indoor,Public,4575,Clancy Loranger Way,,Vancouver,BC,V5Y 2M4,,,"community centre, aquatic centre, fitness, ice rink, curling, gym, playgrounds",,49.2442998,-123.1076556
"4575 Clancy Loranger Way, Vancouver, BC V5Y 2M4",,,Hillcrest Community Centre,https://vancouver.ca/parks-recreation-culture/hillcrest-centre.aspx,Physical Recreation & Sports,Fitness centres / areas ,Indoor,Public,4575,Clancy Loranger Way,,Vancouver,BC,V5Y 2M4,,,"community centre, aquatic centre, fitness, ice rink, curling, gym, playgrounds",,49.2442998,-123.1076556
"4575 Clancy Loranger Way, Vancouver, BC V5Y 2M4",,,Hillcrest Community Centre,https://vancouver.ca/parks-recreation-culture/hillcrest-centre.aspx,Physical Recreation & Sports,Gymnasiums ,Indoor,Public,4575,Clancy Loranger Way,,Vancouver,BC,V5Y 2M4,,,"community centre, aquatic centre, fitness, ice rink, curling, gym, playgrounds",,49.2442998,-123.1076556
"4575 Clancy Loranger Way, Vancouver, BC V5Y 2M4",,,Vancouver Curling Club,https://vancurl.com/about,Ice,Curling,Indoor,Public,,,,,,,,,,,49.2442998,-123.1076556
"4585 Albert St, Burnaby, BC V5C 2G6",,,Confederation Community Centre,https://www.burnaby.ca/Things-To-Do/Community-Centres/Seniors-Centres/Confederation.html,Leisure / Community Centres,Seniors,Indoor,Public,4585,Albert Street,,Burnaby ,BC,V5C 2G6,,,"seniors' centre, fitness",,49.2823107,-123.0012576
"4585 Albert St, Burnaby, BC V5C 2G6",,,Confederation Community Centre,https://www.burnaby.ca/Things-To-Do/Community-Centres/Seniors-Centres/Confederation.html,Physical Recreation & Sports,Fitness centres / areas ,Indoor,Public,4585,Albert Street,,Burnaby ,BC,V5C 2G6,,,"seniors' centre, fitness",,49.2823107,-123.0012576
"4600 Clarence Taylor Crescent, Delta, BC V4K 3X3",,,Ladner Leisure Centre,http://delta.ca/parks-recreation/sport-recreation/indoor-facilities/ladner-leisure-centre,Aquatics,25m pool with or without other pools,Indoor,Public,,,,,,,,,"pools, arena, fitness",,49.0863379,-123.0583521
"4600 Clarence Taylor Crescent, Delta, BC V4K 3X3",,,Ladner Leisure Centre,http://delta.ca/parks-recreation/sport-recreation/indoor-facilities/ladner-leisure-centre,Aquatics,Leisure / wading pools,Indoor,Public,,,,,,,,,"pools, arena, fitness",,49.0863379,-123.0583521
"4600 Clarence Taylor Crescent, Delta, BC V4K 3X3",,,Ladner Leisure Centre,http://delta.ca/parks-recreation/sport-recreation/indoor-facilities/ladner-leisure-centre,Ice,Single surface,Indoor,Public,,,,,,,,,"pools, arena (gym in summer), fitness",,49.0863379,-123.0583521
"4600 Clarence Taylor Crescent, Delta, BC V4K 3X3",,,Ladner Leisure Centre,http://delta.ca/parks-recreation/sport-recreation/indoor-facilities/ladner-leisure-centre,Physical Recreation & Sports,Gymnasiums ,Indoor,Public,,,,,,,,,"pools, arena (gym in summer), fitness",,49.0863379,-123.0583521
"4600 Clarence Taylor Crescent, Delta, BC V4K 3X3",,,Ladner Leisure Centre,http://delta.ca/parks-recreation/sport-recreation/indoor-facilities/ladner-leisure-centre,Physical Recreation & Sports,Fitness centres / areas ,Indoor,Public,,,,,,,,,"pools, arena (gym in summer), fitness",,49.0863379,-123.0583521
"4709 Pandora St, Burnaby, BC V5C 2C2",,,Confederation Park,https://www.burnaby.ca/Things-To-Do/Explore-Outdoors/Parks/Confederation-Park.html,Leisure / Community Centres,Seniors,Indoor,Public,4709,Pandora Street,,Burnaby ,BC,V5C 2C2,,,"seniors centre, youth centre, indoor pool, spray pool and splash pad, sports fields, track, tennis, playground ",took address from Confederation Park Water Park,49.283768,-122.998835
"4709 Pandora St, Burnaby, BC V5C 2C2",,,Confederation Park,https://www.burnaby.ca/Things-To-Do/Explore-Outdoors/Parks/Confederation-Park.html,Leisure / Community Centres,Youth,Indoor,Public,4709,Pandora Street,,Burnaby ,BC,V5C 2C2,,,"seniors centre, youth centre, indoor pool, spray pool and splash pad, sports fields, track, tennis, playground ",took address from Confederation Park Water Park,49.283768,-122.998835
"4709 Pandora St, Burnaby, BC V5C 2C2",,,Confederation Park,https://www.burnaby.ca/Things-To-Do/Explore-Outdoors/Parks/Confederation-Park.html,Aquatics,25m pool with or without other pools,Indoor,Public,4709,Pandora Street,,Burnaby ,BC,V5C 2C2,,,"seniors centre, youth centre, indoor pool, spray pool and splash pad, sports fields, track, tennis, playground ",took address from Confederation Park Water Park,49.283768,-122.998835
"4709 Pandora St, Burnaby, BC V5C 2C2",,,Confederation Park,https://www.burnaby.ca/Things-To-Do/Explore-Outdoors/Parks/Confederation-Park.html,Aquatics,Spray parks / splash pads,Both,Public,4709,Pandora Street,,Burnaby ,BC,V5C 2C2,,,"seniors centre, youth centre, indoor pool, spray pool and splash pad, sports fields, track, tennis, playground ",took address from Confederation Park Water Park,49.283768,-122.998835
"4734 51 St, Delta, BC V4K 3R8",,,Ladner Community Centre,http://www.delta.ca/parks-recreation/sport-recreation/indoor-facilities/ladner-community-centre,Leisure / Community Centres,General,Indoor,Public,,,,,,,,,"community centre, pickleball",,49.0890075,-123.082069
"4734 51 St, Delta, BC V4K 3R8",,,Ladner Community Centre,http://www.delta.ca/parks-recreation/sport-recreation/indoor-facilities/ladner-community-centre,Physical Recreation & Sports,Tennis and/or pickleball courts ,Indoor,Public,,,,,,,,,"community centre, pickleball",,49.0890075,-123.082069
"4747 Dunbar St, Vancouver, BC V6S 2H2",,,Dunbar Community Centre,https://vancouver.ca/parks-recreation-culture/dunbar-community-centre.aspx,Leisure / Community Centres,General,Both,Public,4747,Dunbar Street,,Vancouver,BC,V6S 2H2,,,"community centre, badminton/squash, sports, fitness, playground, tennis",,49.2437967,-123.1861423
"4747 Dunbar St, Vancouver, BC V6S 2H2",,,Dunbar Community Centre,https://vancouver.ca/parks-recreation-culture/dunbar-community-centre.aspx,Physical Recreation & Sports,"Racquet courts (squash, racquetball, badminton)",Indoor,Public,4747,Dunbar Street,,Vancouver,BC,V6S 2H2,,,"community centre, badminton/squash, sports, fitness, playground, tennis",,49.2437967,-123.1861423
"4747 Dunbar St, Vancouver, BC V6S 2H2",,,Dunbar Community Centre,https://vancouver.ca/parks-recreation-culture/dunbar-community-centre.aspx,Physical Recreation & Sports,Fitness centres / areas ,Indoor,Public,4747,Dunbar Street,,Vancouver,BC,V6S 2H2,,,"community centre, badminton/squash, sports, fitness, playground, tennis",,49.2437967,-123.1861423
"4781 Parkwood Ave, Burnaby, BC V5G 3C6",,,Wesburn Community Centre,https://www.burnaby.ca/Things-To-Do/Community-Centres/Other-Centres/Wesburn.html,Leisure / Community Centres,General,Indoor,Public,4781,Parkwood Avenue ,,Burnaby ,BC,V5G 3C6,,,,,49.2420535,-123.0121871
"480 Broughton St, Vancouver, BC V6G 3H4",,,Coal Harbour Community Centre,https://westendcc.ca/coal-harbour/,Leisure / Community Centres,General,Both,Public,480,Broughton Street,,Vancouver,BC,V6G 3H4,,,"community centre with programs for children and adults, badminton/pickleball, indoor soccer , fitness",,49.2900551,-123.1256944
"480 Broughton St, Vancouver, BC V6G 3H4",,,Coal Harbour Community Centre,https://westendcc.ca/coal-harbour/,Physical Recreation & Sports,Sport fields,Indoor,Public,480,Broughton Street,,Vancouver,BC,V6G 3H4,,,"community centre with programs for children and adults, badminton/pickleball, indoor soccer , fitness",,49.2900551,-123.1256944
"480 Broughton St, Vancouver, BC V6G 3H4",,,Coal Harbour Community Centre,https://westendcc.ca/coal-harbour/,Physical Recreation & Sports,Fitness centres / areas ,Indoor,Public,480,Broughton Street,,Vancouver,BC,V6G 3H4,,,"community centre with programs for children and adults, badminton/pickleball, indoor soccer , fitness",,49.2900551,-123.1256944
"4867 Ontario St, Vancouver, BC V5V 3H4",,,Vancouver Racquets Club,https://vrc.bc.ca/facilities,Physical Recreation & Sports,"Racquet courts (squash, racquetball, badminton)",Indoor,Public,4867,Ontario Street,,Vancouver,BC,V5V 3H4,,,"squash, badminton, fitness",,49.241338,-123.1061013
"4867 Ontario St, Vancouver, BC V5V 3H4",,,Vancouver Racquets Club,https://vrc.bc.ca/facilities,Physical Recreation & Sports,Fitness centres / areas ,Indoor,Public,4867,Ontario Street,,Vancouver,BC,V5V 3H4,,,"squash, badminton, fitness",,49.241338,-123.1061013
"492 Glencoe Dr, Port Moody, BC V3H 1G5",,,Glenayre Community Centre,https://www.portmoody.ca/en/recreation-parks-and-environment/facilities-and-rentals.aspx#Glenayre-Community-Centre,Leisure / Community Centres,General,Indoor,Public,,,,,,,,,,,49.2747839,-122.8875771
"4990 Canada Way, Burnaby, BC V5G 1M4",,,Burnaby Winter Club,https://www.burnabywinterclub.com/,Ice,2+ surfaces,Indoor,Public,,,,,,,,,,,49.2431362,-122.9691591
"5140 Smith Dr, Richmond, BC V6V 2W5",,,Hamilton Community Centre,https://www.richmond.ca/parksrec/centres/hamiltonctr/hamiltoncentre.htm,Leisure / Community Centres,General,Indoor,Public,5140,Smith Drive,,Richmond,BC,V6V 2W5,,,"community centre, fitness",,49.175919,-122.965356
"5140 Smith Dr, Richmond, BC V6V 2W5",,,Hamilton Community Centre,https://www.richmond.ca/parksrec/centres/hamiltonctr/hamiltoncentre.htm,Physical Recreation & Sports,Fitness centres / areas ,Indoor,Public,5140,Smith Drive,,Richmond,BC,V6V 2W5,,,"community centre, fitness",,49.175919,-122.965356
"5151 Granville Ave, Richmond, BC V7C 1E6",,,Thompson Community Centre,https://www.richmond.ca/parksrec/centres/thompsoncentre/thompson.htm,Leisure / Community Centres,General,Indoor,Public,5151,Granville Avenue,,Richmond,BC,V7C 1E6,,,"community centre, gym, fitness",,49.1633452,-123.1655535
"5151 Granville Ave, Richmond, BC V7C 1E6",,,Thompson Community Centre,https://www.richmond.ca/parksrec/centres/thompsoncentre/thompson.htm,Physical Recreation & Sports,Gymnasiums ,Indoor,Public,5151,Granville Avenue,,Richmond,BC,V7C 1E6,,,,,49.1633452,-123.1655535
"5151 Granville Ave, Richmond, BC V7C 1E6",,,Thompson Community Centre,https://www.richmond.ca/parksrec/centres/thompsoncentre/thompson.htm,Physical Recreation & Sports,Fitness centres / areas ,Indoor,Public,5151,Granville Avenue,,Richmond,BC,V7C 1E6,,,,,49.1633452,-123.1655535
"5155 47 Ave, Delta, BC  V4K 0A2",,,McKee Senior's Recreation Centre,http://www.delta.ca/services/seniors/seniors-recreation-centres/lists/seniors-recreation-centres/mckee-seniors-recreation-centre,Leisure / Community Centres,Seniors,Indoor,Public,,,,,,,,,,,49.0885322,-123.0812093
"5175 Dumfries St, Vancouver, BC V5P 3A2",,,Kensington Community Centre,https://vancouver.ca/parks-recreation-culture/kensington-community-centre.aspx,Leisure / Community Centres,Seniors,Indoor,Public,5175,Dumfries Street,,Vancouver,BC,V5P 3A2,,,"pool, fitness, senior's centre, skate park",,49.2372265,-123.0747847
"5175 Dumfries St, Vancouver, BC V5P 3A2",,,Kensington Community Centre,https://vancouver.ca/parks-recreation-culture/kensington-community-centre.aspx,Aquatics,25m pool with or without other pools,Indoor,Public,5175,Dumfries Street,,Vancouver,BC,V5P 3A2,,,"pool, fitness, senior's centre, skate park",,49.2372265,-123.0747847
"5175 Dumfries St, Vancouver, BC V5P 3A2",,,Kensington Community Centre,https://vancouver.ca/parks-recreation-culture/kensington-community-centre.aspx,Physical Recreation & Sports,Fitness centres / areas ,Indoor,Public,5175,Dumfries Street,,Vancouver,BC,V5P 3A2,,,"pool, fitness, senior's centre, skate park",,49.2372265,-123.0747847
"5288 Joyce St, Vancouver, BC V5R 6C9",,,Collingwood Neighbourhood House,https://www.cnh.bc.ca/,Leisure / Community Centres,General,Indoor,Public,5288,Joyce Street,,Vancouver,BC,V5R 6C9,,,"programs for children, youth, adults and seniors",,49.2366592,-123.0328345
"535 Hornby St, Vancouver, BC V6C 2E8",,,YWCA Health + Fitness Centre,https://ywcavan.org/fitness,Aquatics,25m pool with or without other pools,Indoor,Public,535,Hornby Street,,Vancouver,BC,V6C 2E8,,,pool/fitness/racquet courts,,49.2855342,-123.1177823
"535 Hornby St, Vancouver, BC V6C 2E8",,,YWCA Health + Fitness Centre,https://ywcavan.org/fitness,Physical Recreation & Sports,Fitness centres / areas ,Indoor,Public,535,Hornby Street,,Vancouver,BC,V6C 2E8,,,pool/fitness/racquet courts,,49.2855342,-123.1177823
"535 Hornby St, Vancouver, BC V6C 2E8",,,YWCA Health + Fitness Centre,https://ywcavan.org/fitness,Physical Recreation & Sports,"Racquet courts (squash, racquetball, badminton)",Indoor,Public,535,Hornby Street,,Vancouver,BC,V6C 2E8,,,pool/fitness/racquet courts,,49.2855342,-123.1177823
"5350 Baillie St, Vancouver, BC V5Z 3M5",,,OAC Hall,,Leisure / Community Centres,General,Indoor,Public,5350,Baillie Street,,Vancouver,BC,V5Z 3M5,,,no website,,49.2371238,-123.1217818
"550 Sherling Pl, Port Coquitlam, BC V3B 0J6",,,Shuttlesport Badminton Academy,https://www.shuttlesport.com/,Physical Recreation & Sports,"Racquet courts (squash, racquetball, badminton)",Indoor,Private,,,,,,,,,,,49.2519881,-122.7322371
"5540 Hollybridge Way, Richmond, BC V7C 4N3",,,Richmond Curling Centre,http://www.richmondcurling.com/,Ice,Curling,Indoor,Private,5540,Hollybridge Way,,Richmond,BC,V7C 4N3,,,,,49.174307,-123.146282
"5575 9 Ave, Delta, BC  V4M 1W1",,,Winskill Aquatic and Fitness Centre,http://www.delta.ca/parks-recreation/sport-recreation/indoor-facilities/winskill-aquatic-and-fitness-centre,Aquatics,25m pool with or without other pools,Indoor,Public,,,,,,,,,"pool, fitness",,49.0199726,-123.0709939
"5575 9 Ave, Delta, BC  V4M 1W1",,,Winskill Aquatic and Fitness Centre,http://www.delta.ca/parks-recreation/sport-recreation/indoor-facilities/winskill-aquatic-and-fitness-centre,Aquatics,Leisure / wading pools,Indoor,Public,,,,,,,,,"pool, fitness",,49.0199726,-123.0709939
"5575 9 Ave, Delta, BC  V4M 1W1",,,Winskill Aquatic and Fitness Centre,http://www.delta.ca/parks-recreation/sport-recreation/indoor-facilities/winskill-aquatic-and-fitness-centre,Physical Recreation & Sports,Fitness centres / areas ,Indoor,Public,,,,,,,,,"pool, fitness",,49.0199726,-123.0709939
"5670 East Blvd, Vancouver, BC V6M 3V2",,,Kerrisdale Cyclone Taylor Arena,https://vancouver.ca/parks-recreation-culture/kerrisdale-cyclone-taylor-arena.aspx,Ice,Single surface,Indoor,Public,5670,East Boulevard,,Vancouver,BC,V6M 3V2,,,"ice rink from September to March, indoor playground from April to August",,49.2353056,-123.1539567
"5670 East Blvd, Vancouver, BC V6M 3V2",,,Kerrisdale Cyclone Taylor Arena,https://vancouver.ca/parks-recreation-culture/kerrisdale-cyclone-taylor-arena.aspx,Physical Recreation & Sports,Playgrounds ,Indoor,Public,5670,East Boulevard,,Vancouver,BC,V6M 3V2,,,"ice rink from September to March, indoor playground from April to August",,49.2353056,-123.1539567
"5700 Langley Bypass, Langley City, BC V3A 8L7",,Langley (DM),Canlan Ice Sports,https://www.icesports.com/langleytwin/,Ice,2+ surfaces,Indoor,Private,5700,Langley Bypass,,Langley City,BC,V3A 8L7,,,,,49.106076,-122.6416954
"573 E Hastings St, Vancouver, BC V6A 1P9",,,Downtown Eastside Neighbourhood House,https://dtesnhouse.ca/,Leisure / Community Centres,General,Indoor,Public,573,E Hastings Street,,Vancouver,BC,V6A 1P9,,,,,49.281546,-123.0916505
"5757 Beresford St, Burnaby, BC V5J 1J9",,,Vancouver Madinah,https://www.vancouvermadinah.ca/,Leisure / Community Centres,General,Indoor,Public,,,,,,,,,,,49.2187231,-122.9795815
"578 Poirier St, Coquitlam, BC  V3J 6A8",,,Centennial Activity Centre,https://www.coquitlam.ca/parks-recreation-and-culture/sport-and-recreation/recreation-centres/centennial-activity-centre.aspx,Physical Recreation & Sports,Gymnasiums ,Indoor,Public,578,Poirier Street,,Coquitlam,BC,V3J 6A8,,,,,49.2526723,-122.8469517
"5800 Minoru Blvd, Richmond, BC V6X 2B1",,,Richmond Pro Badminton Centre,https://rprobadminton.wordpress.com/,Physical Recreation & Sports,"Racquet courts (squash, racquetball, badminton)",Indoor,Private,,,,,,,,,,,49.1728823,-123.1389224
"5851 West Blvd, Vancouver, BC V6M 3W9",,,Kerrisdale Community Centre,https://vancouver.ca/parks-recreation-culture/kerrisdale-community-centre.aspx,Leisure / Community Centres,General,Both,Public,5851,West Boulevard,,Vancouver,BC,V6M 3W9,,,"community centre with youth and seniors centre, playground, gym, fitness, pool",,49.2332521,-123.1564775
"5851 West Blvd, Vancouver, BC V6M 3W9",,,Kerrisdale Community Centre,https://vancouver.ca/parks-recreation-culture/kerrisdale-community-centre.aspx,Physical Recreation & Sports,Gymnasiums ,Indoor,Public,5851,West Boulevard,,Vancouver,BC,V6M 3W9,,,"community centre with youth and seniors centre, playground, gym, fitness, pool",,49.2332521,-123.1564775
"5851 West Blvd, Vancouver, BC V6M 3W9",,,Kerrisdale Community Centre,https://vancouver.ca/parks-recreation-culture/kerrisdale-community-centre.aspx,Physical Recreation & Sports,Fitness centres / areas ,Indoor,Public,5851,West Boulevard,,Vancouver,BC,V6M 3W9,,,"community centre with youth and seniors centre, playground, gym, fitness, pool",,49.2332521,-123.1564775
"5851 West Blvd, Vancouver, BC V6M 3W9",,,Kerrisdale Community Centre,https://vancouver.ca/parks-recreation-culture/kerrisdale-community-centre.aspx,Aquatics,25m pool with or without other pools,Indoor,Public,5851,West Boulevard,,Vancouver,BC,V6M 3W9,,,"community centre with youth and seniors centre, playground, gym, fitness, pool",,49.2332521,-123.1564775
"5888 Fraser St, Vancouver, BC V5W 2Z5",,,South Hill Neighbourhood Centre,http://www.southvan.org/calendars/,Leisure / Community Centres,General,Indoor,Public,,,,,,,,,,,49.23136,-123.0904089
"5891 144 St, Surrey, BC V3X 1A6",,,The Tennis Centre,http://surrey.thetenniscentre.ca/,Physical Recreation & Sports,Tennis and/or pickleball courts ,Both,Public,5891,144 Street,,Surrey,BC,V3X 1A6,,,,,49.109772,-122.8236
"5891 144 St, Surrey, BC V3X 1A6",,,The Tennis Centre,http://surrey.thetenniscentre.ca/,Physical Recreation & Sports,Fitness centres / areas ,Indoor,Public,,,,,,,,,,,49.109772,-122.8236
"5900 Minoru Blvd, Richmond, BC V6X 0L9",,,City Centre Community Centre,https://www.richmond.ca/parksrec/centres/city/cityctr.htm,Leisure / Community Centres,General,Indoor,Public,5900,Minoru Boulevard,105,Richmond,BC,V6X 0L9,,,"community centre, fitness",,49.1714223,-123.1397352
"5900 Minoru Blvd, Richmond, BC V6X 0L9",,,City Centre Community Centre,https://www.richmond.ca/parksrec/centres/city/cityctr.htm,Physical Recreation & Sports,Fitness centres / areas ,Indoor,Public,5900,Minoru Boulevard,105,Richmond,BC,V6X 0L9,,,"community centre, fitness",,49.1714223,-123.1397352
"6000 Student Union Blvd, Vancouver, BC V6T 1Z1",,,UBC Student Recreation Centre,https://recreation.ubc.ca/,Ice,Single surface,Indoor,Private,6000,Student Union Boulevard,,Vancouver,BC,V6T 1Z1,,,ice rink/fitness/tennis,,49.2683872,-123.2489651
"6000 Student Union Blvd, Vancouver, BC V6T 1Z1",,,UBC Student Recreation Centre,https://recreation.ubc.ca/,Physical Recreation & Sports,Fitness centres / areas ,Indoor,Private,6000,Student Union Boulevard,,Vancouver,BC,V6T 1Z1,,,ice rink/fitness/tennis,,49.2683872,-123.2489651
"6000 Student Union Blvd, Vancouver, BC V6T 1Z1",,,UBC Student Recreation Centre,https://recreation.ubc.ca/,Physical Recreation & Sports,Tennis and/or pickleball courts ,Indoor,Private,6000,Student Union Boulevard,,Vancouver,BC,V6T 1Z1,,,ice rink/fitness/tennis,,49.2683872,-123.2489651
"601 Keefer St, Vancouver, BC V6A 3V8",,,Strathcona Community Centre,https://vancouver.ca/parks-recreation-culture/strathcona-community-centre.aspx,Leisure / Community Centres,General,Indoor,Public,601,Keefer Street,,Vancouver,BC,V6A 3V8,,,"community centre for all ages, fitness, outdoor playground",,49.2797798,-123.0915463
"601 Keefer St, Vancouver, BC V6A 3V8",,,Strathcona Community Centre,https://vancouver.ca/parks-recreation-culture/strathcona-community-centre.aspx,Physical Recreation & Sports,Fitness centres / areas ,Indoor,Public,601,Keefer Street,,Vancouver,BC,V6A 3V8,,,"community centre for all ages, fitness, outdoor playground",,49.2797798,-123.0915463
"6080 Student Union Blvd, Vancouver, BC V6T 1Z1",,,UBC Aquatic Centre,https://recreation.ubc.ca/aquatics/,Aquatics,25m pool with or without other pools,Indoor,Public,6080,Student Union Boulevard,,Vancouver,BC,V6T 1Z1,,,,,49.2677151,-123.2485172
"609 Helmcken St, Vancouver, BC V6B 5R1",,,Gathering Place Community Centre,https://vancouver.ca/parks-recreation-culture/gathering-place-community-centre.aspx#redirect,Leisure / Community Centres,General,Indoor,Public,609,Helmcken Street,,Vancouver,BC,V6B 5R1,,,"community centre serving vulnerable populations, fitness",,49.2780063,-123.1235633
"609 Helmcken St, Vancouver, BC V6B 5R1",,,Gathering Place Community Centre,https://vancouver.ca/parks-recreation-culture/gathering-place-community-centre.aspx#redirect,Physical Recreation & Sports,Fitness centres / areas ,Indoor,Public,609,Helmcken Street,,Vancouver,BC,V6B 5R1,,,"community centre serving vulnerable populations, fitness",,49.2780063,-123.1235633
"6090 176 St, Surrey, BC V3S 4E7",,,Cloverdale Skating Club,https://www.cloverdaleskatingclub.com/,Ice,Single surface,Indoor,Public,6090,176 Street,,Surrey,BC,V3S 4E7,,,,,49.1132463,-122.7342012
"6111 River Rd, Richmond, BC V7C 0A2",,,Richmond Olympic Oval,https://richmondoval.ca/,Ice,2+ surfaces,Indoor,Public,,,,,,,,,"2 rinks, gym, running track, fitness",,49.1747431,-123.1515448
"6111 River Rd, Richmond, BC V7C 0A2",,,Richmond Olympic Oval,https://richmondoval.ca/,Physical Recreation & Sports,Gymnasiums ,Indoor,Public,,,,,,,,,"2 rinks, gym, running track, fitness",,49.1747431,-123.1515448
"6111 River Rd, Richmond, BC V7C 0A2",,,Richmond Olympic Oval,https://richmondoval.ca/,Physical Recreation & Sports,Running tracks (track and field),Indoor,Public,,,,,,,,,"2 rinks, gym, running track, fitness",,49.1747431,-123.1515448
"6111 River Rd, Richmond, BC V7C 0A2",,,Richmond Olympic Oval,https://richmondoval.ca/,Physical Recreation & Sports,Fitness centres / areas ,Indoor,Public,,,,,,,,,"2 rinks, gym, running track, fitness",,49.1747431,-123.1515448
"6111 River Rd, Richmond, BC V7C 0A2",,,Richmond Olympic Oval,https://richmondoval.ca/,Physical Recreation & Sports,Gymnasiums ,Indoor,Public,,,,,,,,,,,49.1747431,-123.1515448
"6150 176 Street, Surrey, BC V3S 4E7",,Surrey,Cloverdale Curling Rink,https://www.cloverdalecurlingclub.ca/,Ice,Curling,Indoor,Public,6150,176 Street,,Surrey,BC,V3S 4E7,,,,,49.1142347,-122.7343301
"6159 Curtis St, Burnaby, BC V5B 4X7",,,Kensington Park Rink,https://arenaguide.ca/arena/kensington-park-rink-kensington-complex/,Ice,Single surface,Indoor,Public,6159,Curtis Street,,Burnaby ,BC,V5B 4X7,,,,,49.2758578,-122.9739257
"6160 Thunderbird Blvd, Vancouver, BC V6T 1W5",,,UBC Tennis Centre,https://sportfacilities.ubc.ca/tennis-centre/,Physical Recreation & Sports,Tennis and/or pickleball courts ,Both,Public,6160,Thunderbird Boulevard,,Vancouver,BC,V6T 1W5,,,,,49.2599145,-123.2443866
"6184 Ash St, Vancouver, BC V5Z 3G9",,,Peretz Centre for Secular Jewish Culture,https://peretz-centre.org/,Leisure / Community Centres,General,Indoor,Public,6184,Ash Street,,Vancouver,BC,V5Z 3G9,,,for Jewish culture,,49.2289108,-123.1175858
"6188 176 St, Surrey, BC V3S 4E7",,,Cloverdale Recreation Centre,https://www.surrey.ca/culture-recreation/8524.aspx,Leisure / Community Centres,General,Indoor,Public,6188,176 Street,,Surrey,BC,V3S 4E7,,,"community centre with programs for children, youth and seniors, gym, fitness, ice arena",,49.1152228,-122.7341399
"6188 176 St, Surrey, BC V3S 4E7",,,Cloverdale Recreation Centre,https://www.surrey.ca/culture-recreation/8524.aspx,Physical Recreation & Sports,Gymnasiums ,Indoor,Public,6188,176 Street,,Surrey,BC,V3S 4E7,,,"community centre with programs for children, youth and seniors, gym, fitness, ice arena",,49.1152228,-122.7341399
"6188 176 St, Surrey, BC V3S 4E7",,,Cloverdale Recreation Centre,https://www.surrey.ca/culture-recreation/8524.aspx,Physical Recreation & Sports,Fitness centres / areas ,Indoor,Public,6188,176 Street,,Surrey,BC,V3S 4E7,,,"community centre with programs for children, youth and seniors, gym, fitness, ice arena",,49.1152228,-122.7341399
"620 8th St, New Westminster, BC V3M 3S6",,,Century House,https://www.newwestcity.ca/parks-and-recreation/facilities/century-house,Leisure / Community Centres,Seniors,Indoor,Public,620,8th Street,,New Westminster,BC,V3M 3S6,,,,,49.2117159,-122.9261096
"620 8th St, New Westminster, BC V3M 3S6",,,Century House,https://www.newwestcity.ca/parks-and-recreation/facilities/century-house,Leisure / Community Centres,Youth,Indoor,Public,620,8th Street,,New Westminster,BC,V3M 3S6,,,,,49.2117159,-122.9261096
"620 8th St, New Westminster, BC V3M 3S6",,,New West Youth Centre,https://www.newwestyouth.ca/,Leisure / Community Centres,Youth,Indoor,Public,620,8th Street,,New Westminster,BC,V3M 3S6,,,youth centre with fitness room,,49.2117159,-122.9261096
"620 8th St, New Westminster, BC V3M 3S6",,,New West Youth Centre,https://www.newwestyouth.ca/,Physical Recreation & Sports,Fitness centres / areas ,Indoor,Public,620,8th Street,,New Westminster,BC,V3M 3S6,,,youth centre with fitness room,,49.2117159,-122.9261096
"6220 184 St, Surrey, BC V3S 8E6",,,Don Christian Recreation Centre,https://www.surrey.ca/culture-recreation/5035.aspx,Leisure / Community Centres,General,Indoor,Public,6220,184 Street,,Surrey,BC,V3S 8E6,,,"community centre with programs for children, youth and seniors, gym, fitness, ice arena",,49.115366,-122.712288
"625 Mountain Hwy, North Vancouver, BC V7J 2L5",,,Seylynn Community Recreation Centre,https://www.nvrc.ca/facilities-fields/locations-hours/community-recreation-centres/seylynn-community-recreation-centre,Leisure / Community Centres,General,Indoor,Public,625,Mountain Highway Avenue,,North Vancouver,BC,V7J 2L5,,,minimal information on website - community centre with few fitness programs,,49.311854,-123.0328828
"625 Mountain Hwy, North Vancouver, BC V7J 2L5",,,Seylynn Community Recreation Centre,https://www.nvrc.ca/facilities-fields/locations-hours/community-recreation-centres/seylynn-community-recreation-centre,Physical Recreation & Sports,Fitness centres / areas ,Indoor,Public,625,Mountain Highway Avenue,,North Vancouver,BC,V7J 2L5,,,minimal information on website - community centre with few fitness programs,,49.311854,-123.0328828
"6260 Killarney St, Vancouver, BC V5S 2X7",,,Killarney Community Centre,https://vancouver.ca/parks-recreation-culture/killarney-community-centre.aspx,Leisure / Community Centres,General,Both,Public,6260,Killarney Street,,Vancouver,BC,V5S 2X7,,,"community centre with programs for children and seniors, gym, fitness, pool, ice rink, tennis, playground",,49.2274099,-123.0443906
"6260 Killarney St, Vancouver, BC V5S 2X7",,,Killarney Community Centre,https://vancouver.ca/parks-recreation-culture/killarney-community-centre.aspx,Physical Recreation & Sports,Gymnasiums ,Indoor,Public,6260,Killarney Street,,Vancouver,BC,V5S 2X7,,,"community centre with programs for children and seniors, gym, fitness, pool, ice rink, tennis, playground",,49.2274099,-123.0443906
"6260 Killarney St, Vancouver, BC V5S 2X7",,,Killarney Community Centre,https://vancouver.ca/parks-recreation-culture/killarney-community-centre.aspx,Physical Recreation & Sports,Fitness centres / areas ,Indoor,Public,6260,Killarney Street,,Vancouver,BC,V5S 2X7,,,"community centre with programs for children and seniors, gym, fitness, pool, ice rink, tennis, playground",,49.2274099,-123.0443906
"6260 Killarney St, Vancouver, BC V5S 2X7",,,Killarney Community Centre,https://vancouver.ca/parks-recreation-culture/killarney-community-centre.aspx,Aquatics,25m pool with or without other pools,Indoor,Public,6260,Killarney Street,,Vancouver,BC,V5S 2X7,,,"community centre with programs for children and seniors, gym, fitness, pool, ice rink, tennis, playground",,49.2274099,-123.0443906
"6260 Killarney St, Vancouver, BC V5S 2X7",,,Killarney Community Centre,https://vancouver.ca/parks-recreation-culture/killarney-community-centre.aspx,Ice,Single surface,Indoor,Public,6260,Killarney Street,,Vancouver,BC,V5S 2X7,,,"community centre with programs for children and seniors, gym, fitness, pool, ice rink, tennis, playground",,49.2274099,-123.0443906
"6262 Marine Dr, West Vancouver, BC V7W 2S5",,,Gleneagles Community Centre,https://westvancouver.ca/parks-recreation/community-centres/gleneagles-community-centre,Leisure / Community Centres,General,Indoor,Public,6262,Marine Drive,,West Vancouver,BC,V7W 2S5,,,"community centre, fitness, gym, skate park",,49.3640177,-123.2777929
"6262 Marine Dr, West Vancouver, BC V7W 2S5",,,Gleneagles Community Centre,https://westvancouver.ca/parks-recreation/community-centres/gleneagles-community-centre,Physical Recreation & Sports,Fitness centres / areas ,Indoor,Public,6262,Marine Drive,,West Vancouver,BC,V7W 2S5,,,"community centre, fitness, gym, skate park",,49.3640177,-123.2777929
"6262 Marine Dr, West Vancouver, BC V7W 2S5",,,Gleneagles Community Centre,https://westvancouver.ca/parks-recreation/community-centres/gleneagles-community-centre,Physical Recreation & Sports,Gymnasiums ,Indoor,Public,6262,Marine Drive,,West Vancouver,BC,V7W 2S5,,,"community centre, fitness, gym, skate park",,49.3640177,-123.2777929
"630 Poirier St, Coquitlam, BC  V3J 6B1",,,Poirier Community Centre,https://www.coquitlam.ca/parks-recreation-and-culture/sport-and-recreation/recreation-centres/poirier-community-centre.aspx,Leisure / Community Centres,General,Indoor,Public,,,,,,,,,"community centre, fitness",,49.2546494,-122.8472666
"630 Poirier St, Coquitlam, BC  V3J 6B1",,,Poirier Community Centre,https://www.coquitlam.ca/parks-recreation-and-culture/sport-and-recreation/recreation-centres/poirier-community-centre.aspx,Physical Recreation & Sports,Fitness centres / areas ,Indoor,Public,,,,,,,,,"community centre, fitness",,49.2546494,-122.8472666
"6306 152 St, Surrey, BC V3S 3K9",,,Sullivan's Community Hall,https://www.sullivanhall.ca/,Leisure / Community Centres,General,Indoor,Public,,,,,,,,,,,49.1172743,-122.8005288
"6308 Thunderbird Blvd, Vancouver, BC V6T 1Z4",,,Old Barn Community Centre,http://www.discoverwesbrook.com/posts/the-old-barn-community-centre#.XiIJSCiJJdg,Leisure / Community Centres,General,Indoor,Private,6308,Thunderbird Boulevard,,Vancouver,BC,V6T 1Z4,,,"minimal information on website - unsure of programs, on UBC campus",,49.2588431,-123.2482067
"6308 Thunderbird Blvd, Vancouver, BC V6T 1Z4",,,Old Barn Community Centre,http://www.discoverwesbrook.com/posts/the-old-barn-community-centre#.XiIJSCiJJdg,Physical Recreation & Sports,Fitness centres / areas ,Indoor,Private,,,,,,,,,,,49.2588431,-123.2482067
"631 Lougheed Hwy, Coquitlam, BC V3K 3S5",,,West Coast Swim School,https://westcoastss.ca/,Aquatics,25m pool with or without other pools,Indoor,Public,,,,,,,,,swim lessons at Ramada ,,49.2423599,-122.8845004
633 Poirier St V3J 6A9,,,Chimo Aquatic and Fitness Centre,https://enacademic.com/dic.nsf/enwiki/10605488,Aquatics,25m pool with or without other pools,Indoor,Public,,,,,,,,,"pools, fitness",,49.2547132,-122.8462243
633 Poirier St V3J 6A9,,,Chimo Aquatic and Fitness Centre,https://enacademic.com/dic.nsf/enwiki/10605488,Physical Recreation & Sports,Fitness centres / areas ,Indoor,Public,,,,,,,,,"pools, fitness",,49.2547132,-122.8462243
633 Poirier St V3J 6A9,,,Chimo Aquatic and Fitness Centre,https://enacademic.com/dic.nsf/enwiki/10605488,Aquatics,Leisure / wading pools,Indoor,Public,,,,,,,,,"pools, fitness",,49.2547132,-122.8462243
633 Poirier St V3J 6A9,,,Chimo Aquatic and Fitness Centre,https://enacademic.com/dic.nsf/enwiki/10605488,Aquatics,Spray parks / splash pads,Indoor,Public,,,,,,,,,"pools, fitness",,49.2547132,-122.8462243
"633 Poirier St, Coquitlam, BC V3J 6A9",,Coquitlam,Poirier Sport & Leisure Complex,https://www.coquitlam.ca/parks-recreation-and-culture/sport-and-recreation/sports-facilities/indoors/poirier-sport-leisure-complex.aspx,Ice,Single surface,Indoor,Public,633,Poirier Street,,Coquitlam,BC,V3J 6A9,,,"ice rink, 2 pools, fitness, indoor track",,49.2547132,-122.8462243
"633 Poirier St, Coquitlam, BC V3J 6A9",,,Poirier Sport & Leisure Complex,https://www.coquitlam.ca/parks-recreation-and-culture/sport-and-recreation/sports-facilities/indoors/poirier-sport-leisure-complex.aspx,Aquatics,25m pool with or without other pools,Indoor,Public,633,Poirier Street,,Coquitlam,BC,V3J 6A9,,,"ice rink, 2 pools, fitness, indoor track",,49.2547132,-122.8462243
"633 Poirier St, Coquitlam, BC V3J 6A9",,,Poirier Sport & Leisure Complex,https://www.coquitlam.ca/parks-recreation-and-culture/sport-and-recreation/sports-facilities/indoors/poirier-sport-leisure-complex.aspx,Aquatics,Leisure / wading pools,Indoor,Public,633,Poirier Street,,Coquitlam,BC,V3J 6A9,,,"ice rink, 2 pools, fitness, indoor track",,49.2547132,-122.8462243
"633 Poirier St, Coquitlam, BC V3J 6A9",,,Poirier Sport & Leisure Complex,https://www.coquitlam.ca/parks-recreation-and-culture/sport-and-recreation/sports-facilities/indoors/poirier-sport-leisure-complex.aspx,Physical Recreation & Sports,Fitness centres / areas ,Indoor,Public,633,Poirier Street,,Coquitlam,BC,V3J 6A9,,,"ice rink, 2 pools, fitness, indoor track",,49.2547132,-122.8462243
"633 Poirier St, Coquitlam, BC V3J 6A9",,,Poirier Sport & Leisure Complex,https://www.coquitlam.ca/parks-recreation-and-culture/sport-and-recreation/sports-facilities/indoors/poirier-sport-leisure-complex.aspx,Physical Recreation & Sports,Running tracks (track and field),Indoor,Public,633,Poirier Street,,Coquitlam,BC,V3J 6A9,,,"ice rink, 2 pools, fitness, indoor track",,49.2547132,-122.8462243
"6470 Victoria Dr, Vancouver, BC V5P 3X7",,,South Vancouver Neighbourhood House,http://www.southvan.org/,Leisure / Community Centres,General,Indoor,Public,6470,Victoria Drive,,Vancouver,BC,V5P 3X7,,,,,49.225528,-123.0653392
"65 E Sixth Ave, New Westminster, BC V3L 4G6",,,Canada Games Pool,https://www.newwestcity.ca/parks-and-recreation/facilities/canada-games-pool,Aquatics,25m pool with or without other pools,Indoor,Public,65,E Sixth Avenue ,,New Westminster,BC,V3L 4G6,,,"website does not work - swimming complex with 4 pools, fitness gym",,49.2216039,-122.906977
"65 E Sixth Ave, New Westminster, BC V3L 4G6",,,Canada Games Pool,https://www.newwestcity.ca/parks-and-recreation/facilities/canada-games-pool,Physical Recreation & Sports,Fitness centres / areas ,Indoor,Public,65,E Sixth Avenue ,,New Westminster,BC,V3L 4G6,,,"website does not work - swimming complex with 4 pools, fitness gym",,49.2216039,-122.906977
"65 E Sixth Ave, New Westminster, BC V3L 4G6",,,Centennial Community Centre,https://www.newwestcity.ca/parks-and-recreation/facilities/centennial-community-centre,Leisure / Community Centres,General,Indoor,Public,65,E Sixth Avenue ,,New Westminster,BC,V3L 4G6,,,community centre with fitness,,49.2216039,-122.906977
"65 E Sixth Ave, New Westminster, BC V3L 4G6",,,Centennial Community Centre,https://www.newwestcity.ca/parks-and-recreation/facilities/centennial-community-centre,Physical Recreation & Sports,Fitness centres / areas ,Indoor,Public,65,E Sixth Avenue ,,New Westminster,BC,V3L 4G6,,,community centre with fitness,,49.2216039,-122.906977
"6501 Sprott St, Burnaby, BC V5B 3B8",,Burnaby,Canlan Ice Sports/Scotia Barn,https://www.icesports.com/scotiabarn/,Ice,2+ surfaces,Indoor,Private,6501,Sprott Street,,Burnaby ,BC,V5B 3B8,,,hockey/figure skating/soccer,,49.2511125,-122.9694595
"6501 Sprott St, Burnaby, BC V5B 3B8",,,Canlan Ice Sports/Scotia Barn,https://www.icesports.com/scotiabarn/,Physical Recreation & Sports,Sport fields,Indoor,Private,6501,Sprott Street,,Burnaby ,BC,V5B 3B8,,,hockey/figure skating/soccer,,49.2511125,-122.9694595
"6533 Nelson Ave, Burnaby, BC V5H 0C2",,,Bonsor 55+ Seniors Centre,https://bonsor55.plussociety.org/website/,Leisure / Community Centres,Seniors,Indoor,Public,6533,Nelson Avenue,,Burnaby ,BC,V5H 0C2,,,,,49.2242723,-122.9947027
"6540 Thomas St, Burnaby, BC V5B 4P9",,,Scandinavian Community Centre,https://scancentre.org/contact-us/,Leisure / Community Centres,General,Indoor,Public,,,,,,,,,,,49.2477754,-122.9679835
"6550 Bonsor Ave, Burnaby, BC V5H 3G4",,,Bonsor Recreation Complex,https://www.burnaby.ca/Things-To-Do/Community-Centres/Bonsor-Recreation-Complex.html,Aquatics,25m pool with or without other pools,Indoor,Public,6550,Bonsor Avenue,,Burnaby ,BC,V5H 3G4,,,"pool, gym, fitness, racquet courts, ",,49.2242567,-122.9967536
"6550 Bonsor Ave, Burnaby, BC V5H 3G4",,,Bonsor Recreation Complex,https://www.burnaby.ca/Things-To-Do/Community-Centres/Bonsor-Recreation-Complex.html,Aquatics,Leisure / wading pools,Indoor,Public,6550,Bonsor Avenue,,Burnaby ,BC,V5H 3G4,,,"pool, gym, fitness, racquet courts, ",,49.2242567,-122.9967536
"6550 Bonsor Ave, Burnaby, BC V5H 3G4",,,Bonsor Recreation Complex,https://www.burnaby.ca/Things-To-Do/Community-Centres/Bonsor-Recreation-Complex.html,Physical Recreation & Sports,Gymnasiums ,Indoor,Public,6550,Bonsor Avenue,,Burnaby ,BC,V5H 3G4,,,"pool, gym, fitness, racquet courts",,49.2242567,-122.9967536
"6550 Bonsor Ave, Burnaby, BC V5H 3G4",,,Bonsor Recreation Complex,https://www.burnaby.ca/Things-To-Do/Community-Centres/Bonsor-Recreation-Complex.html,Physical Recreation & Sports,Fitness centres / areas ,Indoor,Public,6550,Bonsor Avenue,,Burnaby ,BC,V5H 3G4,,,"pool, gym, fitness, racquet courts",,49.2242567,-122.9967536
"6550 Bonsor Ave, Burnaby, BC V5H 3G4",,,Bonsor Recreation Complex,https://www.burnaby.ca/Things-To-Do/Community-Centres/Bonsor-Recreation-Complex.html,Physical Recreation & Sports,"Racquet courts (squash, racquetball, badminton)",Indoor,Public,6550,Bonsor Avenue,,Burnaby ,BC,V5H 3G4,,,"pool, gym, fitness, racquet courts",,49.2242567,-122.9967536
"6748 Carncross Crescent, Delta, BC V4E 2L5",,,Sunshine Hills Tennis Club,https://www.sunshinehillstennisclub.com/,Physical Recreation & Sports,Tennis and/or pickleball courts ,Both,Private,6748,Carncross Crescenet,,Delta,BC,V4E 2L5,,,,,49.1247886,-122.9125698
"6810 Main St, Vancouver, BC V5X 0A1",,,Sunset Community Centre,https://vancouver.ca/parks-recreation-culture/sunset-community-centre.aspx,Leisure / Community Centres,General,Both,Public,6810,Main Street,,Vancouver,BC,V5X 0A1,,,"community centre, fitness, playground",,49.2228633,-123.1011745
"6810 Main St, Vancouver, BC V5X 0A1",,,Sunset Community Centre,https://vancouver.ca/parks-recreation-culture/sunset-community-centre.aspx,Physical Recreation & Sports,Fitness centres / areas ,Indoor,Public,6810,Main Street,,Vancouver,BC,V5X 0A1,,,"community centre, fitness, playground",,49.2228633,-123.1011745
"6820 Gilbert Rd, Richmond, BC V7C 3V4",,,Richmond Tennis Club,http://www.richmondtennisclub.com/,Physical Recreation & Sports,Tennis and/or pickleball courts ,Both,Both,6820,Gilbert Road,,Richmond,BC,V7C 3V4,,,,,49.164153,-123.147119
"695 21st St, West Vancouver, BC V7V 4A7",,,Seniors' Activity Centre,https://westvancouver.ca/parks-recreation/community-centres/seniors-activity-centre,Leisure / Community Centres,Seniors,Indoor,Public,695,21st Street,,West Vancouver,BC,V7V 4A7,,,,,49.3309479,-123.1688452
"700 Templeton Dr, Vancouver, BC V5L 4N8",,,Templeton Park Pool,https://vancouver.ca/parks-recreation-culture/templeton-pool.aspx,Aquatics,25m pool with or without other pools,Indoor,Public,700,Templeton Drive,,Vancouver,BC,V5L 4N8,,,,,49.2782966,-123.0599481
"701 8th Ave, New Westminster, BC V3M 2R2",,,Moody Park Arena,https://www.newwestcity.ca/parks-and-recreation/facilities/moody-park-arena,Ice,Single surface,Indoor,Public,701,8th Avenue,,New Westminster,BC,V3M 2R2,,,"dry floor April to June, ice skating July to March",,49.215566,-122.926201
"7120 136b St, Surrey, BC V3W 8G5",,,Newton Arena,https://www.surrey.ca/culture-recreation/5044.aspx,Ice,Single surface,Indoor,Public,7120,136b Street,,Surrey,BC,V3W 8G5,,,,,49.1322298,-122.8434643
"7140 Miller Rd, Richmond, BC V7B 1L4",,,Sea Island Community Centre,https://www.richmond.ca/parksrec/centres/seaislandcentre/seaisland.htm,Leisure / Community Centres,General,Indoor,Public,,,,,,,,,"community centre, gym, tennis, playground",,49.1917321,-123.1444707
"7140 Miller Rd, Richmond, BC V7B 1L4",,,Sea Island Community Centre,https://www.richmond.ca/parksrec/centres/seaislandcentre/seaisland.htm,Physical Recreation & Sports,Gymnasiums ,Indoor,Public,,,,,,,,,"community centre, gym, tennis, playground",,49.1917321,-123.1444707
"7187 Vantage Way, Delta, BC V4G 1K7",,Delta,Tilbury Ice,http://www.delta.ca/parks-recreation/sport-recreation/indoor-facilities/tilbury-ice,Ice,Single surface,Indoor,Public,7187,Vantage Way,,Delta,BC,V4G 1K7,,,,,49.1360009,-123.0256449
"719 W 59th Ave, Vancouver, BC V6P 6M7",,,Stan Stronge Pool,https://find.healthlinkbc.ca/ResourceView2.aspx?org=53965&agencynum=59023278,Aquatics,25m pool with or without other pools,Indoor,Public,719,W 59th Avenue,,Vancouver,BC,V6P 6M7,,,website is not functional - seems to be a therapy pool,,49.2176892,-123.121079
"7191 Granville Ave, Richmond, BC V6Y 1N9",,,Minoru Centre for Active Living,https://www.minorucentre.ca/,Leisure / Community Centres,Seniors,Indoor,Public,7191,Granville Avenue,,Richmond,BC,V6Y 1N9,,,"seniors community centre, fitness",,49.163231,-123.1450486
"7191 Granville Ave, Richmond, BC V6Y 1N9",,,Minoru Centre for Active Living,https://www.minorucentre.ca/,Physical Recreation & Sports,Fitness centres / areas ,Indoor,Public,7191,Granville Avenue,,Richmond,BC,V6Y 1N9,,,"seniors community centre, fitness",,49.163231,-123.1450486
"7433 Edmonds St, Burnaby, BC V3N 1B1",,,Edmonds Community Centre,https://www.burnaby.ca/Things-To-Do/Community-Centres/Edmonds-Community-Centre.html,Leisure / Community Centres,General,Indoor,Public,7433,Edmonds Street,,Burnaby ,BC,V3N 1B1,,,"community centre, pool, fitness, gyms, indoor playground",,49.2209489,-122.9481954
"7433 Edmonds St, Burnaby, BC V3N 1B1",,,Edmonds Community Centre,https://www.burnaby.ca/Things-To-Do/Community-Centres/Edmonds-Community-Centre.html,Aquatics,25m pool with or without other pools,Indoor,Public,7433,Edmonds Street,,Burnaby ,BC,V3N 1B1,,,"community centre, pool, fitness, gyms, indoor playground",,49.2209489,-122.9481954
"7433 Edmonds St, Burnaby, BC V3N 1B1",,,Edmonds Community Centre,https://www.burnaby.ca/Things-To-Do/Community-Centres/Edmonds-Community-Centre.html,Aquatics,Leisure / wading pools,Indoor,Public,,,,,,,,,,,49.2209489,-122.9481954
"7433 Edmonds St, Burnaby, BC V3N 1B1",,,Edmonds Community Centre,https://www.burnaby.ca/Things-To-Do/Community-Centres/Edmonds-Community-Centre.html,Physical Recreation & Sports,Fitness centres / areas ,Indoor,Public,7433,Edmonds Street,,Burnaby ,BC,V3N 1B1,,,"community centre, pool, fitness, gyms, indoor playground",,49.2209489,-122.9481954
"7433 Edmonds St, Burnaby, BC V3N 1B1",,,Edmonds Community Centre,https://www.burnaby.ca/Things-To-Do/Community-Centres/Edmonds-Community-Centre.html,Physical Recreation & Sports,Gymnasiums ,Indoor,Public,7433,Edmonds Street,,Burnaby ,BC,V3N 1B1,,,"community centre, pool, fitness, gyms, indoor playground",,49.2209489,-122.9481954
"7433 Edmonds St, Burnaby, BC V3N 1B1",,,Edmonds Community Centre,https://www.burnaby.ca/Things-To-Do/Community-Centres/Edmonds-Community-Centre.html,Physical Recreation & Sports,Playgrounds ,Indoor,Public,7433,Edmonds Street,,Burnaby ,BC,V3N 1B1,,,"community centre, pool, fitness, gyms, indoor playground",,49.2209489,-122.9481954
"75 6 Ave E, New Westminster, BC V3L 4G6",,,Royal City Curling Club,https://royalcitycc.com/,Ice,Curling,Indoor,Public,75,6 Avenue E,,New Westminster,BC,V3L 4G6,,,,,49.221686,-122.905832
"7551 Minoru Gate, Richmond, BC V6Y 1R8",,,Minoru Arenas,https://www.richmond.ca/parksrec/arenas/about.htm,Ice,2+ surfaces,Indoor,Public,7551,Minoru Gate,,Richmond,BC,V6Y 1R8,,,,,49.1640874,-123.142556
"7560 Minoru Gate, Richmond, BC V6Y 1R9",,,Minoru Aquatic Centre,https://www.richmond.ca/parksrec/pools/minoru.htm,Aquatics,25m pool with or without other pools,Indoor,Public,7560,Minoru Gate,,Richmond,BC,V6Y 1R9,,,"indoor pool, fitness",,49.1633671,-123.1420191
"7560 Minoru Gate, Richmond, BC V6Y 1R9",,,Minoru Aquatic Centre,https://www.richmond.ca/parksrec/pools/minoru.htm,Aquatics,Leisure / wading pools,Indoor,Public,7560,Minoru Gate,,Richmond,BC,V6Y 1R9,,,"indoor pool, fitness",,49.1633671,-123.1420191
"7560 Minoru Gate, Richmond, BC V6Y 1R9",,,Minoru Aquatic Centre,https://www.richmond.ca/parksrec/pools/minoru.htm,Physical Recreation & Sports,Fitness centres / areas ,Indoor,Public,7560,Minoru Gate,,Richmond,BC,V6Y 1R9,,,"indoor pool, fitness",,49.1633671,-123.1420191
"7815 112 St, Delta, BC V4C 4V9",,,Sungod Recreation Centre,http://www.delta.ca/parks-recreation/sport-recreation/indoor-facilities/sungod-recreation-centre,Ice,Single surface,Indoor,Public,7815,112 Street ,,Delta,BC,V4C 4V9,,,"arena, 5 pools, fitness, gym",,49.145623,-122.9125991
"7815 112 St, Delta, BC V4C 4V9",,,Sungod Recreation Centre,http://www.delta.ca/parks-recreation/sport-recreation/indoor-facilities/sungod-recreation-centre,Aquatics,25m pool with or without other pools,Indoor,Public,7815,112 Street ,,Delta,BC,V4C 4V9,,,"arena, 5 pools, fitness, gym",,49.145623,-122.9125991
"7815 112 St, Delta, BC V4C 4V9",,,Sungod Recreation Centre,http://www.delta.ca/parks-recreation/sport-recreation/indoor-facilities/sungod-recreation-centre,Aquatics,Leisure / wading pools,Indoor,Public,7815,112 Street ,,Delta,BC,V4C 4V9,,,"arena, 5 pools, fitness, gym",,49.145623,-122.9125991
"7815 112 St, Delta, BC V4C 4V9",,,Sungod Recreation Centre,http://www.delta.ca/parks-recreation/sport-recreation/indoor-facilities/sungod-recreation-centre,Physical Recreation & Sports,Fitness centres / areas ,Indoor,Public,7815,112 Street ,,Delta,BC,V4C 4V9,,,"arena, 5 pools, fitness, gym",,49.145623,-122.9125991
"7815 112 St, Delta, BC V4C 4V9",,,Sungod Recreation Centre,http://www.delta.ca/parks-recreation/sport-recreation/indoor-facilities/sungod-recreation-centre,Physical Recreation & Sports,Gymnasiums ,Indoor,Public,7815,112 Street ,,Delta,BC,V4C 4V9,,,"arena, 5 pools, fitness, gym",,49.145623,-122.9125991
"786 22nd St, West Vancouver, BC V7V 4B9",,West Vancouver,Ice Arena - West Vancouver,https://westvancouver.ca/parks-recreation/community-centres/ice-arena,Ice,Single surface,Indoor,Public,786,22nd Street,,West Vancouver,BC,V7V 4B9,,,,,49.3320701,-123.1703291
"7888 200 St, Langley City, BC V2Y 3J4",,,Willoughby Community Centre,https://www.tol.ca/recreation-culture/facilities/willoughby-community-centre/,Physical Recreation & Sports,Fitness centres / areas ,Indoor,Public,7888,200 Street,,Langley City,BC,V2Y 3J4,,,,,49.1458543,-122.6677869
"7888 200 St, Langley City, BC V2Y 3J4",,,Langley Tennis Centre,https://www.langleytenniscentre.com/,Physical Recreation & Sports,Tennis and/or pickleball courts ,Indoor,Public,,,,,,,,,,,49.1458543,-122.6677869
"801 W 22nd Ave, Vancouver, BC V5Z 1Z8",Vancouver,Vancouver,Douglas Park Community Centre,https://vancouver.ca/parks-recreation-culture/douglas-park-community-centre.aspx,Leisure / Community Centres,General,Both,Public,801,W 22nd Avenue,,Vancouver,BC,V5Z 1Z8,,,"community centre, fitness, tennis, sports fields, wading pool, playgrounds",,49.2522023,-123.1223905
"801 W 22nd Ave, Vancouver, BC V5Z 1Z8",,,Douglas Park Community Centre,https://vancouver.ca/parks-recreation-culture/douglas-park-community-centre.aspx,Aquatics,Leisure / wading pools,Both,Public,801,W 22nd Avenue,,Vancouver,BC,V5Z 1Z8,,,"community centre, fitness, tennis, sports fields, wading pool, playgrounds",,49.2522023,-123.1223905
"801 W 22nd Ave, Vancouver, BC V5Z 1Z8",,,Douglas Park Community Centre,https://vancouver.ca/parks-recreation-culture/douglas-park-community-centre.aspx,Physical Recreation & Sports,Fitness centres / areas ,Indoor,Public,801,W 22nd Avenue,,Vancouver,BC,V5Z 1Z8,,,"community centre, fitness, tennis, sports fields, wading pool, playgrounds",,49.2522023,-123.1223905
"821 21st St, West Vancouver, BC V7V 4T3",,,West Vancouver Tennis Club,https://wvtc.info/,Physical Recreation & Sports,Tennis and/or pickleball courts ,Both,Private,821,21st Street,,West Vancouver,BC,V7V 4T3,,,,,49.3321302,-123.1682484
"8279 Saba Rd Suite 140, Richmond, BC V6Y 4B6",,,Lang Centre,https://www.richmond.ca/parksrec/centres/city/cityctr.htm#Lang+Centre,Leisure / Community Centres,General,Indoor,Public,8279,Saba Road,140,Richmond,BC,V6Y 4B6,,,,,49.1690744,-123.1327236
"851 W Queens Rd, North Vancouver, BC V7N 4E3",,,Delbrook Community Recreation Centre,https://www.nvrc.ca/facilities-fields/locations-hours/community-recreation-centres/delbrook-community-recreation-centre,Leisure / Community Centres,General,Indoor,Public,851,W Queens Road,,North Vancouver,BC,V7N 4E3,,,"community centre with 2 pools, fitness, gym, racquet courts",,49.3361121,-123.0918966
"851 W Queens Rd, North Vancouver, BC V7N 4E3",,,Delbrook Community Recreation Centre,https://www.nvrc.ca/facilities-fields/locations-hours/community-recreation-centres/delbrook-community-recreation-centre,Aquatics,25m pool with or without other pools,Indoor,Public,851,W Queens Road,,North Vancouver,BC,V7N 4E3,,,"community centre with 2 pools, fitness, gym, racquet courts",,49.3361121,-123.0918966
"851 W Queens Rd, North Vancouver, BC V7N 4E3",,,Delbrook Community Recreation Centre,https://www.nvrc.ca/facilities-fields/locations-hours/community-recreation-centres/delbrook-community-recreation-centre,Aquatics,Leisure / wading pools,Indoor,Public,,,,,,,,,,,49.3361121,-123.0918966
"851 W Queens Rd, North Vancouver, BC V7N 4E3",,,Delbrook Community Recreation Centre,https://www.nvrc.ca/facilities-fields/locations-hours/community-recreation-centres/delbrook-community-recreation-centre,Physical Recreation & Sports,Fitness centres / areas ,Indoor,Public,851,W Queens Road,,North Vancouver,BC,V7N 4E3,,,"community centre with 2 pools, fitness, gym, racquet courts",,49.3361121,-123.0918966
"851 W Queens Rd, North Vancouver, BC V7N 4E3",,,Delbrook Community Recreation Centre,https://www.nvrc.ca/facilities-fields/locations-hours/community-recreation-centres/delbrook-community-recreation-centre,Physical Recreation & Sports,Gymnasiums ,Indoor,Public,851,W Queens Road,,North Vancouver,BC,V7N 4E3,,,"community centre with 2 pools, fitness, gym, racquet courts",,49.3361121,-123.0918966
"851 W Queens Rd, North Vancouver, BC V7N 4E3",,,Delbrook Community Recreation Centre,https://www.nvrc.ca/facilities-fields/locations-hours/community-recreation-centres/delbrook-community-recreation-centre,Physical Recreation & Sports,"Racquet courts (squash, racquetball, badminton)",Indoor,Public,851,W Queens Road,,North Vancouver,BC,V7N 4E3,,,"community centre with 2 pools, fitness, gym, racquet courts",,49.3361121,-123.0918966
"8580 No 5 Rd, Richmond, BC V6Y 2V4",,,Shia Muslim Community Centre,http://www.az-zahraa.org/,Leisure / Community Centres,General,Indoor,Public,8580,No 5 Road,,Richmond,BC,V6Y 2V4,,,,,49.1508917,-123.0905354
"8585 Hudson St, Vancouver, BC  V6P 4M3",,,Marpole Neighbourhood House,http://www.marpolenh.org/,Leisure / Community Centres,General,Indoor,Public,,,,,,,,,,,49.2085343,-123.1343769
"870 Denman St, Vancouver, BC V6G 2L8",,,West End Community Centre,https://westendcc.ca/?utm_source=google&utm_medium=organic&utm_term=snippet&utm_campaign=search,Leisure / Community Centres,General,Indoor,Public,870,Denman Street,,Vancouver,BC,V6G 2L8,,,"ice rink, children, youth and adult programds, fitness",,49.2904892,-123.1365722
"870 Denman St, Vancouver, BC V6G 2L8",,,West End Community Centre,https://westendcc.ca/?utm_source=google&utm_medium=organic&utm_term=snippet&utm_campaign=search,Physical Recreation & Sports,Fitness centres / areas ,Indoor,Public,870,Denman Street,,Vancouver,BC,V6G 2L8,,,"ice rink, children, youth and adult programds, fitness",,49.2904892,-123.1365722
"870 Denman St, Vancouver, BC V6G 2L8",,,West End Community Centre,https://westendcc.ca/?utm_source=google&utm_medium=organic&utm_term=snippet&utm_campaign=search,Ice,Single surface,Indoor,Public,870,Denman Street,,Vancouver,BC,V6G 2L8,,,"ice rink, children, youth and adult programds, fitness",,49.2904892,-123.1365722
"870 Denman St, Vancouver, BC V6G 2L8",,,West End Community Centre,https://westendcc.ca/?utm_source=google&utm_medium=organic&utm_term=snippet&utm_campaign=search,Physical Recreation & Sports,"Racquet courts (squash, racquetball, badminton)",Indoor,Public,870,Denman Street,,Vancouver,BC,V6G 2L8,,,,,49.2904892,-123.1365722
"8730 Heather St, Vancouver, BC V6P 3S8",,,Marpole Curling Club,http://marpolecurling.ca/,Ice,Curling,Indoor,Public,8730,Heather Street,,Vancouver,BC,V6P 3S8,,,,,49.2063859,-123.123228
"8870 120 St, Surrey, BC V3V 4B4",,,Kennedy Community Hall,https://www.surrey.ca/culture-recreation/3335.aspx,Leisure / Community Centres,General,Indoor,Public,,,,,,,,,,,49.1644079,-122.8900263
"8880 Williams Rd, Richmond, BC V7A 1G6",,,South Arm Community Centre,https://www.richmond.ca/parksrec/centres/southarmcentre/southarm.htm,Leisure / Community Centres,General,Both,Public,8880,Williams Road,,Richmond,BC,V7A 1G6,,,"fitness, gym, seniors centre, sports fields, tennis, playground",,49.1403126,-123.1277383
"8880 Williams Rd, Richmond, BC V7A 1G6",,,South Arm Community Centre,https://www.richmond.ca/parksrec/centres/southarmcentre/southarm.htm,Physical Recreation & Sports,Fitness centres / areas ,Indoor,Public,8880,Williams Road,,Richmond,BC,V7A 1G6,,,"fitness, gym, seniors centre, sports fields, tennis, playground",,49.1403126,-123.1277383
"8880 Williams Rd, Richmond, BC V7A 1G6",,,South Arm Community Centre,https://www.richmond.ca/parksrec/centres/southarmcentre/southarm.htm,Physical Recreation & Sports,Gymnasiums ,Indoor,Public,8880,Williams Road,,Richmond,BC,V7A 1G6,,,"fitness, gym, seniors centre, sports fields, tennis, playground",,49.1403126,-123.1277383
"8889 Walnut Grove Dr, Langley Twp, BC V1M 2N7",,,Walnut Grove Community Centre,https://www.tol.ca/recreation-culture/facilities/walnut-grove-community-centre/,Aquatics,50m+ pool with or without other pools,Indoor,Public,,,,,,,,,"pool, gym, fitness",,49.16366,-122.6414125
"8889 Walnut Grove Dr, Langley Twp, BC V1M 2N7",,,Walnut Grove Community Centre,https://www.tol.ca/recreation-culture/facilities/walnut-grove-community-centre/,Physical Recreation & Sports,Gymnasiums ,Indoor,Public,,,,,,,,,"pool, gym, fitness",,49.16366,-122.6414125
"8889 Walnut Grove Dr, Langley Twp, BC V1M 2N7",,,Walnut Grove Community Centre,https://www.tol.ca/recreation-culture/facilities/walnut-grove-community-centre/,Physical Recreation & Sports,Fitness centres / areas ,Indoor,Public,,,,,,,,,"pool, gym, fitness",,49.16366,-122.6414125
"8889 Walnut Grove Dr, Langley Twp, BC V1M 2N7",,,Walnut Grove Community Centre,https://www.tol.ca/recreation-culture/facilities/walnut-grove-community-centre/,Aquatics,Leisure / wading pools,Indoor,Public,,,,,,,,,"pool, gym, fitness",,49.16366,-122.6414125
"9180 No 1 Rd, Richmond, BC V7E 6L5",,,West Richmond Community Centre,https://www.richmond.ca/parksrec/centres/westrich/wrichmond.htm,Leisure / Community Centres,General,Indoor,Public,,,,,,,,,"community centre, gym, fitness, squash, badminton",,49.1462523,-123.1783566
"9180 No 1 Rd, Richmond, BC V7E 6L5",,,West Richmond Community Centre,https://www.richmond.ca/parksrec/centres/westrich/wrichmond.htm,Physical Recreation & Sports,Gymnasiums ,Indoor,Public,,,,,,,,,"community centre, gym, fitness, squash, badminton",,49.1462523,-123.1783566
"9180 No 1 Rd, Richmond, BC V7E 6L5",,,West Richmond Community Centre,https://www.richmond.ca/parksrec/centres/westrich/wrichmond.htm,Physical Recreation & Sports,Fitness centres / areas ,Indoor,Public,,,,,,,,,"community centre, gym, fitness, squash, badminton",,49.1462523,-123.1783566
"9180 No 1 Rd, Richmond, BC V7E 6L5",,,West Richmond Community Centre,https://www.richmond.ca/parksrec/centres/westrich/wrichmond.htm,Physical Recreation & Sports,"Racquet courts (squash, racquetball, badminton)",Indoor,Public,,,,,,,,,"community centre, gym, fitness, squash, badminton",,49.1462523,-123.1783566
"920 E Hastings St, Vancouver, BC V6A 3T1",,,Ray-Cam Co-Operative Center,http://raycam.org/,Leisure / Community Centres,General,Indoor,Public,920,E Hastings Street,,Vancouver,BC,V6A 3T1,,,"community centre for children, youth, adults and seniors, gym, fitness",,49.281381,-123.083589
"920 E Hastings St, Vancouver, BC V6A 3T1",,,Ray-Cam Co-Operative Center,http://raycam.org/,Physical Recreation & Sports,Gymnasiums ,Indoor,Public,920,E Hastings Street,,Vancouver,BC,V6A 3T1,,,"community centre for children, youth, adults and seniors, gym, fitness",,49.281381,-123.083589
"920 E Hastings St, Vancouver, BC V6A 3T1",,,Ray-Cam Co-Operative Center,http://raycam.org/,Physical Recreation & Sports,Fitness centres / areas ,Indoor,Public,920,E Hastings Street,,Vancouver,BC,V6A 3T1,,,"community centre for children, youth, adults and seniors, gym, fitness",,49.281381,-123.083589
"920 Ewen Ave, New Westminster, BC V3M 5C8",,,Queensborough Community Centre,https://www.newwestcity.ca/parks-and-recreation/facilities/queensborough-community-centre,Leisure / Community Centres,General,Indoor,Public,920,Ewen Avenue,,New Westminster,BC,V3M 5C8,,,community centre with fitness,,49.185932,-122.9435259
"920 Ewen Ave, New Westminster, BC V3M 5C8",,,Queensborough Community Centre,https://www.newwestcity.ca/parks-and-recreation/facilities/queensborough-community-centre,Physical Recreation & Sports,Fitness centres / areas ,Indoor,Public,920,Ewen Avenue,,New Westminster,BC,V3M 5C8,,,community centre with fitness,,49.185932,-122.9435259
"931 Lytton St, North Vancouver, BC V7H 2M5",,,Ron Andrews Community Recreation Centre,https://www.nvrc.ca/facilities-fields/locations-hours/community-recreation-centres/ron-andrews-community-recreation,Aquatics,25m pool with or without other pools,Indoor,Public,931,Lytton Street,,North Vancouver,BC,V7H 2M5,,,"pool, racquet courts, fitness",,49.3139524,-123.000767
"931 Lytton St, North Vancouver, BC V7H 2M5",,,Ron Andrews Community Recreation Centre,https://www.nvrc.ca/facilities-fields/locations-hours/community-recreation-centres/ron-andrews-community-recreation,Physical Recreation & Sports,"Racquet courts (squash, racquetball, badminton)",Indoor,Public,931,Lytton Street,,North Vancouver,BC,V7H 2M5,,,"pool, racquet courts, fitness",,49.3139524,-123.000767
"931 Lytton St, North Vancouver, BC V7H 2M5",,,Ron Andrews Community Recreation Centre,https://www.nvrc.ca/facilities-fields/locations-hours/community-recreation-centres/ron-andrews-community-recreation,Physical Recreation & Sports,Fitness centres / areas ,Indoor,Public,931,Lytton Street,,North Vancouver,BC,V7H 2M5,,,"pool, racquet courts, fitness",,49.3139524,-123.000767
"940 Lynn Valley Rd, North Vancouver, BC V7J 1Z7",,,LVSS at Mollie NYE House,http://mollienyehouse.com/,Leisure / Community Centres,General,Indoor,Public,940,Lynn Valley Road,,North Vancouver,BC,V7J 1Z7,,,,,49.332007,-123.0482245
"950 Cross Creek Road, West Vancouver, BC V7S 2S5",,,Hollyburn Country Club,http://aclubforlife.com/,Ice,2+ surfaces,Indoor,Private,950,Cross Creek Road,,West Vancouver,BC,V7S 2S5,,,"ice rinks, tennis, squash, swimming pools, fitness, badminton",,49.3453526,-123.1466464
"950 Cross Creek Road, West Vancouver, BC V7S 2S5",,,Hollyburn Country Club,http://aclubforlife.com/,Aquatics,25m pool with or without other pools,Indoor,Private,950,Cross Creek Road,,West Vancouver,BC,V7S 2S5,,,"ice rinks, tennis, squash, swimming pools, fitness, badminton",,49.3453526,-123.1466464
"950 Cross Creek Road, West Vancouver, BC V7S 2S5",,,Hollyburn Country Club,http://aclubforlife.com/,Physical Recreation & Sports,Tennis and/or pickleball courts ,Indoor,Private,950,Cross Creek Road,,West Vancouver,BC,V7S 2S5,,,"ice rinks, tennis, squash, swimming pools, fitness, badminton",,49.3453526,-123.1466464
"950 Cross Creek Road, West Vancouver, BC V7S 2S5",,,Hollyburn Country Club,http://aclubforlife.com/,Physical Recreation & Sports,"Racquet courts (squash, racquetball, badminton)",Indoor,Private,950,Cross Creek Road,,West Vancouver,BC,V7S 2S5,,,"ice rinks, tennis, squash, swimming pools, fitness, badminton",,49.3453526,-123.1466464
"950 Cross Creek Road, West Vancouver, BC V7S 2S5",,,Hollyburn Country Club,http://aclubforlife.com/,Physical Recreation & Sports,Fitness centres / areas ,Indoor,Private,950,Cross Creek Road,,West Vancouver,BC,V7S 2S5,,,"ice rinks, tennis, squash, swimming pools, fitness, badminton",,49.3453526,-123.1466464
"950 W 41st Ave, Vancouver, BC V5Z 2N7",,,Aquatics at the JCCGV,https://www.jccgv.com/aquatics/,Aquatics,25m pool with or without other pools,Indoor,Public,950,W 41st Avenue,,Vancouver,BC,V5Z 2N7,,,"community centre, pool, fitness, gym",,49.2334428,-123.1267225
"950 W 41st Ave, Vancouver, BC V5Z 2N7",,,Jewish Community Centre of Greater Vancouver,https://www.jccgv.com/,Leisure / Community Centres,General,Indoor,Public,950,W 41st Avenue,,Vancouver,BC,V5Z 2N7,,,"community centre, pool, fitness, gym",,49.2334428,-123.1267225
"950 W 41st Ave, Vancouver, BC V5Z 2N7",,,Jewish Community Centre of Greater Vancouver,https://www.jccgv.com/,Physical Recreation & Sports,Fitness centres / areas ,Indoor,Public,950,W 41st Avenue,,Vancouver,BC,V5Z 2N7,,,"community centre, pool, fitness, gym",,49.2334428,-123.1267225
"950 W 41st Ave, Vancouver, BC V5Z 2N7",,,Jewish Community Centre of Greater Vancouver,https://www.jccgv.com/,Physical Recreation & Sports,Gymnasiums ,Indoor,Public,950,W 41st Avenue,,Vancouver,BC,V5Z 2N7,,,"community centre, pool, fitness, gym",,49.2334428,-123.1267225
"9523 Cameron St, Burnaby, BC V3J 1L6",,,Cameron Recreation Complex,https://www.burnaby.ca/Things-To-Do/Community-Centres/Cameron-Recreation-Complex.html,Physical Recreation & Sports,Fitness centres / areas ,Indoor,Public,9523,Cameron Street,,Burnaby ,BC,V3J 1L6,,,"fitness, racquetball, tennis",,49.2539817,-122.8993093
"9523 Cameron St, Burnaby, BC V3J 1L6",,,Cameron Recreation Complex,https://www.burnaby.ca/Things-To-Do/Community-Centres/Cameron-Recreation-Complex.html,Physical Recreation & Sports,"Racquet courts (squash, racquetball, badminton)",Indoor,Public,9523,Cameron Street,,Burnaby ,BC,V3J 1L6,,,"fitness, racquetball, tennis",,49.2539817,-122.8993093
"9523 Cameron St, Burnaby, BC V3J 1L6",,,Cameron Recreation Complex,https://www.burnaby.ca/Things-To-Do/Community-Centres/Cameron-Recreation-Complex.html,Physical Recreation & Sports,Tennis and/or pickleball courts ,Indoor,Public,9523,Cameron Street,,Burnaby ,BC,V3J 1L6,,,"fitness, racquetball, tennis",,49.2539817,-122.8993093
"955 Burrard St, Vancouver, BC V6Z 1Y2",,,Robert Lee YMCA,https://gv.ymca.ca/Locations/Area-One/Downtown/Robert-Lee-YMCA,Aquatics,25m pool with or without other pools,Indoor,Public,955,Burrard Street,,Vancouver,BC,V6Z 1Y2,,,"pool, fitness, racquet courts, gym",,49.2818276,-123.125498
"955 Burrard St, Vancouver, BC V6Z 1Y2",,,Robert Lee YMCA,https://gv.ymca.ca/Locations/Area-One/Downtown/Robert-Lee-YMCA,Physical Recreation & Sports,Fitness centres / areas ,Indoor,Public,955,Burrard Street,,Vancouver,BC,V6Z 1Y2,,,"pool, fitness, racquet courts, gym",,49.2818276,-123.125498
"955 Burrard St, Vancouver, BC V6Z 1Y2",,,Robert Lee YMCA,https://gv.ymca.ca/Locations/Area-One/Downtown/Robert-Lee-YMCA,Physical Recreation & Sports,"Racquet courts (squash, racquetball, badminton)",Indoor,Public,955,Burrard Street,,Vancouver,BC,V6Z 1Y2,,,"pool, fitness, racquet courts, gym",,49.2818276,-123.125498
"955 Burrard St, Vancouver, BC V6Z 1Y2",,,Robert Lee YMCA,https://gv.ymca.ca/Locations/Area-One/Downtown/Robert-Lee-YMCA,Physical Recreation & Sports,Gymnasiums ,Indoor,Public,955,Burrard Street,,Vancouver,BC,V6Z 1Y2,,,"pool, fitness, racquet courts, gym",,49.2818276,-123.125498
"990 W 59th Ave, Vancouver, BC V6P 1X9",,,Marpole-Oakridge Community Centre,https://vancouver.ca/parks-recreation-culture/marpole-oakridge-community-centre.aspx,Leisure / Community Centres,General,Both,Public,990,W 59th Avenue,,Vancouver,BC,V6P 1X9,,,"community centre with pre-school, youth centre, gym, racquetball, fitness, tennis, water park, playground",,49.2167952,-123.1288661
"990 W 59th Ave, Vancouver, BC V6P 1X9",,,Marpole-Oakridge Community Centre,https://vancouver.ca/parks-recreation-culture/marpole-oakridge-community-centre.aspx,Physical Recreation & Sports,Gymnasiums ,Indoor,Public,990,W 59th Avenue,,Vancouver,BC,V6P 1X9,,,"community centre with pre-school, youth centre, gym, racquetball, fitness, tennis, water park, playground",,49.2167952,-123.1288661
"990 W 59th Ave, Vancouver, BC V6P 1X9",,,Marpole-Oakridge Community Centre,https://vancouver.ca/parks-recreation-culture/marpole-oakridge-community-centre.aspx,Physical Recreation & Sports,"Racquet courts (squash, racquetball, badminton)",Indoor,Public,990,W 59th Avenue,,Vancouver,BC,V6P 1X9,,,"community centre with pre-school, youth centre, gym, racquetball, fitness, tennis, water park, playground",,49.2167952,-123.1288661
"990 W 59th Ave, Vancouver, BC V6P 1X9",,,Marpole-Oakridge Community Centre,https://vancouver.ca/parks-recreation-culture/marpole-oakridge-community-centre.aspx,Physical Recreation & Sports,Fitness centres / areas ,Indoor,Public,990,W 59th Avenue,,Vancouver,BC,V6P 1X9,,,"community centre with pre-school, youth centre, gym, racquetball, fitness, tennis, water park, playground",,49.2167952,-123.1288661
,,,Cameron Recreation Complex,https://www.burnaby.ca/Things-To-Do/Community-Centres/Cameron-Recreation-Complex.html,Physical Recreation & Sports,Gymnasiums ,Indoor,Public,,,,,,,,,,,,
,,Capilano 5,,,,,,,,,,,,,,,,,,
,,Anmore,,,,,,,,,,,,,,,,,,
,,Burrard Inlet 3,,,,,,,,,,,,,,,,,,
,,Musqueam 2,,,,,,,,,,,,,,,,,,
,,Lions Bay,,,,,,,,,,,,,,,,,,
,,Tsawwassen,,,,,,,,,,,,,,,,,,
,,Belcarra,,,,,,,,,,,,,,,,,,
,,Mission 1,,,,,,,,,,,,,,,,,,
,,Matsqui 4,,,,,,,,,,,,,,,,,,
,,Katzie 1,,,,,,,,,,,,,,,,,,
,,Seymour Creek 2,,,,,,,,,,,,,,,,,,
,,Semiahmoo,,,,,,,,,,,,,,,,,,
,,McMillan Island 6,,,,,,,,,,,,,,,,,,
,,Coquitlam 1,,,,,,,,,,,,,,,,,,
,,Barnston Island 3,,,,,,,,,,,,,,,,,,
,,Katzie 2,,,,,,,,,,,,,,,,,,
,,Musqueam 4,,,,,,,,,,,,,,,,,,
,,Coquitlam 2,,,,,,,,,,,,,,,,,,
,,Langley 5,,,,,,,,,,,,,,,,,,
,,Whonnock 1,,,,,,,,,,,,,,,,,,
