CMANAME,CSDNAME,Facility name,URL,Full address,Facility Type,Facility Sub-Type,Exposure,Ownership Type,Civic #,Street name,Unit/block,City name,Province,Postal Code,Longitude (X),Latitude (Y),Facility Comments/Notes,Address Comments/Notes
Vancouver,Vancouver,Douglas Park Community Centre,https://vancouver.ca/parks-recreation-culture/douglas-park-community-centre.aspx,"801 W 22nd Ave, Vancouver, BC V5Z 1Z8",Leisure / Community Centres,General,Both,Public,801,W 22nd Avenue,,Vancouver,BC,V5Z 1Z8,,,"community centre, fitness, tennis, sports fields, wading pool, playgrounds",
,,Douglas Park Community Centre,https://vancouver.ca/parks-recreation-culture/douglas-park-community-centre.aspx,"801 W 22nd Ave, Vancouver, BC V5Z 1Z8",Aquatics,Leisure / wading pools,Both,Public,801,W 22nd Avenue,,Vancouver,BC,V5Z 1Z8,,,"community centre, fitness, tennis, sports fields, wading pool, playgrounds",
,,Douglas Park Community Centre,https://vancouver.ca/parks-recreation-culture/douglas-park-community-centre.aspx,"801 W 22nd Ave, Vancouver, BC V5Z 1Z8",Physical Recreation & Sports,Fitness centres / areas ,Indoor,Public,801,W 22nd Avenue,,Vancouver,BC,V5Z 1Z8,,,"community centre, fitness, tennis, sports fields, wading pool, playgrounds",
,,Kensington Community Centre,https://vancouver.ca/parks-recreation-culture/kensington-community-centre.aspx,"5175 Dumfries St, Vancouver, BC V5P 3A2",Leisure / Community Centres,Seniors,Indoor,Public,5175,Dumfries Street,,Vancouver,BC,V5P 3A2,,,"pool, fitness, senior's centre, skate park",
,,Kensington Community Centre,https://vancouver.ca/parks-recreation-culture/kensington-community-centre.aspx,"5175 Dumfries St, Vancouver, BC V5P 3A2",Aquatics,25m pool with or without other pools,Indoor,Public,5175,Dumfries Street,,Vancouver,BC,V5P 3A2,,,"pool, fitness, senior's centre, skate park",
,,Kensington Community Centre,https://vancouver.ca/parks-recreation-culture/kensington-community-centre.aspx,"5175 Dumfries St, Vancouver, BC V5P 3A2",Physical Recreation & Sports,Fitness centres / areas ,Indoor,Public,5175,Dumfries Street,,Vancouver,BC,V5P 3A2,,,"pool, fitness, senior's centre, skate park",
,,Kitsilano War Memorial Community Centre,https://vancouver.ca/parks-recreation-culture/kitsilano-war-memorial-community-centre.aspx,"2690 Larch St, Vancouver, BC V6K 4K9",Leisure / Community Centres,General,Indoor,Public,2690,Larch Street,,Vancouver,BC,V6K 4K9,,,"community centre, fitness centre, ice rink, spray park",
,,Kitsilano War Memorial Community Centre,https://vancouver.ca/parks-recreation-culture/kitsilano-war-memorial-community-centre.aspx,"2690 Larch St, Vancouver, BC V6K 4K9",Physical Recreation & Sports,Fitness centres / areas ,Indoor,Public,2690,Larch Street,,Vancouver,BC,V6K 4K9,,,"community centre, fitness centre, ice rink, spray park",
,,Kitsilano War Memorial Community Centre,https://vancouver.ca/parks-recreation-culture/kitsilano-war-memorial-community-centre.aspx,"2690 Larch St, Vancouver, BC V6K 4K9",Ice,Single surface,Indoor,Public,2690,Larch Street,,Vancouver,BC,V6K 4K9,,,"community centre, fitness centre, ice rink, spray park",
,,Evelyne Saller Centre,https://vancouver.ca/parks-recreation-culture/evelyne-saller-centre.aspx,"320 Alexander St, Vancouver, BC V6A 1C3",Leisure / Community Centres,General,Indoor,Public,320,Alexander Street,,Vancouver,BC,V6A 1C3,,,community centre for at risk adults,
,,Mount Pleasant Community Centre,https://vancouver.ca/parks-recreation-culture/mount-pleasant-community-centre.aspx,"1 Kingsway, Vancouver, BC V5T 3H7",Leisure / Community Centres,General,Indoor,Public,1,Kingsway ,,Vancouver,BC,V5T 3H7,,,community centre and fitness,
,,Mount Pleasant Community Centre,https://vancouver.ca/parks-recreation-culture/mount-pleasant-community-centre.aspx,"1 Kingsway, Vancouver, BC V5T 3H7",Physical Recreation & Sports,Fitness centres / areas ,Indoor,Public,1,Kingsway ,,Vancouver,BC,V5T 3H7,,,community centre and fitness,
,,Renfrew Park Community Centre,https://vancouver.ca/parks-recreation-culture/renfrew-park-community-centre.aspx,"2929 E 22nd Ave, Vancouver, BC V5M 2Y3",Leisure / Community Centres,General,Indoor,Public,2929,E 22nd Avenue,,Vancouver,BC,V5M 2Y3,,,"community centre, indoor pool, wading pool, sports fields, playground, fitness",
,,Renfrew Park Community Centre,https://vancouver.ca/parks-recreation-culture/renfrew-park-community-centre.aspx,"2929 E 22nd Ave, Vancouver, BC V5M 2Y3",Physical Recreation & Sports,Fitness centres / areas ,Indoor,Public,2929,E 22nd Avenue,,Vancouver,BC,V5M 2Y3,,,"community centre, indoor pool, wading pool, sports fields, playground, fitness",
,,Renfrew Park Community Centre,https://vancouver.ca/parks-recreation-culture/renfrew-park-community-centre.aspx,"2929 E 22nd Ave, Vancouver, BC V5M 2Y3",Aquatics,25m pool with or without other pools,Indoor,Public,2929,E 22nd Avenue,,Vancouver,BC,V5M 2Y3,,,"community centre, indoor pool, wading pool, sports fields, playground, fitness",
,,Strathcona Community Centre,https://vancouver.ca/parks-recreation-culture/strathcona-community-centre.aspx,"601 Keefer St, Vancouver, BC V6A 3V8",Leisure / Community Centres,General,Indoor,Public,601,Keefer Street,,Vancouver,BC,V6A 3V8,,,"community centre for all ages, fitness, outdoor playground",
,,Strathcona Community Centre,https://vancouver.ca/parks-recreation-culture/strathcona-community-centre.aspx,"601 Keefer St, Vancouver, BC V6A 3V8",Physical Recreation & Sports,Fitness centres / areas ,Indoor,Public,601,Keefer Street,,Vancouver,BC,V6A 3V8,,,"community centre for all ages, fitness, outdoor playground",
,,West End Community Centre,https://westendcc.ca/?utm_source=google&utm_medium=organic&utm_term=snippet&utm_campaign=search,"870 Denman St, Vancouver, BC V6G 2L8",Leisure / Community Centres,General,Indoor,Public,870,Denman Street,,Vancouver,BC,V6G 2L8,,,"ice rink, children, youth and adult programds, fitness",
,,West End Community Centre,https://westendcc.ca/?utm_source=google&utm_medium=organic&utm_term=snippet&utm_campaign=search,"870 Denman St, Vancouver, BC V6G 2L8",Physical Recreation & Sports,Fitness centres / areas ,Indoor,Public,870,Denman Street,,Vancouver,BC,V6G 2L8,,,"ice rink, children, youth and adult programds, fitness",
,,West End Community Centre,https://westendcc.ca/?utm_source=google&utm_medium=organic&utm_term=snippet&utm_campaign=search,"870 Denman St, Vancouver, BC V6G 2L8",Ice,Single surface,Indoor,Public,870,Denman Street,,Vancouver,BC,V6G 2L8,,,"ice rink, children, youth and adult programds, fitness",
,,West End Community Centre,https://westendcc.ca/?utm_source=google&utm_medium=organic&utm_term=snippet&utm_campaign=search,"870 Denman St, Vancouver, BC V6G 2L8",Physical Recreation & Sports,"Racquet courts (squash, racquetball, badminton)",Indoor,Public,870,Denman Street,,Vancouver,BC,V6G 2L8,,,,
,,West Point Grey Community Centre,http://westpointgrey.org/program-facility/,"4397 W 2nd Ave, Vancouver, BC V6R 1K4",Leisure / Community Centres,General,Indoor,Public,4397,W 2nd Avenue,,Vancouver,BC,V6R 1K4,,,"community centre with programs for children, youth, adults and seniors, gym, fitness",
,,West Point Grey Community Centre,http://westpointgrey.org/program-facility/,"4397 W 2nd Ave, Vancouver, BC V6R 1K4",Physical Recreation & Sports,Gymnasiums ,Indoor,Public,4397,W 2nd Avenue,,Vancouver,BC,V6R 1K4,,,"community centre with programs for children, youth, adults and seniors, gym, fitness",
,,West Point Grey Community Centre,http://westpointgrey.org/program-facility/,"4397 W 2nd Ave, Vancouver, BC V6R 1K4",Physical Recreation & Sports,Fitness centres / areas ,Indoor,Public,4397,W 2nd Avenue,,Vancouver,BC,V6R 1K4,,,"community centre with programs for children, youth, adults and seniors, gym, fitness",
,,Lord Byng Pool,https://vancouver.ca/parks-recreation-culture/lord-byng-pool.aspx,"3990 W 14th Ave, Vancouver, BC V6R 4H2",Aquatics,25m pool with or without other pools,Indoor,Public,3990,W 14th Avenue,,Vancouver,BC,V6R 4H2,,,wheelchair-accessible indoor pool,
,,False Creek Community Centre,https://falsecreekcc.ca/,"1318 Cartwright St, Vancouver, BC V6H 3R8",Leisure / Community Centres,General,Both,Public,1318,Cartwright Street,,Vancouver,BC,V6H 3R8,,,"community centre with programs for children, youth, adults and seniors, fitness, tennis, sports, water park",
,,False Creek Community Centre,https://falsecreekcc.ca/,"1318 Cartwright St, Vancouver, BC V6H 3R8",Physical Recreation & Sports,Fitness centres / areas ,Indoor,Public,1318,Cartwright Street,,Vancouver,BC,V6H 3R8,,,"community centre with programs for children, youth, adults and seniors, fitness, tennis, sports, water park",
,,Roundhouse Community Arts & Recreation Centre,http://roundhouse.ca/,"181 Roundhouse Mews, Vancouver, BC V6Z 2W3",Leisure / Community Centres,General,Both,Public,181,Roundhouse Mews,,Vancouver,BC,V6Z 2W3,,,"community centre with programs for children, youth, adults and 'older adults', fitness",
,,Roundhouse Community Arts & Recreation Centre,http://roundhouse.ca/,"181 Roundhouse Mews, Vancouver, BC V6Z 2W3",Physical Recreation & Sports,Fitness centres / areas ,Both,Public,181,Roundhouse Mews,,Vancouver,BC,V6Z 2W3,,,"community centre with programs for children, youth, adults and 'older adults', fitness",
,,Coal Harbour Community Centre,https://westendcc.ca/coal-harbour/,"480 Broughton St, Vancouver, BC V6G 3H4",Leisure / Community Centres,General,Both,Public,480,Broughton Street,,Vancouver,BC,V6G 3H4,,,"community centre with programs for children and adults, badminton/pickleball, indoor soccer , fitness",
,,Coal Harbour Community Centre,https://westendcc.ca/coal-harbour/,"480 Broughton St, Vancouver, BC V6G 3H4",Physical Recreation & Sports,Sport fields,Indoor,Public,480,Broughton Street,,Vancouver,BC,V6G 3H4,,,"community centre with programs for children and adults, badminton/pickleball, indoor soccer , fitness",
,,Coal Harbour Community Centre,https://westendcc.ca/coal-harbour/,"480 Broughton St, Vancouver, BC V6G 3H4",Physical Recreation & Sports,Fitness centres / areas ,Indoor,Public,480,Broughton Street,,Vancouver,BC,V6G 3H4,,,"community centre with programs for children and adults, badminton/pickleball, indoor soccer , fitness",
,,Dunbar Community Centre,https://vancouver.ca/parks-recreation-culture/dunbar-community-centre.aspx,"4747 Dunbar St, Vancouver, BC V6S 2H2",Leisure / Community Centres,General,Both,Public,4747,Dunbar Street,,Vancouver,BC,V6S 2H2,,,"community centre, badminton/squash, sports, fitness, playground, tennis",
,,Dunbar Community Centre,https://vancouver.ca/parks-recreation-culture/dunbar-community-centre.aspx,"4747 Dunbar St, Vancouver, BC V6S 2H2",Physical Recreation & Sports,"Racquet courts (squash, racquetball, badminton)",Indoor,Public,4747,Dunbar Street,,Vancouver,BC,V6S 2H2,,,"community centre, badminton/squash, sports, fitness, playground, tennis",
,,Dunbar Community Centre,https://vancouver.ca/parks-recreation-culture/dunbar-community-centre.aspx,"4747 Dunbar St, Vancouver, BC V6S 2H2",Physical Recreation & Sports,Fitness centres / areas ,Indoor,Public,4747,Dunbar Street,,Vancouver,BC,V6S 2H2,,,"community centre, badminton/squash, sports, fitness, playground, tennis",
,,Hastings Community Centre,https://vancouver.ca/parks-recreation-culture/hastings-community-centre.aspx,"3096 E Hastings St, Vancouver, BC V5K 2A3",Leisure / Community Centres,General,Both,Public,3096,E Hastings Street,,Vancouver,BC,V5K 2A3,,,"community centre, gym, fitness, racquetball, tennis, playground, water park",
,,Hastings Community Centre,https://vancouver.ca/parks-recreation-culture/hastings-community-centre.aspx,"3096 E Hastings St, Vancouver, BC V5K 2A3",Physical Recreation & Sports,Gymnasiums ,Indoor,Public,3096,E Hastings Street,,Vancouver,BC,V5K 2A3,,,"community centre, gym, fitness, racquetball, tennis, playground, water park",
,,Hastings Community Centre,https://vancouver.ca/parks-recreation-culture/hastings-community-centre.aspx,"3096 E Hastings St, Vancouver, BC V5K 2A3",Physical Recreation & Sports,Fitness centres / areas ,Indoor,Public,3096,E Hastings Street,,Vancouver,BC,V5K 2A3,,,"community centre, gym, fitness, racquetball, tennis, playground, water park",
,,Hastings Community Centre,https://vancouver.ca/parks-recreation-culture/hastings-community-centre.aspx,"3096 E Hastings St, Vancouver, BC V5K 2A3",Physical Recreation & Sports,"Racquet courts (squash, racquetball, badminton)",Indoor,Public,3096,E Hastings Street,,Vancouver,BC,V5K 2A3,,,"community centre, gym, fitness, racquetball, tennis, playground, water park",
,,Gathering Place Community Centre,https://vancouver.ca/parks-recreation-culture/gathering-place-community-centre.aspx#redirect,"609 Helmcken St, Vancouver, BC V6B 5R1",Leisure / Community Centres,General,Indoor,Public,609,Helmcken Street,,Vancouver,BC,V6B 5R1,,,"community centre serving vulnerable populations, fitness",
,,Gathering Place Community Centre,https://vancouver.ca/parks-recreation-culture/gathering-place-community-centre.aspx#redirect,"609 Helmcken St, Vancouver, BC V6B 5R1",Physical Recreation & Sports,Fitness centres / areas ,Indoor,Public,609,Helmcken Street,,Vancouver,BC,V6B 5R1,,,"community centre serving vulnerable populations, fitness",
,,Thunderbird Community Centre,https://www.thunderbirdcc.ca/,"2311 Cassiar St, Vancouver, BC V5M 3X3",Leisure / Community Centres,General,Indoor,Public,2311,Cassiar Street,,Vancouver,BC,V5M 3X3,,,"community centre with programs for children, youth, adult and 'older adult', fitness, gym",
,,Thunderbird Community Centre,https://www.thunderbirdcc.ca/,"2311 Cassiar St, Vancouver, BC V5M 3X3",Physical Recreation & Sports,Gymnasiums ,Indoor,Public,2311,Cassiar Street,,Vancouver,BC,V5M 3X3,,,"community centre with programs for children, youth, adult and 'older adult', fitness, gym",
,,Thunderbird Community Centre,https://www.thunderbirdcc.ca/,"2311 Cassiar St, Vancouver, BC V5M 3X3",Physical Recreation & Sports,Fitness centres / areas ,Indoor,Public,2311,Cassiar Street,,Vancouver,BC,V5M 3X3,,,"community centre with programs for children, youth, adult and 'older adult', fitness, gym",
,,Kerrisdale Community Centre,https://vancouver.ca/parks-recreation-culture/kerrisdale-community-centre.aspx,"5851 West Blvd, Vancouver, BC V6M 3W9",Leisure / Community Centres,General,Both,Public,5851,West Boulevard,,Vancouver,BC,V6M 3W9,,,"community centre with youth and seniors centre, playground, gym, fitness, pool",
,,Kerrisdale Community Centre,https://vancouver.ca/parks-recreation-culture/kerrisdale-community-centre.aspx,"5851 West Blvd, Vancouver, BC V6M 3W9",Physical Recreation & Sports,Gymnasiums ,Indoor,Public,5851,West Boulevard,,Vancouver,BC,V6M 3W9,,,"community centre with youth and seniors centre, playground, gym, fitness, pool",
,,Kerrisdale Community Centre,https://vancouver.ca/parks-recreation-culture/kerrisdale-community-centre.aspx,"5851 West Blvd, Vancouver, BC V6M 3W9",Physical Recreation & Sports,Fitness centres / areas ,Indoor,Public,5851,West Boulevard,,Vancouver,BC,V6M 3W9,,,"community centre with youth and seniors centre, playground, gym, fitness, pool",
,,Kerrisdale Community Centre,https://vancouver.ca/parks-recreation-culture/kerrisdale-community-centre.aspx,"5851 West Blvd, Vancouver, BC V6M 3W9",Aquatics,25m pool with or without other pools,Indoor,Public,5851,West Boulevard,,Vancouver,BC,V6M 3W9,,,"community centre with youth and seniors centre, playground, gym, fitness, pool",
,,Killarney Community Centre,https://vancouver.ca/parks-recreation-culture/killarney-community-centre.aspx,"6260 Killarney St, Vancouver, BC V5S 2X7",Leisure / Community Centres,General,Both,Public,6260,Killarney Street,,Vancouver,BC,V5S 2X7,,,"community centre with programs for children and seniors, gym, fitness, pool, ice rink, tennis, playground",
,,Killarney Community Centre,https://vancouver.ca/parks-recreation-culture/killarney-community-centre.aspx,"6260 Killarney St, Vancouver, BC V5S 2X7",Physical Recreation & Sports,Gymnasiums ,Indoor,Public,6260,Killarney Street,,Vancouver,BC,V5S 2X7,,,"community centre with programs for children and seniors, gym, fitness, pool, ice rink, tennis, playground",
,,Killarney Community Centre,https://vancouver.ca/parks-recreation-culture/killarney-community-centre.aspx,"6260 Killarney St, Vancouver, BC V5S 2X7",Physical Recreation & Sports,Fitness centres / areas ,Indoor,Public,6260,Killarney Street,,Vancouver,BC,V5S 2X7,,,"community centre with programs for children and seniors, gym, fitness, pool, ice rink, tennis, playground",
,,Killarney Community Centre,https://vancouver.ca/parks-recreation-culture/killarney-community-centre.aspx,"6260 Killarney St, Vancouver, BC V5S 2X7",Aquatics,25m pool with or without other pools,Indoor,Public,6260,Killarney Street,,Vancouver,BC,V5S 2X7,,,"community centre with programs for children and seniors, gym, fitness, pool, ice rink, tennis, playground",
,,Killarney Community Centre,https://vancouver.ca/parks-recreation-culture/killarney-community-centre.aspx,"6260 Killarney St, Vancouver, BC V5S 2X7",Ice,Single surface,Indoor,Public,6260,Killarney Street,,Vancouver,BC,V5S 2X7,,,"community centre with programs for children and seniors, gym, fitness, pool, ice rink, tennis, playground",
,,Creekside Community Recreation Centre,https://vancouver.ca/parks-recreation-culture/creekside-community-recreation-centre.aspx,"1 Athletes Way, Vancouver, BC V5Y 0B1",Leisure / Community Centres,General,Indoor,Public,1,Athletes Way,,Vancouver,BC,V5Y 0B1,,,"community centre, fitness, gym",
,,Creekside Community Recreation Centre,https://vancouver.ca/parks-recreation-culture/creekside-community-recreation-centre.aspx,"1 Athletes Way, Vancouver, BC V5Y 0B1",Physical Recreation & Sports,Fitness centres / areas ,Indoor,Public,1,Athletes Way,,Vancouver,BC,V5Y 0B1,,,"community centre, fitness, gym",
,,Creekside Community Recreation Centre,https://vancouver.ca/parks-recreation-culture/creekside-community-recreation-centre.aspx,"1 Athletes Way, Vancouver, BC V5Y 0B1",Physical Recreation & Sports,Gymnasiums ,Indoor,Public,1,Athletes Way,,Vancouver,BC,V5Y 0B1,,,"community centre, fitness, gym",
,,Britannia Centre,https://www.britanniacentre.org/facilities.php,"1661 Napier St, Vancouver, BC V5L 4X4",Leisure / Community Centres,General,Both,Public,1661,Napier Street,,Vancouver,BC,V5L 4X4,,,"community centre with programs for children, youth, adults, 55+, pool, ice rink, fitness, gym, sports fields, tennis, running track",
,,Britannia Centre,https://www.britanniacentre.org/facilities.php,"1661 Napier St, Vancouver, BC V5L 4X4",Aquatics,25m pool with or without other pools,Indoor,Public,1661,Napier Street,,Vancouver,BC,V5L 4X4,,,"community centre with programs for children, youth, adults, 55+, pool, ice rink, fitness, gym, sports fields, tennis, running track",
,,Britannia Centre,https://www.britanniacentre.org/facilities.php,"1661 Napier St, Vancouver, BC V5L 4X4",Aquatics,Leisure / wading pools,Indoor,Public,1661,Napier Street,,Vancouver,BC,V5L 4X4,,,"community centre with programs for children, youth, adults, 55+, pool, ice rink, fitness, gym, sports fields, tennis, running track",
,,Britannia Centre,https://www.britanniacentre.org/facilities.php,"1661 Napier St, Vancouver, BC V5L 4X4",Ice,Single surface,Indoor,Public,1661,Napier Street,,Vancouver,BC,V5L 4X4,,,"community centre with programs for children, youth, adults, 55+, pool, ice rink, fitness, gym, sports fields, tennis, running track",
,,Britannia Centre,https://www.britanniacentre.org/facilities.php,"1661 Napier St, Vancouver, BC V5L 4X4",Physical Recreation & Sports,Fitness centres / areas ,Indoor,Public,1661,Napier Street,,Vancouver,BC,V5L 4X4,,,"community centre with programs for children, youth, adults, 55+, pool, ice rink, fitness, gym, sports fields, tennis, running track",
,,Britannia Centre,https://www.britanniacentre.org/facilities.php,"1661 Napier St, Vancouver, BC V5L 4X4",Physical Recreation & Sports,Gymnasiums ,Indoor,Public,1661,Napier Street,,Vancouver,BC,V5L 4X4,,,"community centre with programs for children, youth, adults, 55+, pool, ice rink, fitness, gym, sports fields, tennis, running track",
,,Marpole-Oakridge Community Centre,https://vancouver.ca/parks-recreation-culture/marpole-oakridge-community-centre.aspx,"990 W 59th Ave, Vancouver, BC V6P 1X9",Leisure / Community Centres,General,Both,Public,990,W 59th Avenue,,Vancouver,BC,V6P 1X9,,,"community centre with pre-school, youth centre, gym, racquetball, fitness, tennis, water park, playground",
,,Marpole-Oakridge Community Centre,https://vancouver.ca/parks-recreation-culture/marpole-oakridge-community-centre.aspx,"990 W 59th Ave, Vancouver, BC V6P 1X9",Physical Recreation & Sports,Gymnasiums ,Indoor,Public,990,W 59th Avenue,,Vancouver,BC,V6P 1X9,,,"community centre with pre-school, youth centre, gym, racquetball, fitness, tennis, water park, playground",
,,Marpole-Oakridge Community Centre,https://vancouver.ca/parks-recreation-culture/marpole-oakridge-community-centre.aspx,"990 W 59th Ave, Vancouver, BC V6P 1X9",Physical Recreation & Sports,"Racquet courts (squash, racquetball, badminton)",Indoor,Public,990,W 59th Avenue,,Vancouver,BC,V6P 1X9,,,"community centre with pre-school, youth centre, gym, racquetball, fitness, tennis, water park, playground",
,,Marpole-Oakridge Community Centre,https://vancouver.ca/parks-recreation-culture/marpole-oakridge-community-centre.aspx,"990 W 59th Ave, Vancouver, BC V6P 1X9",Physical Recreation & Sports,Fitness centres / areas ,Indoor,Public,990,W 59th Avenue,,Vancouver,BC,V6P 1X9,,,"community centre with pre-school, youth centre, gym, racquetball, fitness, tennis, water park, playground",
,,Marpole Curling Club,http://marpolecurling.ca/,"8730 Heather St, Vancouver, BC V6P 3S8",Ice,Curling,Indoor,Public,8730,Heather Street,,Vancouver,BC,V6P 3S8,,,,
,,Carnegie Centre Community Centre,https://vancouver.ca/parks-recreation-culture/carnegie-community-centre.aspx,"401 Main St, Vancouver, BC V6A 2T7",Leisure / Community Centres,General,Indoor,Public,401,Main Street,,Vancouver,BC,V6A 2T7,,,"community centre for low income adults (including seniors), gym, fitness",
,,Carnegie Centre Community Centre,https://vancouver.ca/parks-recreation-culture/carnegie-community-centre.aspx,"401 Main St, Vancouver, BC V6A 2T7",Physical Recreation & Sports,Gymnasiums ,Indoor,Public,401,Main Street,,Vancouver,BC,V6A 2T7,,,"community centre for low income adults (including seniors), gym, fitness",
,,Carnegie Centre Community Centre,https://vancouver.ca/parks-recreation-culture/carnegie-community-centre.aspx,"401 Main St, Vancouver, BC V6A 2T7",Physical Recreation & Sports,Fitness centres / areas ,Indoor,Public,401,Main Street,,Vancouver,BC,V6A 2T7,,,"community centre for low income adults (including seniors), gym, fitness",
,,Hillcrest Community Centre,https://vancouver.ca/parks-recreation-culture/hillcrest-centre.aspx,"4575 Clancy Loranger Way, Vancouver, BC V5Y 2M4",Leisure / Community Centres,General,Both,Public,4575,Clancy Loranger Way,,Vancouver,BC,V5Y 2M4,,,"community centre, aquatic centre, fitness, ice rink, curling, gym, playgrounds",
,,Hillcrest Community Centre,https://vancouver.ca/parks-recreation-culture/hillcrest-centre.aspx,"4575 Clancy Loranger Way, Vancouver, BC V5Y 2M4",Aquatics,25m pool with or without other pools,Both,Public,4575,Clancy Loranger Way,,Vancouver,BC,V5Y 2M4,,,"community centre, aquatic centre, fitness, ice rink, curling, gym, playgrounds",
,,Hillcrest Community Centre,https://vancouver.ca/parks-recreation-culture/hillcrest-centre.aspx,"4575 Clancy Loranger Way, Vancouver, BC V5Y 2M4",Ice,Single surface,Indoor,Public,4575,Clancy Loranger Way,,Vancouver,BC,V5Y 2M4,,,"community centre, aquatic centre, fitness, ice rink, curling, gym, playgrounds",
,,Hillcrest Community Centre,https://vancouver.ca/parks-recreation-culture/hillcrest-centre.aspx,"4575 Clancy Loranger Way, Vancouver, BC V5Y 2M4",Ice,Curling,Indoor,Public,4575,Clancy Loranger Way,,Vancouver,BC,V5Y 2M4,,,"community centre, aquatic centre, fitness, ice rink, curling, gym, playgrounds",
,,Hillcrest Community Centre,https://vancouver.ca/parks-recreation-culture/hillcrest-centre.aspx,"4575 Clancy Loranger Way, Vancouver, BC V5Y 2M4",Physical Recreation & Sports,Fitness centres / areas ,Indoor,Public,4575,Clancy Loranger Way,,Vancouver,BC,V5Y 2M4,,,"community centre, aquatic centre, fitness, ice rink, curling, gym, playgrounds",
,,Hillcrest Community Centre,https://vancouver.ca/parks-recreation-culture/hillcrest-centre.aspx,"4575 Clancy Loranger Way, Vancouver, BC V5Y 2M4",Physical Recreation & Sports,Gymnasiums ,Indoor,Public,4575,Clancy Loranger Way,,Vancouver,BC,V5Y 2M4,,,"community centre, aquatic centre, fitness, ice rink, curling, gym, playgrounds",
,,Sunset Community Centre,https://vancouver.ca/parks-recreation-culture/sunset-community-centre.aspx,"6810 Main St, Vancouver, BC V5X 0A1",Leisure / Community Centres,General,Both,Public,6810,Main Street,,Vancouver,BC,V5X 0A1,,,"community centre, fitness, playground",
,,Sunset Community Centre,https://vancouver.ca/parks-recreation-culture/sunset-community-centre.aspx,"6810 Main St, Vancouver, BC V5X 0A1",Physical Recreation & Sports,Fitness centres / areas ,Indoor,Public,6810,Main Street,,Vancouver,BC,V5X 0A1,,,"community centre, fitness, playground",
,,Trout Lake Community Centre,https://vancouver.ca/parks-recreation-culture/trout-lake-community-centre.aspx,"3360 Victoria Dr, Vancouver, BC V5N 4M4",Leisure / Community Centres,General,Both,Public,3360,Victoria Drive,,Vancouver,BC,V5N 4M4,,,"community centre, ice rink, gym, fitness, outdoor performance plaza",
,,Trout Lake Community Centre,https://vancouver.ca/parks-recreation-culture/trout-lake-community-centre.aspx,"3360 Victoria Dr, Vancouver, BC V5N 4M4",Ice,Single surface,Indoor,Public,3360,Victoria Drive,,Vancouver,BC,V5N 4M4,,,"community centre, ice rink, gym, fitness, outdoor performance plaza",
,,Trout Lake Community Centre,https://vancouver.ca/parks-recreation-culture/trout-lake-community-centre.aspx,"3360 Victoria Dr, Vancouver, BC V5N 4M4",Physical Recreation & Sports,Gymnasiums ,Indoor,Public,3360,Victoria Drive,,Vancouver,BC,V5N 4M4,,,"community centre, ice rink, gym, fitness, outdoor performance plaza",
,,Trout Lake Community Centre,https://vancouver.ca/parks-recreation-culture/trout-lake-community-centre.aspx,"3360 Victoria Dr, Vancouver, BC V5N 4M4",Physical Recreation & Sports,Fitness centres / areas ,Indoor,Public,3360,Victoria Drive,,Vancouver,BC,V5N 4M4,,,"community centre, ice rink, gym, fitness, outdoor performance plaza",
,,Champlain Heights Community Centre,https://champlainheightscc.ca/facilities,"3350 Maquinna Dr, Vancouver, BC V5S 4C6",Leisure / Community Centres,General,Indoor,Public,3350,Maquinna Drive,,Vancouver,BC,V5S 4C6,,,"community centre, gym, fitness, badminton",
,,Champlain Heights Community Centre,https://champlainheightscc.ca/facilities,"3350 Maquinna Dr, Vancouver, BC V5S 4C6",Physical Recreation & Sports,Gymnasiums ,Indoor,Public,3350,Maquinna Drive,,Vancouver,BC,V5S 4C6,,,"community centre, gym, fitness, badminton",
,,Champlain Heights Community Centre,https://champlainheightscc.ca/facilities,"3350 Maquinna Dr, Vancouver, BC V5S 4C6",Physical Recreation & Sports,Fitness centres / areas ,Indoor,Public,3350,Maquinna Drive,,Vancouver,BC,V5S 4C6,,,"community centre, gym, fitness, badminton",
,,Ray-Cam Co-Operative Center,http://raycam.org/,"920 E Hastings St, Vancouver, BC V6A 3T1",Leisure / Community Centres,General,Indoor,Public,920,E Hastings Street,,Vancouver,BC,V6A 3T1,,,"community centre for children, youth, adults and seniors, gym, fitness",
,,Ray-Cam Co-Operative Center,http://raycam.org/,"920 E Hastings St, Vancouver, BC V6A 3T1",Physical Recreation & Sports,Gymnasiums ,Indoor,Public,920,E Hastings Street,,Vancouver,BC,V6A 3T1,,,"community centre for children, youth, adults and seniors, gym, fitness",
,,Ray-Cam Co-Operative Center,http://raycam.org/,"920 E Hastings St, Vancouver, BC V6A 3T1",Physical Recreation & Sports,Fitness centres / areas ,Indoor,Public,920,E Hastings Street,,Vancouver,BC,V6A 3T1,,,"community centre for children, youth, adults and seniors, gym, fitness",
,,Templeton Park Pool,https://vancouver.ca/parks-recreation-culture/templeton-pool.aspx,"700 Templeton Dr, Vancouver, BC V5L 4N8",Aquatics,25m pool with or without other pools,Indoor,Public,700,Templeton Drive,,Vancouver,BC,V5L 4N8,,,,
,,Vancouver Aquatic Centre,https://vancouver.ca/parks-recreation-culture/vancouver-aquatic-centre.aspx/,"1050 Beach Ave, Vancouver, BC V6E 1T7",Aquatics,50m+ pool with or without other pools,Indoor,Public,1050,Beach Avenue,,Vancouver,BC,V6E 1T7,,,,
,,Connaught Park,https://covapp.vancouver.ca/parkfinder/parkdetail.aspx?inparkid=108,"2390 W 10th Ave, Vancouver, BC V6K 4K9",Leisure / Community Centres,General,Both,Public,2390,W 10th Avenue ,,Vancouver,BC,V6K 4K9,,,"community centre, sports fields, playgrounds, ice rink (in Kitsilano Community Centre), water park",
,,Kitsilano Community Centre,https://kitscc.com/,"2690 Larch St, Vancouver, BC V6K 4K9",Physical Recreation & Sports,Fitness centres / areas ,Indoor,Public,2690,Larch Street,,Vancouver,BC,V6K 4K9,,,,
,,Kitsilano Community Centre,https://kitscc.com/,"2690 Larch St, Vancouver, BC V6K 4K9",Ice,Single surface,Indoor,Public,2690,Larch Street,,Vancouver,BC,V6K 4K9,,,,
,,Sunset Arena,https://vancouver.ca/parks-recreation-culture/sunset-rink.aspx,"390 E 51st Ave, Vancouver, BC V5X 1C5",Ice,Single surface,Indoor,Public,390,E 51st Avenue,,Vancouver,BC,V5X 1C5,,,,
,,Kerrisdale Cyclone Taylor Arena,https://vancouver.ca/parks-recreation-culture/kerrisdale-cyclone-taylor-arena.aspx,"5670 East Blvd, Vancouver, BC V6M 3V2",Ice,Single surface,Indoor,Public,5670,East Boulevard,,Vancouver,BC,V6M 3V2,,,"ice rink from September to March, indoor playground from April to August",
,,Kerrisdale Cyclone Taylor Arena,https://vancouver.ca/parks-recreation-culture/kerrisdale-cyclone-taylor-arena.aspx,"5670 East Blvd, Vancouver, BC V6M 3V2",Physical Recreation & Sports,Playgrounds ,Indoor,Public,5670,East Boulevard,,Vancouver,BC,V6M 3V2,,,"ice rink from September to March, indoor playground from April to August",
,,UBC Tennis Centre,https://sportfacilities.ubc.ca/tennis-centre/,"6160 Thunderbird Blvd, Vancouver, BC V6T 1W5",Physical Recreation & Sports,Tennis and/or pickleball courts ,Both,Public,6160,Thunderbird Boulevard,,Vancouver,BC,V6T 1W5,,,,
,,The Arbutus Club,https://www.arbutusclub.com/,"2001 Nanton Ave, Vancouver, BC V6J 4A1",Aquatics,25m pool with or without other pools,Indoor,Private,2001,Nanton Avenue,,Vancouver,BC,V6J 4A1,,,"aquatics, fitness, racquetball, tennis, ice rink",
,,The Arbutus Club,https://www.arbutusclub.com/,"2001 Nanton Ave, Vancouver, BC V6J 4A1",Aquatics,Leisure / wading pools,Indoor,Private,2001,Nanton Avenue,,Vancouver,BC,V6J 4A1,,,"aquatics, fitness, racquetball, tennis, ice rink",
,,The Arbutus Club,https://www.arbutusclub.com/,"2001 Nanton Ave, Vancouver, BC V6J 4A1",Ice,Single surface,Indoor,Private,2001,Nanton Avenue,,Vancouver,BC,V6J 4A1,,,"aquatics, fitness, racquetball, tennis, ice rink",
,,The Arbutus Club,https://www.arbutusclub.com/,"2001 Nanton Ave, Vancouver, BC V6J 4A1",Physical Recreation & Sports,"Racquet courts (squash, racquetball, badminton)",Indoor,Private,2001,Nanton Avenue,,Vancouver,BC,V6J 4A1,,,"aquatics, fitness, racquetball, tennis, ice rink",
,,The Arbutus Club,https://www.arbutusclub.com/,"2001 Nanton Ave, Vancouver, BC V6J 4A1",Physical Recreation & Sports,Fitness centres / areas ,Indoor,Private,2001,Nanton Avenue,,Vancouver,BC,V6J 4A1,,,"aquatics, fitness, racquetball, tennis, ice rink",
,,The Arbutus Club,https://www.arbutusclub.com/,"2001 Nanton Ave, Vancouver, BC V6J 4A1",Physical Recreation & Sports,Gymnasiums ,Indoor,Private,,,,,,,,,,
,,The Arbutus Club,https://www.arbutusclub.com/,"2001 Nanton Ave, Vancouver, BC V6J 4A1",Physical Recreation & Sports,Tennis and/or pickleball courts ,Indoor,Private,2001,Nanton Avenue,,Vancouver,BC,V6J 4A1,,,"aquatics, fitness, racquetball, tennis, ice rink",
,,Stan Stronge Pool,https://find.healthlinkbc.ca/ResourceView2.aspx?org=53965&agencynum=59023278,"719 W 59th Ave, Vancouver, BC V6P 6M7",Aquatics,25m pool with or without other pools,Indoor,Public,719,W 59th Avenue,,Vancouver,BC,V6P 6M7,,,website is not functional - seems to be a therapy pool,
,,Aquatics at the JCCGV,https://www.jccgv.com/aquatics/,"950 W 41st Ave, Vancouver, BC V5Z 2N7",Aquatics,25m pool with or without other pools,Indoor,Public,950,W 41st Avenue,,Vancouver,BC,V5Z 2N7,,,"community centre, pool, fitness, gym",
,,Jewish Community Centre of Greater Vancouver,https://www.jccgv.com/,"950 W 41st Ave, Vancouver, BC V5Z 2N7",Leisure / Community Centres,General,Indoor,Public,950,W 41st Avenue,,Vancouver,BC,V5Z 2N7,,,"community centre, pool, fitness, gym",
,,Jewish Community Centre of Greater Vancouver,https://www.jccgv.com/,"950 W 41st Ave, Vancouver, BC V5Z 2N7",Physical Recreation & Sports,Fitness centres / areas ,Indoor,Public,950,W 41st Avenue,,Vancouver,BC,V5Z 2N7,,,"community centre, pool, fitness, gym",
,,Jewish Community Centre of Greater Vancouver,https://www.jccgv.com/,"950 W 41st Ave, Vancouver, BC V5Z 2N7",Physical Recreation & Sports,Gymnasiums ,Indoor,Public,950,W 41st Avenue,,Vancouver,BC,V5Z 2N7,,,"community centre, pool, fitness, gym",
,,Aquaventures Swim Centre,https://www.aquaventuresswim.com/,"1630 W 5th Ave, Vancouver, BC V6J 1N8",Aquatics,25m pool with or without other pools,Indoor,Public,1630,W 5th Avenue ,,Vancouver,BC,V6J 1N8,,,,
,,Kerr Pool at St. George's School,https://www.lifesaving.bc.ca/facility/st-georges-school-kerr-pool,"4175 W 29th Ave, Vancouver, BC V6S 1V1",Aquatics,25m pool with or without other pools,Indoor,Private,4175,W 29th Avenue,,Vancouver,BC,V6S 1V1,,,pool at boys school,
,,UBC Aquatic Centre,https://recreation.ubc.ca/aquatics/,"6080 Student Union Blvd, Vancouver, BC V6T 1Z1",Aquatics,25m pool with or without other pools,Indoor,Public,6080,Student Union Boulevard,,Vancouver,BC,V6T 1Z1,,,,
,,YWCA Health + Fitness Centre,https://ywcavan.org/fitness,"535 Hornby St, Vancouver, BC V6C 2E8",Aquatics,25m pool with or without other pools,Indoor,Public,535,Hornby Street,,Vancouver,BC,V6C 2E8,,,pool/fitness/racquet courts,
,,YWCA Health + Fitness Centre,https://ywcavan.org/fitness,"535 Hornby St, Vancouver, BC V6C 2E8",Physical Recreation & Sports,Fitness centres / areas ,Indoor,Public,535,Hornby Street,,Vancouver,BC,V6C 2E8,,,pool/fitness/racquet courts,
,,YWCA Health + Fitness Centre,https://ywcavan.org/fitness,"535 Hornby St, Vancouver, BC V6C 2E8",Physical Recreation & Sports,"Racquet courts (squash, racquetball, badminton)",Indoor,Public,535,Hornby Street,,Vancouver,BC,V6C 2E8,,,pool/fitness/racquet courts,
,,Robert Lee YMCA,https://gv.ymca.ca/Locations/Area-One/Downtown/Robert-Lee-YMCA,"955 Burrard St, Vancouver, BC V6Z 1Y2",Aquatics,25m pool with or without other pools,Indoor,Public,955,Burrard Street,,Vancouver,BC,V6Z 1Y2,,,"pool, fitness, racquet courts, gym",
,,Robert Lee YMCA,https://gv.ymca.ca/Locations/Area-One/Downtown/Robert-Lee-YMCA,"955 Burrard St, Vancouver, BC V6Z 1Y2",Physical Recreation & Sports,Fitness centres / areas ,Indoor,Public,955,Burrard Street,,Vancouver,BC,V6Z 1Y2,,,"pool, fitness, racquet courts, gym",
,,Robert Lee YMCA,https://gv.ymca.ca/Locations/Area-One/Downtown/Robert-Lee-YMCA,"955 Burrard St, Vancouver, BC V6Z 1Y2",Physical Recreation & Sports,"Racquet courts (squash, racquetball, badminton)",Indoor,Public,955,Burrard Street,,Vancouver,BC,V6Z 1Y2,,,"pool, fitness, racquet courts, gym",
,,Robert Lee YMCA,https://gv.ymca.ca/Locations/Area-One/Downtown/Robert-Lee-YMCA,"955 Burrard St, Vancouver, BC V6Z 1Y2",Physical Recreation & Sports,Gymnasiums ,Indoor,Public,955,Burrard Street,,Vancouver,BC,V6Z 1Y2,,,"pool, fitness, racquet courts, gym",
,,Propel Swimming Lessons,https://www.propelhq.com/,"1234 Hornby St, Vancouver, BC V6Z 1W2",Aquatics,25m pool with or without other pools,Indoor,Private,1234,Hornby Street,,Vancouver,BC,V6Z 1W2,,,private swimming lessons at the Residence Inn by Marriott,
,,Swim Lessons Vancouver,https://www.swimlessonsvancouver.ca/,"1088 Burrard St, Vancouver, BC V6Z 2R9",Aquatics,25m pool with or without other pools,Indoor,Private,1088,Burrard Street,,Vancouver,BC,V6Z 2R9,,,private swimming lessons at the Sheraton Wall Centre Hotel Swim Pool,
,,Roadhouse Community Arts & Recreation Centre,http://roundhouse.ca/,"181 Roundhouse Mews, Vancouver, BC V6Z 2W3",Leisure / Community Centres,General,Indoor,Public,181,Roundhouse Mews,,Vancouver,BC,V6Z 2W3,,,"programs for children, youth, adults and seniors",
,,UBC Student Recreation Centre,https://recreation.ubc.ca/,"6000 Student Union Blvd, Vancouver, BC V6T 1Z1",Ice,Single surface,Indoor,Private,6000,Student Union Boulevard,,Vancouver,BC,V6T 1Z1,,,ice rink/fitness/tennis,
,,UBC Student Recreation Centre,https://recreation.ubc.ca/,"6000 Student Union Blvd, Vancouver, BC V6T 1Z1",Physical Recreation & Sports,Fitness centres / areas ,Indoor,Private,6000,Student Union Boulevard,,Vancouver,BC,V6T 1Z1,,,ice rink/fitness/tennis,
,,UBC Student Recreation Centre,https://recreation.ubc.ca/,"6000 Student Union Blvd, Vancouver, BC V6T 1Z1",Physical Recreation & Sports,Tennis and/or pickleball courts ,Indoor,Private,6000,Student Union Boulevard,,Vancouver,BC,V6T 1Z1,,,ice rink/fitness/tennis,
,,Old Barn Community Centre,http://www.discoverwesbrook.com/posts/the-old-barn-community-centre#.XiIJSCiJJdg,"6308 Thunderbird Blvd, Vancouver, BC V6T 1Z4",Leisure / Community Centres,General,Indoor,Private,6308,Thunderbird Boulevard,,Vancouver,BC,V6T 1Z4,,,"minimal information on website - unsure of programs, on UBC campus",
,,Old Barn Community Centre,http://www.discoverwesbrook.com/posts/the-old-barn-community-centre#.XiIJSCiJJdg,"6308 Thunderbird Blvd, Vancouver, BC V6T 1Z4",Physical Recreation & Sports,Fitness centres / areas ,Indoor,Private,,,,,,,,,,
,,Westbrook Community Centre,http://www.discoverwesbrook.com/posts/wesbrook-community-centre#.XiIJaSiJJdg,"3335 Webber Ln, Vancouver, BC V6S 0H3",Leisure / Community Centres,General,Indoor,Public,3335,Webber Lane,,Vancouver,BC,V6S 0H3,,,"community centre, fitness, splash pad",
,,Westbrook Community Centre,http://www.discoverwesbrook.com/posts/wesbrook-community-centre#.XiIJaSiJJdg,"3335 Webber Ln, Vancouver, BC V6S 0H3",Physical Recreation & Sports,Fitness centres / areas ,Indoor,Public,3335,Webber Lane,,Vancouver,BC,V6S 0H3,,,"community centre, fitness, splash pad",
,,Westbrook Community Centre,http://www.discoverwesbrook.com/posts/wesbrook-community-centre#.XiIJaSiJJdg,"3335 Webber Ln, Vancouver, BC V6S 0H3",Physical Recreation & Sports,Gymnasiums ,Indoor,Public,,,,,,,,,,
,,Langara Family YMCA,https://gv.ymca.ca/Locations/Area-One/Langara/Langara-Family-YMCA,"282 W 49th Ave, Vancouver, BC V5Y 2Z5",Aquatics,25m pool with or without other pools,Indoor,Public,282,W 49th Avenue ,,Vancouver,BC,V5Y 2Z5,,,"pool, fitness, gym",
,,Langara Family YMCA,https://gv.ymca.ca/Locations/Area-One/Langara/Langara-Family-YMCA,"282 W 49th Ave, Vancouver, BC V5Y 2Z5",Physical Recreation & Sports,Fitness centres / areas ,Indoor,Public,282,W 49th Avenue ,,Vancouver,BC,V5Y 2Z5,,,"pool, fitness, gym",
,,Langara Family YMCA,https://gv.ymca.ca/Locations/Area-One/Langara/Langara-Family-YMCA,"282 W 49th Ave, Vancouver, BC V5Y 2Z5",Physical Recreation & Sports,Gymnasiums ,Indoor,Public,282,W 49th Avenue ,,Vancouver,BC,V5Y 2Z5,,,"pool, fitness, gym",
,,Barclay Manor,https://westendcc.ca/barclay-manor/,"1447 Barclay St, Vancouver, BC V6G 1J6",Leisure / Community Centres,Seniors,Indoor,Public,1447,Barclay Street,,Vancouver,BC,V6G 1J6,,,senior's centre with fitness classes,
,,Barclay Manor,https://westendcc.ca/barclay-manor/,"1447 Barclay St, Vancouver, BC V6G 1J6",Physical Recreation & Sports,Fitness centres / areas ,Indoor,Public,1447,Barclay Street,,Vancouver,BC,V6G 1J6,,,senior's centre with fitness classes,
,,Collingwood Neighbourhood House,https://www.cnh.bc.ca/,"5288 Joyce St, Vancouver, BC V5R 6C9",Leisure / Community Centres,General,Indoor,Public,5288,Joyce Street,,Vancouver,BC,V5R 6C9,,,"programs for children, youth, adults and seniors",
,,Downtown Eastside Neighbourhood House,https://dtesnhouse.ca/,"573 E Hastings St, Vancouver, BC V6A 1P9",Leisure / Community Centres,General,Indoor,Public,573,E Hastings Street,,Vancouver,BC,V6A 1P9,,,,
,,Ajyal Islamic Centre,http://www.ajyal.ca/,"181 Keefer Pl, Vancouver, BC V6B 6C1",Leisure / Community Centres,General,Indoor,Public,181,Keefer Place,202,Vancouver,BC,V6B 6C1,,,islamic community centre,
,,Gordon Neighbourhood House,https://gordonhouse.org/,"1019 Broughton St, Vancouver, BC V6G 2A7",Leisure / Community Centres,General,Indoor,Public,1019,Broughton Street,,Vancouver,BC,V6G 2A7,,,"programs for families, youth and seniors",
,,Langara College Gymnasium and Lockers,https://langara.ca/campus-facilities/gym-and-lockers/index.html,"100 W 49th Ave, Vancouver, BC V5Y 2Z6",Physical Recreation & Sports,Gymnasiums ,Indoor,Public,100,W 49th Avenue ,,Vancouver,BC,V5Y 2Z6,,,"gymnasium, badminton",
,,Langara College Gymnasium and Lockers,https://langara.ca/campus-facilities/gym-and-lockers/index.html,"100 W 49th Ave, Vancouver, BC V5Y 2Z6",Physical Recreation & Sports,"Racquet courts (squash, racquetball, badminton)",Indoor,Public,100,W 49th Avenue ,,Vancouver,BC,V5Y 2Z6,,,"gymnasium, badminton",
,,Vancouver Racquets Club,https://vrc.bc.ca/facilities,"4867 Ontario St, Vancouver, BC V5V 3H4",Physical Recreation & Sports,"Racquet courts (squash, racquetball, badminton)",Indoor,Public,4867,Ontario Street,,Vancouver,BC,V5V 3H4,,,"squash, badminton, fitness",
,,Vancouver Racquets Club,https://vrc.bc.ca/facilities,"4867 Ontario St, Vancouver, BC V5V 3H4",Physical Recreation & Sports,Fitness centres / areas ,Indoor,Public,4867,Ontario Street,,Vancouver,BC,V5V 3H4,,,"squash, badminton, fitness",
,,Vancouver Lawn Tennis & Badminton Club,https://www.vanlawn.com/default.aspx?p=DynamicModule&pageid=354597&ssid=261054&vnf=1,"1630 W 15th Ave, Vancouver, BC V6J 2K7",Aquatics,25m pool with or without other pools,Both,Private,1630,W 15th Avenue,,Vancouver,BC,V6J 2K7,,,"indoor/outdoor pool, tennis, badminton, fitness",
,,Vancouver Lawn Tennis & Badminton Club,https://www.vanlawn.com/default.aspx?p=DynamicModule&pageid=354597&ssid=261054&vnf=1,"1630 W 15th Ave, Vancouver, BC V6J 2K7",Physical Recreation & Sports,Tennis and/or pickleball courts ,Both,Private,1630,W 15th Avenue,,Vancouver,BC,V6J 2K7,,,"indoor/outdoor pool, tennis, badminton, fitness",
,,Vancouver Lawn Tennis & Badminton Club,https://www.vanlawn.com/default.aspx?p=DynamicModule&pageid=354597&ssid=261054&vnf=1,"1630 W 15th Ave, Vancouver, BC V6J 2K7",Physical Recreation & Sports,"Racquet courts (squash, racquetball, badminton)",Both,Private,1630,W 15th Avenue,,Vancouver,BC,V6J 2K7,,,"indoor/outdoor pool, tennis, badminton, fitness",
,,Vancouver Lawn Tennis & Badminton Club,https://www.vanlawn.com/default.aspx?p=DynamicModule&pageid=354597&ssid=261054&vnf=1,"1630 W 15th Ave, Vancouver, BC V6J 2K7",Physical Recreation & Sports,Fitness centres / areas ,Both,Private,1630,W 15th Avenue,,Vancouver,BC,V6J 2K7,,,"indoor/outdoor pool, tennis, badminton, fitness",
,,Tennis British Columbia,http://www.tennisbc.org/,"112 E 3rd Ave, Vancouver, BC V5T 1C8",Physical Recreation & Sports,Tennis and/or pickleball courts ,Indoor,Private,112,E 3rd Avenue,,Vancouver,BC,V5T 1C8,,,,
,,Jericho Tennis Club,https://jerichotennisclub.com/,"3837 Point Grey Rd, Vancouver, BC V6R 1B3",Physical Recreation & Sports,"Racquet courts (squash, racquetball, badminton)",Indoor,Private,3837,Point Grey Road,,Vancouver,BC,V6R 1B3,,,"tennis, racquet courts, fitness, outdoor pool",
,,Jericho Tennis Club,https://jerichotennisclub.com/,"3837 Point Grey Rd, Vancouver, BC V6R 1B3",Physical Recreation & Sports,Fitness centres / areas ,Indoor,Private,3837,Point Grey Road,,Vancouver,BC,V6R 1B3,,,"tennis, racquet courts, fitness, outdoor pool",
,,South Vancouver Neighbourhood House,http://www.southvan.org/,"6470 Victoria Dr, Vancouver, BC V5P 3X7",Leisure / Community Centres,General,Indoor,Public,6470,Victoria Drive,,Vancouver,BC,V5P 3X7,,,,
,,Russian Community Centre,http://www.russiancentrevancouver.com/,"2114 W 4th Ave, Vancouver, BC V6K 4R8",Leisure / Community Centres,General,Indoor,Public,2114,W 4th Avenue ,,Vancouver,BC,V6K 4R8,,,for people interested in Russian culture,
,,Kiwassa Neighbourhood House,https://www.kiwassa.ca/,"2425 Oxford St, Vancouver, BC V5K 1M7",Leisure / Community Centres,General,Indoor,Public,2425,Oxford Street,,Vancouver,BC,V5K 1M7,,,,
,,Peretz Centre for Secular Jewish Culture,https://peretz-centre.org/,"6184 Ash St, Vancouver, BC V5Z 3G9",Leisure / Community Centres,General,Indoor,Public,6184,Ash Street,,Vancouver,BC,V5Z 3G9,,,for Jewish culture,
,,OAC Hall,https://www.google.ca/search?source=hp&ei=g_YlXs2oEJK5tQbO_7CwCA&q=oac+hall&oq=oac+hall&gs_l=psy-ab.3..0j0i22i30l3j0i22i10i30.2604.3789..4286...0.0..0.173.851.4j4......0....1..gws-wiz.......0i131j0i10.x7D3mYr4B58&ved=0ahUKEwiN9vGl7JLnAhWSXM0KHc4_DIYQ4dUDCAg&uact=5,"5350 Baillie St, Vancouver, BC V5Z 3M5",Leisure / Community Centres,General,Indoor,Public,5350,Baillie Street,,Vancouver,BC,V5Z 3M5,,,no website,
,,Slocan Community Hall,https://www.renfrewcc.com/facilities/rentals/#slocan-hall,"2750 E 29th Ave, Vancouver, BC V5R 1V5",Leisure / Community Centres,General,Indoor,Public,,,,,,,,,,
,,Vancouver Curling Club,https://vancurl.com/about,"4575 Clancy Loranger Way, Vancouver, BC V5Y 2M4",Ice,Curling,Indoor,Public,,,,,,,,,,
,,Vancouver Family Connections,https://www.vancouverfamilyconnections.org/,"2425 Oxford St, Vancouver, BC V5K 1M7",Leisure / Community Centres,General,Indoor,Public,,,,,,,,,,
,,Polish Community Centre,http://polishsocietyvancouver.ca/,"4015 Fraser St, Vancouver, BC V5V 4E6",Leisure / Community Centres,General,Indoor,Public,,,,,,,,,,
,,Korean Community Centre,http://www.eastvillagevancouver.ca/business/korean-community-centre/,"1320 E Hastings St, Vancouver, BC V5L 1S3",Leisure / Community Centres,General,Indoor,Public,,,,,,,,,,
,,Marpole Neighbourhood House,http://www.marpolenh.org/,"8585 Hudson St, Vancouver, BC  V6P 4M3",Leisure / Community Centres,General,Indoor,Public,,,,,,,,,,
,,Downtown Eastside Women's Centre,http://dewc.ca/,"302 Columbia St, Vancouver, BC V6A 4J1",Leisure / Community Centres,General,Indoor,Public,,,,,,,,,,
,,South Hill Neighbourhood Centre,http://www.southvan.org/calendars/,"5888 Fraser St, Vancouver, BC V5W 2Z5",Leisure / Community Centres,General,Indoor,Public,,,,,,,,,,
,,West End Rink,https://vancouver.ca/parks-recreation-culture/west-end-rink.aspx,"1750 Haro St, Vancouver, BC V6G 1K6",Ice,Single surface,Indoor,Public,,,,,,,,,,
,Surrey,Cloverdale Curling Rink,https://www.cloverdalecurlingclub.ca/,"6150 176 Street, Surrey, BC V3S 4E7",Ice,Curling,Indoor,Public,6150,176 Street,,Surrey,BC,V3S 4E7,,,,
,,South Surrey Indoor Pool,https://www.surrey.ca/culture-recreation/1755.aspx,"14655 17 Ave, Surrey, BC V4A 5M2",Aquatics,25m pool with or without other pools,Indoor,Public,14655,17 Avenue,,Surrey,BC,V4A 5M2,,,pool and fitness,
,,South Surrey Indoor Pool,https://www.surrey.ca/culture-recreation/1755.aspx,"14655 17 Ave, Surrey, BC V4A 5M2",Aquatics,Leisure / wading pools,Indoor,Public,14655,17 Avenue,,Surrey,BC,V4A 5M2,,,pool and fitness,
,,South Surrey Indoor Pool,https://www.surrey.ca/culture-recreation/1755.aspx,"14655 17 Ave, Surrey, BC V4A 5M2",Physical Recreation & Sports,Fitness centres / areas ,Indoor,Public,14655,17 Avenue,,Surrey,BC,V4A 5M2,,,pool and fitness,
,,Bridgeview Community Centre,https://www.surrey.ca/culture-recreation/11534.aspx,"11475 126a St, Surrey, BC V3V 5G8",Leisure / Community Centres,General,Both,Public,11475,126a Street,,Surrey,BC,V3V 5G8,,,"community centre, gym, fitness, tennis, sports fields, water park, playground",
,,Bridgeview Community Centre,https://www.surrey.ca/culture-recreation/11534.aspx,"11475 126a St, Surrey, BC V3V 5G8",Physical Recreation & Sports,Gymnasiums ,Indoor,Public,11475,126a Street,,Surrey,BC,V3V 5G8,,,"community centre, gym, fitness, tennis, sports fields, water park, playground",
,,Newton Recreation Centre,https://www.surrey.ca/culture-recreation/7325.aspx,"13730 72 Ave, Surrey, BC V3W 2P4",Aquatics,25m pool with or without other pools,Indoor,Public,13730,72 Avenue,,Surrey,BC,V3W 2P4,,,"wave pool, gym, fitness",
,,Newton Recreation Centre,https://www.surrey.ca/culture-recreation/7325.aspx,"13730 72 Ave, Surrey, BC V3W 2P4",Ice,Single surface,Indoor,Public,,,,,,,,,across from the lot from the wave pool,
,,Newton Recreation Centre,https://www.surrey.ca/culture-recreation/7325.aspx,"13730 72 Ave, Surrey, BC V3W 2P4",Physical Recreation & Sports,Gymnasiums ,Indoor,Public,13730,72 Avenue,,Surrey,BC,V3W 2P4,,,"wave pool, gym, fitness",
,,Newton Recreation Centre,https://www.surrey.ca/culture-recreation/7325.aspx,"13730 72 Ave, Surrey, BC V3W 2P4",Physical Recreation & Sports,Fitness centres / areas ,Indoor,Public,13730,72 Avenue,,Surrey,BC,V3W 2P4,,,"wave pool, gym, fitness",
,,Grandview Heights Aquatic Centre,https://www.surrey.ca/culture-recreation/14315.aspx,"16855 24 Ave, Surrey, BC V3S 0A2",Aquatics,50m+ pool with or without other pools,Indoor,Public,16855,24 Avenue,,Surrey,BC,V3S 0A2,,,"Olympic-size competition pool, fitness",
,,Grandview Heights Aquatic Centre,https://www.surrey.ca/culture-recreation/14315.aspx,"16855 24 Ave, Surrey, BC V3S 0A2",Aquatics,Leisure / wading pools,Indoor,Public,16855,24 Avenue,,Surrey,BC,V3S 0A2,,,"Olympic-size competition pool, fitness",
,,Grandview Heights Aquatic Centre,https://www.surrey.ca/culture-recreation/14315.aspx,"16855 24 Ave, Surrey, BC V3S 0A2",Physical Recreation & Sports,Fitness centres / areas ,Indoor,Public,16855,24 Avenue,,Surrey,BC,V3S 0A2,,,"Olympic-size competition pool, fitness",
,,Surrey Sport & Leisure Complex,https://www.surrey.ca/culture-recreation/1888.aspx,"16555 Fraser Hwy, Surrey, BC V4N 0E9",Aquatics,50m+ pool with or without other pools,Indoor,Public,16555,Fraser Highway #100,,Surrey,BC,V4N 0E9,,,"Olympic-sized pool, ice rinks, gym, fitness",
,,Surrey Sport & Leisure Complex,https://www.surrey.ca/culture-recreation/1888.aspx,"16555 Fraser Hwy, Surrey, BC V4N 0E9",Aquatics,Leisure / wading pools,Indoor,Public,16555,Fraser Highway #100,,Surrey,BC,V4N 0E9,,,"Olympic-sized pool, ice rinks, gym, fitness",
,,Surrey Sport & Leisure Complex,https://www.surrey.ca/culture-recreation/1888.aspx,"16555 Fraser Hwy, Surrey, BC V4N 0E9",Ice,2+ surfaces,Indoor,Public,16555,Fraser Highway #100,,Surrey,BC,V4N 0E9,,,"Olympic-sized pool, ice rinks, gym, fitness",
,,Surrey Sport & Leisure Complex,https://www.surrey.ca/culture-recreation/1888.aspx,"16555 Fraser Hwy, Surrey, BC V4N 0E9",Physical Recreation & Sports,Gymnasiums ,Indoor,Public,16555,Fraser Highway #100,,Surrey,BC,V4N 0E9,,,"Olympic-sized pool, ice rinks, gym, fitness",
,,Surrey Sport & Leisure Complex,https://www.surrey.ca/culture-recreation/1888.aspx,"16555 Fraser Hwy, Surrey, BC V4N 0E9",Physical Recreation & Sports,Fitness centres / areas ,Indoor,Public,16555,Fraser Highway #100,,Surrey,BC,V4N 0E9,,,"Olympic-sized pool, ice rinks, gym, fitness",
,,Guildford Recreation Centre,https://www.surrey.ca/culture-recreation/1876.aspx,"15105 105 Ave, Surrey, BC V3R 7G8",Aquatics,25m pool with or without other pools,Indoor,Public,15105,105 Avenue,,Surrey,BC,V3R 7G8,,,"pool, gym, fitness, indoor track",
,,Guildford Recreation Centre,https://www.surrey.ca/culture-recreation/1876.aspx,"15105 105 Ave, Surrey, BC V3R 7G8",Physical Recreation & Sports,Gymnasiums ,Indoor,Public,15105,105 Avenue,,Surrey,BC,V3R 7G8,,,"pool, gym, fitness, indoor track",
,,Guildford Recreation Centre,https://www.surrey.ca/culture-recreation/1876.aspx,"15105 105 Ave, Surrey, BC V3R 7G8",Physical Recreation & Sports,Fitness centres / areas ,Indoor,Public,15105,105 Avenue,,Surrey,BC,V3R 7G8,,,"pool, gym, fitness, indoor track",
,,Guildford Recreation Centre,https://www.surrey.ca/culture-recreation/1876.aspx,"15105 105 Ave, Surrey, BC V3R 7G8",Physical Recreation & Sports,Running tracks (track and field),Indoor,Public,15105,105 Avenue,,Surrey,BC,V3R 7G8,,,"pool, gym, fitness, indoor track",
,,Newton Arena,https://www.surrey.ca/culture-recreation/5044.aspx,"7120 136b St, Surrey, BC V3W 8G5",Ice,Single surface,Indoor,Public,7120,136b Street,,Surrey,BC,V3W 8G5,,,,
,,South Surrey Arena,https://www.surrey.ca/culture-recreation/1919.aspx,"2199 148 St, Surrey, BC V4A 8L5",Ice,Single surface,Indoor,Public,2199,148 Street,,Surrey,BC,V4A 8L5,,,Olympic-sized rink,
,,Excellent Ice,https://excellentice.com/,"15000 54a Ave, Surrey, BC V3S 5X7",Ice,2+ surfaces,Indoor,Public,15000,54a Avenue,,Surrey,BC,V3S 5X7,,,,
,,Cloverdale Skating Club,https://www.cloverdaleskatingclub.com/,"6090 176 St, Surrey, BC V3S 4E7",Ice,Single surface,Indoor,Public,6090,176 Street,,Surrey,BC,V3S 4E7,,,,
,,North Surrey Sport & Ice Complex,https://www.surrey.ca/culture-recreation/23437.aspx,"10950 126a St, Surrey, BC V3W 7J9",Ice,2+ surfaces,Indoor,Public,10950,126a Street,,Surrey,BC,V3W 7J9,,,"3 ice sheets, fitness",
,,North Surrey Sport & Ice Complex,https://www.surrey.ca/culture-recreation/23437.aspx,"10950 126a St, Surrey, BC V3W 7J9",Physical Recreation & Sports,Fitness centres / areas ,Indoor,Public,10950,126a Street,,Surrey,BC,V3W 7J9,,,"3 ice sheets, fitness",
,,South Surrey Recreation and Arts Centre,https://www.surrey.ca/culture-recreation/1918.aspx,"14601 20 Ave, Surrey, BC V4A 9P5",Leisure / Community Centres,General,Indoor,Public,14601,20 Avenue,,Surrey,BC,V4A 9P5,,,"community centre with programs for children, youth and seniors, gym, fitness, tennis, skate park",
,,South Surrey Recreation and Arts Centre,https://www.surrey.ca/culture-recreation/1918.aspx,"14601 20 Ave, Surrey, BC V4A 9P5",Physical Recreation & Sports,Gymnasiums ,Indoor,Public,14601,20 Avenue,,Surrey,BC,V4A 9P5,,,"community centre with programs for children, youth and seniors, gym, fitness, tennis, skate park",
,,South Surrey Recreation and Arts Centre,https://www.surrey.ca/culture-recreation/1918.aspx,"14601 20 Ave, Surrey, BC V4A 9P5",Physical Recreation & Sports,Fitness centres / areas ,Indoor,Public,14601,20 Avenue,,Surrey,BC,V4A 9P5,,,"community centre with programs for children, youth and seniors, gym, fitness, tennis, skate park",
,,Fraser Heights Recreation Centre,https://www.surrey.ca/culture-recreation/1928.aspx,"10588 160 St, Surrey, BC V4N 0A1",Leisure / Community Centres,General,Indoor,Public,10588,160 Street,,Surrey,BC,V4N 0A1,,,"community centre with programs for children, youth and seniors, gym, fitness, tennis",
,,Fraser Heights Recreation Centre,https://www.surrey.ca/culture-recreation/1928.aspx,"10588 160 St, Surrey, BC V4N 0A1",Physical Recreation & Sports,Gymnasiums ,Indoor,Public,10588,160 Street,,Surrey,BC,V4N 0A1,,,"community centre with programs for children, youth and seniors, gym, fitness, tennis",
,,Fraser Heights Recreation Centre,https://www.surrey.ca/culture-recreation/1928.aspx,"10588 160 St, Surrey, BC V4N 0A1",Physical Recreation & Sports,Fitness centres / areas ,Indoor,Public,10588,160 Street,,Surrey,BC,V4N 0A1,,,"community centre with programs for children, youth and seniors, gym, fitness, tennis",
,,Chuck Bailey Recreation Centre,https://www.surrey.ca/culture-recreation/1914.aspx,"13458 107a Ave, Surrey, BC V3T 0G4",Leisure / Community Centres,General,Indoor,Public,13458,107a Avenue,,Surrey,BC,V3T 0G4,,,"community centre with programs for children, youth and seniors, gym, fitness, skate park",
,,Chuck Bailey Recreation Centre,https://www.surrey.ca/culture-recreation/1914.aspx,"13458 107a Ave, Surrey, BC V3T 0G4",Physical Recreation & Sports,Gymnasiums ,Indoor,Public,13458,107a Avenue,,Surrey,BC,V3T 0G4,,,"community centre with programs for children, youth and seniors, gym, fitness, skate park",
,,Chuck Bailey Recreation Centre,https://www.surrey.ca/culture-recreation/1914.aspx,"13458 107a Ave, Surrey, BC V3T 0G4",Physical Recreation & Sports,Fitness centres / areas ,Indoor,Public,13458,107a Avenue,,Surrey,BC,V3T 0G4,,,"community centre with programs for children, youth and seniors, gym, fitness, skate park",
,,Chuck Bailey Recreation Centre,https://www.surrey.ca/culture-recreation/1914.aspx,"13458 107a Ave, Surrey, BC V3T 0G4",Physical Recreation & Sports,Skate parks,Indoor,Public,13458,107a Avenue,,Surrey,BC,V3T 0G4,,,"community centre with programs for children, youth and seniors, gym, fitness, skate park",
,,Cloverdale Recreation Centre,https://www.surrey.ca/culture-recreation/8524.aspx,"6188 176 St, Surrey, BC V3S 4E7",Leisure / Community Centres,General,Indoor,Public,6188,176 Street,,Surrey,BC,V3S 4E7,,,"community centre with programs for children, youth and seniors, gym, fitness, ice arena",
,,Cloverdale Recreation Centre,https://www.surrey.ca/culture-recreation/8524.aspx,"6188 176 St, Surrey, BC V3S 4E7",Physical Recreation & Sports,Gymnasiums ,Indoor,Public,6188,176 Street,,Surrey,BC,V3S 4E7,,,"community centre with programs for children, youth and seniors, gym, fitness, ice arena",
,,Cloverdale Recreation Centre,https://www.surrey.ca/culture-recreation/8524.aspx,"6188 176 St, Surrey, BC V3S 4E7",Physical Recreation & Sports,Fitness centres / areas ,Indoor,Public,6188,176 Street,,Surrey,BC,V3S 4E7,,,"community centre with programs for children, youth and seniors, gym, fitness, ice arena",
,,Don Christian Recreation Centre,https://www.surrey.ca/culture-recreation/5035.aspx,"6220 184 St, Surrey, BC V3S 8E6",Leisure / Community Centres,General,Indoor,Public,6220,184 Street,,Surrey,BC,V3S 8E6,,,"community centre with programs for children, youth and seniors, gym, fitness, ice arena",
,,Fleetwood Community Centre,https://www.surrey.ca/culture-recreation/1858.aspx,"15996 84 Ave, Surrey, BC V4N 0W1",Leisure / Community Centres,General,Indoor,Public,15996,84 Avenue,,Surrey,BC,V4N 0W1,,,"community centre with programs for children, youth and seniors, gym, fitness",
,,Fleetwood Community Centre,https://www.surrey.ca/culture-recreation/1858.aspx,"15996 84 Ave, Surrey, BC V4N 0W1",Physical Recreation & Sports,Gymnasiums ,Indoor,Public,15996,84 Avenue,,Surrey,BC,V4N 0W1,,,"community centre with programs for children, youth and seniors, gym, fitness",
,,Fleetwood Community Centre,https://www.surrey.ca/culture-recreation/1858.aspx,"15996 84 Ave, Surrey, BC V4N 0W1",Physical Recreation & Sports,Fitness centres / areas ,Indoor,Public,15996,84 Avenue,,Surrey,BC,V4N 0W1,,,"community centre with programs for children, youth and seniors, gym, fitness",
,,Kensington Prairie Community Centre,https://www.surrey.ca/culture-recreation/7794.aspx,"16824 32 Ave, Surrey, BC V3S 0L5",Leisure / Community Centres,Youth,Indoor,Public,16824,32 Avenue,,Surrey,BC,V3S 0L5,,,"community centre with programs for children, gym",
,,Kensington Prairie Community Centre,https://www.surrey.ca/culture-recreation/7794.aspx,"16824 32 Ave, Surrey, BC V3S 0L5",Physical Recreation & Sports,Gymnasiums ,Indoor,Public,16824,32 Avenue,,Surrey,BC,V3S 0L5,,,"community centre with programs for children, gym",
,,Clayton Hall,https://www.surrey.ca/culture-recreation/13137.aspx,"18513 70 Ave, Surrey, BC  V4N 6B6",Leisure / Community Centres,General,Indoor,Public,18513,70 Avenue,,Surrey,BC,V4N 6B6,,,,
,,The Tennis Centre,http://surrey.thetenniscentre.ca/,"5891 144 St, Surrey, BC V3X 1A6",Physical Recreation & Sports,Tennis and/or pickleball courts ,Both,Public,5891,144 Street,,Surrey,BC,V3X 1A6,,,,
,,The Tennis Centre,http://surrey.thetenniscentre.ca/,"5891 144 St, Surrey, BC V3X 1A6",Physical Recreation & Sports,Fitness centres / areas ,Indoor,Public,,,,,,,,,,
,,Sullivan's Community Hall,https://www.sullivanhall.ca/,"6306 152 St, Surrey, BC V3S 3K9",Leisure / Community Centres,General,Indoor,Public,,,,,,,,,,
,,Sunnyside Community Hall,https://www.surrey.ca/culture-recreation/6054.aspx,"1845 154 St, Surrey, BC V4A 5J8",Leisure / Community Centres,General,Indoor,Public,,,,,,,,,,
,,Newton Youth Hub,https://pcrs.ca/service-resource-centres/surrey-youth-resource-centre/,"13479 76 Ave, Surrey, BC V3W 2W3",Leisure / Community Centres,Youth,Indoor,Public,,,,,,,,,,
,,Kennedy Community Hall,https://www.surrey.ca/culture-recreation/3335.aspx,"8870 120 St, Surrey, BC V3V 4B4",Leisure / Community Centres,General,Indoor,Public,,,,,,,,,,
,Burnaby,Canlan Ice Sports/Scotia Barn,https://www.icesports.com/scotiabarn/,"6501 Sprott St, Burnaby, BC V5B 3B8",Ice,2+ surfaces,Indoor,Private,6501,Sprott Street,,Burnaby ,BC,V5B 3B8,,,hockey/figure skating/soccer,
,,Canlan Ice Sports/Scotia Barn,https://www.icesports.com/scotiabarn/,"6501 Sprott St, Burnaby, BC V5B 3B8",Physical Recreation & Sports,Sport fields,Indoor,Private,6501,Sprott Street,,Burnaby ,BC,V5B 3B8,,,hockey/figure skating/soccer,
,,Kensington Park Rink,https://arenaguide.ca/arena/kensington-park-rink-kensington-complex/,"6159 Curtis St, Burnaby, BC V5B 4X7",Ice,Single surface,Indoor,Public,6159,Curtis Street,,Burnaby ,BC,V5B 4X7,,,,
,,Bill Copeland Sports Centre,https://www.burnaby.ca/Things-To-Do/Community-Centres/Bill-Copeland-Sports-Centre.html,"3676 Kensington Ave, Burnaby, BC V5B 4Z6",Ice,2+ surfaces,Indoor,Private,3676,Kensington Avenue,,Burnaby ,BC,V5B 4Z6,,,arena ,
,,Burnaby Lake Arena,https://www.burnaby.ca/Things-To-Do/Be-Active-Programs/Rates-and-Schedules/Skating.html,"3676 Kensington Ave; Burnaby, British Columbia V5B 4Z6 ",Ice,Single surface,Indoor,Public,?,Kensington Avenue,,Burnaby ,BC,V5B 4Z6,,,,
,,C.G. Brown Memorial Pool,https://www.burnaby.ca/Things-To-Do/Community-Centres/CG-Brown-Pool.html,"3702 Kensington Ave, Burnaby, BC V5B 4Z6",Aquatics,25m pool with or without other pools,Indoor,Public,3702,Kensington Avenue,,Burnaby ,BC,V5B 4Z6,,,pool and fitness,
,,C.G. Brown Memorial Pool,https://www.burnaby.ca/Things-To-Do/Community-Centres/CG-Brown-Pool.html,"3702 Kensington Ave, Burnaby, BC V5B 4Z6",Aquatics,Leisure / wading pools,Indoor,Public,3702,Kensington Avenue,,Burnaby ,BC,V5B 4Z6,,,pool and fitness,
,,C.G. Brown Memorial Pool,https://www.burnaby.ca/Things-To-Do/Community-Centres/CG-Brown-Pool.html,"3702 Kensington Ave, Burnaby, BC V5B 4Z6",Physical Recreation & Sports,Fitness centres / areas ,Indoor,Public,3702,Kensington Avenue,,Burnaby ,BC,V5B 4Z6,,,pool and fitness,
,,Eileen Dailly Leisure Pool & Fitness Centre,https://www.burnaby.ca/Things-To-Do/Community-Centres/Eileen-Dailly.html,"240 Willingdon Ave, Burnaby, BC V5C 5E9",Aquatics,25m pool with or without other pools,Indoor,Public,240,Willingdont Avenue,,Burnaby ,BC,V5C 5E9,,,"pool, fitness",
,,Eileen Dailly Leisure Pool & Fitness Centre,https://www.burnaby.ca/Things-To-Do/Community-Centres/Eileen-Dailly.html,"240 Willingdon Ave, Burnaby, BC V5C 5E9",Aquatics,Leisure / wading pools,Indoor,Public,240,Willingdont Avenue,,Burnaby ,BC,V5C 5E9,,,"pool, fitness",
,,Eileen Dailly Leisure Pool & Fitness Centre,https://www.burnaby.ca/Things-To-Do/Community-Centres/Eileen-Dailly.html,"240 Willingdon Ave, Burnaby, BC V5C 5E9",Physical Recreation & Sports,Fitness centres / areas ,Indoor,Public,240,Willingdont Avenue,,Burnaby ,BC,V5C 5E9,,,"pool, fitness",
,,Bonsor Recreation Complex,https://www.burnaby.ca/Things-To-Do/Community-Centres/Bonsor-Recreation-Complex.html,"6550 Bonsor Ave, Burnaby, BC V5H 3G4",Aquatics,25m pool with or without other pools,Indoor,Public,6550,Bonsor Avenue,,Burnaby ,BC,V5H 3G4,,,"pool, gym, fitness, racquet courts, ",
,,Bonsor Recreation Complex,https://www.burnaby.ca/Things-To-Do/Community-Centres/Bonsor-Recreation-Complex.html,"6550 Bonsor Ave, Burnaby, BC V5H 3G4",Aquatics,Leisure / wading pools,Indoor,Public,6550,Bonsor Avenue,,Burnaby ,BC,V5H 3G4,,,"pool, gym, fitness, racquet courts, ",
,,Bonsor Recreation Complex,https://www.burnaby.ca/Things-To-Do/Community-Centres/Bonsor-Recreation-Complex.html,"6550 Bonsor Ave, Burnaby, BC V5H 3G4",Physical Recreation & Sports,Gymnasiums ,Indoor,Public,6550,Bonsor Avenue,,Burnaby ,BC,V5H 3G4,,,"pool, gym, fitness, racquet courts",
,,Bonsor Recreation Complex,https://www.burnaby.ca/Things-To-Do/Community-Centres/Bonsor-Recreation-Complex.html,"6550 Bonsor Ave, Burnaby, BC V5H 3G4",Physical Recreation & Sports,Fitness centres / areas ,Indoor,Public,6550,Bonsor Avenue,,Burnaby ,BC,V5H 3G4,,,"pool, gym, fitness, racquet courts",
,,Bonsor Recreation Complex,https://www.burnaby.ca/Things-To-Do/Community-Centres/Bonsor-Recreation-Complex.html,"6550 Bonsor Ave, Burnaby, BC V5H 3G4",Physical Recreation & Sports,"Racquet courts (squash, racquetball, badminton)",Indoor,Public,6550,Bonsor Avenue,,Burnaby ,BC,V5H 3G4,,,"pool, gym, fitness, racquet courts",
,,Confederation Park,https://www.burnaby.ca/Things-To-Do/Explore-Outdoors/Parks/Confederation-Park.html,"4709 Pandora St, Burnaby, BC V5C 2C2",Leisure / Community Centres,Seniors,Indoor,Public,4709,Pandora Street,,Burnaby ,BC,V5C 2C2,,,"seniors centre, youth centre, indoor pool, spray pool and splash pad, sports fields, track, tennis, playground ",took address from Confederation Park Water Park
,,Confederation Park,https://www.burnaby.ca/Things-To-Do/Explore-Outdoors/Parks/Confederation-Park.html,"4709 Pandora St, Burnaby, BC V5C 2C2",Leisure / Community Centres,Youth,Indoor,Public,4709,Pandora Street,,Burnaby ,BC,V5C 2C2,,,"seniors centre, youth centre, indoor pool, spray pool and splash pad, sports fields, track, tennis, playground ",took address from Confederation Park Water Park
,,Confederation Park,https://www.burnaby.ca/Things-To-Do/Explore-Outdoors/Parks/Confederation-Park.html,"4709 Pandora St, Burnaby, BC V5C 2C2",Aquatics,25m pool with or without other pools,Indoor,Public,4709,Pandora Street,,Burnaby ,BC,V5C 2C2,,,"seniors centre, youth centre, indoor pool, spray pool and splash pad, sports fields, track, tennis, playground ",took address from Confederation Park Water Park
,,Confederation Park,https://www.burnaby.ca/Things-To-Do/Explore-Outdoors/Parks/Confederation-Park.html,"4709 Pandora St, Burnaby, BC V5C 2C2",Aquatics,Spray parks / splash pads,Both,Public,4709,Pandora Street,,Burnaby ,BC,V5C 2C2,,,"seniors centre, youth centre, indoor pool, spray pool and splash pad, sports fields, track, tennis, playground ",took address from Confederation Park Water Park
,,Cameron Recreation Complex,https://www.burnaby.ca/Things-To-Do/Community-Centres/Cameron-Recreation-Complex.html,"9523 Cameron St, Burnaby, BC V3J 1L6",Physical Recreation & Sports,Fitness centres / areas ,Indoor,Public,9523,Cameron Street,,Burnaby ,BC,V3J 1L6,,,"fitness, racquetball, tennis",
,,Cameron Recreation Complex,https://www.burnaby.ca/Things-To-Do/Community-Centres/Cameron-Recreation-Complex.html,"9523 Cameron St, Burnaby, BC V3J 1L6",Physical Recreation & Sports,"Racquet courts (squash, racquetball, badminton)",Indoor,Public,9523,Cameron Street,,Burnaby ,BC,V3J 1L6,,,"fitness, racquetball, tennis",
,,Cameron Recreation Complex,https://www.burnaby.ca/Things-To-Do/Community-Centres/Cameron-Recreation-Complex.html,"9523 Cameron St, Burnaby, BC V3J 1L6",Physical Recreation & Sports,Tennis and/or pickleball courts ,Indoor,Public,9523,Cameron Street,,Burnaby ,BC,V3J 1L6,,,"fitness, racquetball, tennis",
,,Cameron Recreation Complex,https://www.burnaby.ca/Things-To-Do/Community-Centres/Cameron-Recreation-Complex.html,,Physical Recreation & Sports,Gymnasiums ,Indoor,Public,,,,,,,,,,
,,BCIT Recreation Services,https://www.bcit.ca/recreation/contact.shtml,"3700, Willingdon Ave, Burnaby, BC V5G 3H2",Physical Recreation & Sports,Fitness centres / areas ,Indoor,Public,3700,Willingdon Avenue,,Burnaby ,BC,V5G 3H2,,,"fitness, gym, racquet courts, sports field",
,,BCIT Recreation Services,https://www.bcit.ca/recreation/contact.shtml,"3700, Willingdon Ave, Burnaby, BC V5G 3H2",Physical Recreation & Sports,Gymnasiums ,Indoor,Public,3700,Willingdon Avenue,,Burnaby ,BC,V5G 3H2,,,"fitness, gym, racquet courts, sports field",
,,BCIT Recreation Services,https://www.bcit.ca/recreation/contact.shtml,"3700, Willingdon Ave, Burnaby, BC V5G 3H2",Physical Recreation & Sports,"Racquet courts (squash, racquetball, badminton)",Indoor,Public,3700,Willingdon Avenue,,Burnaby ,BC,V5G 3H2,,,"fitness, gym, racquet courts, sports field",
,,Burnaby Tennis Club,https://www.burnabytennis.ca/burnaby/home/readPage.do?id=141&history=clear,"3890 Kensington Ave, Burnaby, BC V5B 4V8",Physical Recreation & Sports,Tennis and/or pickleball courts ,Both,Both,3890,Kensington Avenue,,Burnaby ,BC,V5B 4V8,,,,
,,Wesburn Community Centre,https://www.burnaby.ca/Things-To-Do/Community-Centres/Other-Centres/Wesburn.html,"4781 Parkwood Ave, Burnaby, BC V5G 3C6",Leisure / Community Centres,General,Indoor,Public,4781,Parkwood Avenue ,,Burnaby ,BC,V5G 3C6,,,,
,,Willingdon Community Centre,https://www.burnaby.ca/Things-To-Do/Community-Centres/Willingdon-Centre.html,"1491 Carleton Ave, Burnaby, BC V5C 4V5",Leisure / Community Centres,General,Indoor,Public,1491,Carleton Avenue,,Burnaby ,BC,V5C 4V5,,,"community centre, fitness",
,,Willingdon Community Centre,https://www.burnaby.ca/Things-To-Do/Community-Centres/Willingdon-Centre.html,"1491 Carleton Ave, Burnaby, BC V5C 4V5",Physical Recreation & Sports,Fitness centres / areas ,Indoor,Public,1491,Carleton Avenue,,Burnaby ,BC,V5C 4V5,,,"community centre, fitness",
,,Willingdon Community Centre,https://www.burnaby.ca/Things-To-Do/Community-Centres/Willingdon-Centre.html,"1491 Carleton Ave, Burnaby, BC V5C 4V5",Physical Recreation & Sports,Gymnasiums ,Indoor,Public,,,,,,,,,,
,,Confederation Community Centre,https://www.burnaby.ca/Things-To-Do/Community-Centres/Seniors-Centres/Confederation.html,"4585 Albert St, Burnaby, BC V5C 2G6",Leisure / Community Centres,Seniors,Indoor,Public,4585,Albert Street,,Burnaby ,BC,V5C 2G6,,,"seniors' centre, fitness",
,,Confederation Community Centre,https://www.burnaby.ca/Things-To-Do/Community-Centres/Seniors-Centres/Confederation.html,"4585 Albert St, Burnaby, BC V5C 2G6",Physical Recreation & Sports,Fitness centres / areas ,Indoor,Public,4585,Albert Street,,Burnaby ,BC,V5C 2G6,,,"seniors' centre, fitness",
,,Brentwood Community Resource Centre,https://www.mosaicbc.org/venue/brentwood-community-resource-centre/,"2055 Rosser Ave, Burnaby, BC V5C 5Y1",Leisure / Community Centres,General,Indoor,Public,2055,Rosser Avenue,,Burnaby ,BC,V5C 5Y1,,,,
,,Edmonds Community Centre,https://www.burnaby.ca/Things-To-Do/Community-Centres/Edmonds-Community-Centre.html,"7433 Edmonds St, Burnaby, BC V3N 1B1",Leisure / Community Centres,General,Indoor,Public,7433,Edmonds Street,,Burnaby ,BC,V3N 1B1,,,"community centre, pool, fitness, gyms, indoor playground",
,,Edmonds Community Centre,https://www.burnaby.ca/Things-To-Do/Community-Centres/Edmonds-Community-Centre.html,"7433 Edmonds St, Burnaby, BC V3N 1B1",Aquatics,25m pool with or without other pools,Indoor,Public,7433,Edmonds Street,,Burnaby ,BC,V3N 1B1,,,"community centre, pool, fitness, gyms, indoor playground",
,,Edmonds Community Centre,https://www.burnaby.ca/Things-To-Do/Community-Centres/Edmonds-Community-Centre.html,"7433 Edmonds St, Burnaby, BC V3N 1B1",Aquatics,Leisure / wading pools,Indoor,Public,,,,,,,,,,
,,Edmonds Community Centre,https://www.burnaby.ca/Things-To-Do/Community-Centres/Edmonds-Community-Centre.html,"7433 Edmonds St, Burnaby, BC V3N 1B1",Physical Recreation & Sports,Fitness centres / areas ,Indoor,Public,7433,Edmonds Street,,Burnaby ,BC,V3N 1B1,,,"community centre, pool, fitness, gyms, indoor playground",
,,Edmonds Community Centre,https://www.burnaby.ca/Things-To-Do/Community-Centres/Edmonds-Community-Centre.html,"7433 Edmonds St, Burnaby, BC V3N 1B1",Physical Recreation & Sports,Gymnasiums ,Indoor,Public,7433,Edmonds Street,,Burnaby ,BC,V3N 1B1,,,"community centre, pool, fitness, gyms, indoor playground",
,,Edmonds Community Centre,https://www.burnaby.ca/Things-To-Do/Community-Centres/Edmonds-Community-Centre.html,"7433 Edmonds St, Burnaby, BC V3N 1B1",Physical Recreation & Sports,Playgrounds ,Indoor,Public,7433,Edmonds Street,,Burnaby ,BC,V3N 1B1,,,"community centre, pool, fitness, gyms, indoor playground",
,,Bonsor 55+ Seniors Centre,https://bonsor55.plussociety.org/website/,"6533 Nelson Ave, Burnaby, BC V5H 0C2",Leisure / Community Centres,Seniors,Indoor,Public,6533,Nelson Avenue,,Burnaby ,BC,V5H 0C2,,,,
,,Burnaby Community Services,https://www.bbyservices.ca/index.php,"2055 Rosser Ave, Burnaby, BC V5C 0H1",Leisure / Community Centres,General,Indoor,Public,2055,Rosser Avenue,,Burnaby ,BC,V5C 0H1,,,,
,,Charles Rummel Centre,https://www.burnaby.ca/Things-To-Do/Community-Centres/Other-Centres/Charles-Rummel.html,"3630 Lozells Ave, Burnaby, BC V5A 2Y8",Leisure / Community Centres,General,Indoor,Public,3630,Lozells Avenue,,Burnaby ,BC,V5A 2Y8,,,,
,,Scandinavian Community Centre,https://scancentre.org/contact-us/,"6540 Thomas St, Burnaby, BC V5B 4P9",Leisure / Community Centres,General,Indoor,Public,,,,,,,,,,
,,Burnaby Winter Club,https://www.burnabywinterclub.com/,"4990 Canada Way, Burnaby, BC V5G 1M4",Ice,2+ surfaces,Indoor,Public,,,,,,,,,,
,,Dynamo Swim Club,https://www.teamunify.com/Home.jsp?team=bcdsc,"3702 Kensington Ave, Burnaby, BC V5B 4Z6",Aquatics,25m pool with or without other pools,Indoor,Private,,,,,,,,,,
,,Creekside Youth Centre,https://www.burnaby.ca/Things-To-Do/Community-Centres/Youth-Centres/Creekside.html,"2720 Beaverbrook Crescent, Burnaby, BC V3J 7K3",Leisure / Community Centres,Youth,Indoor,Public,,,,,,,,,,
,,Creekside Youth Centre,https://www.burnaby.ca/Things-To-Do/Community-Centres/Youth-Centres/Creekside.html,"2720 Beaverbrook Crescent, Burnaby, BC V3J 7K3",Physical Recreation & Sports,Gymnasiums ,Indoor,Public,,,,,,,,,,
,,Creekside Youth Centre,https://www.burnaby.ca/Things-To-Do/Community-Centres/Youth-Centres/Creekside.html,"2720 Beaverbrook Crescent, Burnaby, BC V3J 7K3",Physical Recreation & Sports,Sport fields,Indoor,Public,,,,,,,,,,
,,Greentree Community Centre,https://greentreecommunitycenter.com/,"4295 Garden Grove Dr, Burnaby, BC V5G 4G8",Leisure / Community Centres,General,Indoor,Public,,,,,,,,,"community centre, pool, fitness",
,,Greentree Community Centre,https://greentreecommunitycenter.com/,"4295 Garden Grove Dr, Burnaby, BC V5G 4G8",Aquatics,25m pool with or without other pools,Indoor,Public,,,,,,,,,"community centre, pool, fitness",
,,Greentree Community Centre,https://greentreecommunitycenter.com/,"4295 Garden Grove Dr, Burnaby, BC V5G 4G8",Physical Recreation & Sports,Fitness centres / areas ,Indoor,Public,,,,,,,,,"community centre, pool, fitness",
,,Vancouver Madinah,https://www.vancouvermadinah.ca/,"5757 Beresford St, Burnaby, BC V5J 1J9",Leisure / Community Centres,General,Indoor,Public,,,,,,,,,,
,,South Burnaby Neighbourhood House,https://burnabynh.ca/,"4460 Beresford St, Burnaby, BC V5H 0B8",Leisure / Community Centres,General,Indoor,Public,,,,,,,,,,
,Richmond,Richmond Ice Centre,https://www.richmond.ca/parksrec/arenas/about.htm,"14140 Triangle Rd, Richmond, BC V6W 1B1",Ice,2+ surfaces,Indoor,Public,14140,Triangle Road,,Richmond,BC,V6W 1B1,,,,
,,Richmond Curling Centre,http://www.richmondcurling.com/,"5540 Hollybridge Way, Richmond, BC V7C 4N3",Ice,Curling,Indoor,Private,5540,Hollybridge Way,,Richmond,BC,V7C 4N3,,,,
,,South Arm Community Centre,https://www.richmond.ca/parksrec/centres/southarmcentre/southarm.htm,"8880 Williams Rd, Richmond, BC V7A 1G6",Leisure / Community Centres,General,Both,Public,8880,Williams Road,,Richmond,BC,V7A 1G6,,,"fitness, gym, seniors centre, sports fields, tennis, playground",
,,South Arm Community Centre,https://www.richmond.ca/parksrec/centres/southarmcentre/southarm.htm,"8880 Williams Rd, Richmond, BC V7A 1G6",Physical Recreation & Sports,Fitness centres / areas ,Indoor,Public,8880,Williams Road,,Richmond,BC,V7A 1G6,,,"fitness, gym, seniors centre, sports fields, tennis, playground",
,,South Arm Community Centre,https://www.richmond.ca/parksrec/centres/southarmcentre/southarm.htm,"8880 Williams Rd, Richmond, BC V7A 1G6",Physical Recreation & Sports,Gymnasiums ,Indoor,Public,8880,Williams Road,,Richmond,BC,V7A 1G6,,,"fitness, gym, seniors centre, sports fields, tennis, playground",
,,Steveston Community Centre,https://www.richmond.ca/parksrec/centres/stevestoncentre/steveston.htm,"4111 Moncton Street, Richmond, BC V7E 3A8",Leisure / Community Centres,General,Both,Public,4111,Moncton Street,,Richmond,BC,V7E 3A8,,,"fitness, gym, racquet courts, indoor and outdoor tennis courts, sports fields, playground, water park",
,,Steveston Community Centre,https://www.richmond.ca/parksrec/centres/stevestoncentre/steveston.htm,"4111 Moncton Street, Richmond, BC V7E 3A8",Physical Recreation & Sports,Fitness centres / areas ,Indoor,Public,4111,Moncton Street,,Richmond,BC,V7E 3A8,,,"fitness, gym, racquet courts, indoor and outdoor tennis courts, sports fields, playground, water park",
,,Steveston Community Centre,https://www.richmond.ca/parksrec/centres/stevestoncentre/steveston.htm,"4111 Moncton Street, Richmond, BC V7E 3A8",Physical Recreation & Sports,Gymnasiums ,Indoor,Public,4111,Moncton Street,,Richmond,BC,V7E 3A8,,,"fitness, gym, racquet courts, indoor and outdoor tennis courts, sports fields, playground, water park",
,,Steveston Community Centre,https://www.richmond.ca/parksrec/centres/stevestoncentre/steveston.htm,"4111 Moncton Street, Richmond, BC V7E 3A8",Physical Recreation & Sports,"Racquet courts (squash, racquetball, badminton)",Indoor,Public,4111,Moncton Street,,Richmond,BC,V7E 3A8,,,"fitness, gym, racquet courts, indoor and outdoor tennis courts, sports fields, playground, water park",
,,Steveston Community Centre,https://www.richmond.ca/parksrec/centres/stevestoncentre/steveston.htm,"4111 Moncton Street, Richmond, BC V7E 3A8",Physical Recreation & Sports,Tennis and/or pickleball courts ,Both,Public,4111,Moncton Street,,Richmond,BC,V7E 3A8,,,"fitness, gym, racquet courts, indoor and outdoor tennis courts, sports fields, playground, water park",
,,City Centre Community Centre,https://www.richmond.ca/parksrec/centres/city/cityctr.htm,"5900 Minoru Blvd, Richmond, BC V6X 0L9",Leisure / Community Centres,General,Indoor,Public,5900,Minoru Boulevard,105,Richmond,BC,V6X 0L9,,,"community centre, fitness",
,,City Centre Community Centre,https://www.richmond.ca/parksrec/centres/city/cityctr.htm,"5900 Minoru Blvd, Richmond, BC V6X 0L9",Physical Recreation & Sports,Fitness centres / areas ,Indoor,Public,5900,Minoru Boulevard,105,Richmond,BC,V6X 0L9,,,"community centre, fitness",
,,Lang Centre,https://www.richmond.ca/parksrec/centres/city/cityctr.htm#Lang+Centre,"8279 Saba Rd Suite 140, Richmond, BC V6Y 4B6",Leisure / Community Centres,General,Indoor,Public,8279,Saba Road,140,Richmond,BC,V6Y 4B6,,,,
,,Vancouver International Tennis Academy,https://vancouvertennisacademy.com/,"11111 Horseshoe Way, Richmond, BC V7A 4Y1",Physical Recreation & Sports,Tennis and/or pickleball courts ,Both,Private,1111,Horseshoe Way ,,Richmond,BC,V7A 4Y1,,,"tennis, fitness, swimming, racquet courts",
,,Vancouver International Tennis Academy,https://vancouvertennisacademy.com/,"11111 Horseshoe Way, Richmond, BC V7A 4Y1",Aquatics,25m pool with or without other pools,Indoor,Private,1111,Horseshoe Way ,,Richmond,BC,V7A 4Y1,,,"tennis, fitness, swimming, racquet courts",
,,Vancouver International Tennis Academy,https://vancouvertennisacademy.com/,"11111 Horseshoe Way, Richmond, BC V7A 4Y1",Aquatics,Leisure / wading pools,Indoor,Private,1111,Horseshoe Way ,,Richmond,BC,V7A 4Y1,,,"tennis, fitness, swimming, racquet courts",
,,Vancouver International Tennis Academy,https://vancouvertennisacademy.com/,"11111 Horseshoe Way, Richmond, BC V7A 4Y1",Physical Recreation & Sports,Fitness centres / areas ,Indoor,Private,1111,Horseshoe Way ,,Richmond,BC,V7A 4Y1,,,"tennis, fitness, swimming, racquet courts",
,,Vancouver International Tennis Academy,https://vancouvertennisacademy.com/,"11111 Horseshoe Way, Richmond, BC V7A 4Y1",Physical Recreation & Sports,"Racquet courts (squash, racquetball, badminton)",Indoor,Private,1111,Horseshoe Way ,,Richmond,BC,V7A 4Y1,,,"tennis, fitness, swimming, racquet courts",
,,Richmond Tennis Club,http://www.richmondtennisclub.com/,"6820 Gilbert Rd, Richmond, BC V7C 3V4",Physical Recreation & Sports,Tennis and/or pickleball courts ,Both,Both,6820,Gilbert Road,,Richmond,BC,V7C 3V4,,,,
,,Minoru Aquatic Centre,https://www.richmond.ca/parksrec/pools/minoru.htm,"7560 Minoru Gate, Richmond, BC V6Y 1R9",Aquatics,25m pool with or without other pools,Indoor,Public,7560,Minoru Gate,,Richmond,BC,V6Y 1R9,,,"indoor pool, fitness",
,,Minoru Aquatic Centre,https://www.richmond.ca/parksrec/pools/minoru.htm,"7560 Minoru Gate, Richmond, BC V6Y 1R9",Aquatics,Leisure / wading pools,Indoor,Public,7560,Minoru Gate,,Richmond,BC,V6Y 1R9,,,"indoor pool, fitness",
,,Minoru Aquatic Centre,https://www.richmond.ca/parksrec/pools/minoru.htm,"7560 Minoru Gate, Richmond, BC V6Y 1R9",Physical Recreation & Sports,Fitness centres / areas ,Indoor,Public,7560,Minoru Gate,,Richmond,BC,V6Y 1R9,,,"indoor pool, fitness",
,,Minoru Centre for Active Living,https://www.minorucentre.ca/,"7191 Granville Ave, Richmond, BC V6Y 1N9",Leisure / Community Centres,Seniors,Indoor,Public,7191,Granville Avenue,,Richmond,BC,V6Y 1N9,,,"seniors community centre, fitness",
,,Minoru Centre for Active Living,https://www.minorucentre.ca/,"7191 Granville Ave, Richmond, BC V6Y 1N9",Physical Recreation & Sports,Fitness centres / areas ,Indoor,Public,7191,Granville Avenue,,Richmond,BC,V6Y 1N9,,,"seniors community centre, fitness",
,,Minoru Arenas,https://www.richmond.ca/parksrec/arenas/about.htm,"7551 Minoru Gate, Richmond, BC V6Y 1R8",Ice,2+ surfaces,Indoor,Public,7551,Minoru Gate,,Richmond,BC,V6Y 1R8,,,,
,,Thompson Community Centre,https://www.richmond.ca/parksrec/centres/thompsoncentre/thompson.htm,"5151 Granville Ave, Richmond, BC V7C 1E6",Leisure / Community Centres,General,Indoor,Public,5151,Granville Avenue,,Richmond,BC,V7C 1E6,,,"community centre, gym, fitness",
,,Thompson Community Centre,https://www.richmond.ca/parksrec/centres/thompsoncentre/thompson.htm,"5151 Granville Ave, Richmond, BC V7C 1E6",Physical Recreation & Sports,Gymnasiums ,Indoor,Public,5151,Granville Avenue,,Richmond,BC,V7C 1E6,,,,
,,Thompson Community Centre,https://www.richmond.ca/parksrec/centres/thompsoncentre/thompson.htm,"5151 Granville Ave, Richmond, BC V7C 1E6",Physical Recreation & Sports,Fitness centres / areas ,Indoor,Public,5151,Granville Avenue,,Richmond,BC,V7C 1E6,,,,
,,Cambie Community Centre,https://www.richmond.ca/parksrec/centres/cambiecentre/cambie.htm,"12800 Cambie Rd, Richmond, BC V6V 0A9",Leisure / Community Centres,General,Indoor,Public,12800,Cambie Road,,Richmond,BC,V6V 0A9,,,"community centre shares facilities with HJ Cambie Secondary School - gymnasiums, fitness",
,,Cambie Community Centre,https://www.richmond.ca/parksrec/centres/cambiecentre/cambie.htm,"12800 Cambie Rd, Richmond, BC V6V 0A9",Physical Recreation & Sports,Gymnasiums ,Indoor,Public,12800,Cambie Road,,Richmond,BC,V6V 0A9,,,"community centre shares facilities with HJ Cambie Secondary School - gymnasiums, fitness",
,,Cambie Community Centre,https://www.richmond.ca/parksrec/centres/cambiecentre/cambie.htm,"12800 Cambie Rd, Richmond, BC V6V 0A9",Physical Recreation & Sports,Fitness centres / areas ,Indoor,Public,12800,Cambie Road,,Richmond,BC,V6V 0A9,,,"community centre shares facilities with HJ Cambie Secondary School - gymnasiums, fitness",
,,Hamilton Community Centre,https://www.richmond.ca/parksrec/centres/hamiltonctr/hamiltoncentre.htm,"5140 Smith Dr, Richmond, BC V6V 2W5",Leisure / Community Centres,General,Indoor,Public,5140,Smith Drive,,Richmond,BC,V6V 2W5,,,"community centre, fitness",
,,Hamilton Community Centre,https://www.richmond.ca/parksrec/centres/hamiltonctr/hamiltoncentre.htm,"5140 Smith Dr, Richmond, BC V6V 2W5",Physical Recreation & Sports,Fitness centres / areas ,Indoor,Public,5140,Smith Drive,,Richmond,BC,V6V 2W5,,,"community centre, fitness",
,,Shia Muslim Community Centre,http://www.az-zahraa.org/,"8580 No 5 Rd, Richmond, BC V6Y 2V4",Leisure / Community Centres,General,Indoor,Public,8580,No 5 Road,,Richmond,BC,V6Y 2V4,,,,
,,Richmond Olympic Oval,https://richmondoval.ca/,"6111 River Rd, Richmond, BC V7C 0A2",Ice,2+ surfaces,Indoor,Public,,,,,,,,,"2 rinks, gym, running track, fitness",
,,Richmond Olympic Oval,https://richmondoval.ca/,"6111 River Rd, Richmond, BC V7C 0A2",Physical Recreation & Sports,Gymnasiums ,Indoor,Public,,,,,,,,,"2 rinks, gym, running track, fitness",
,,Richmond Olympic Oval,https://richmondoval.ca/,"6111 River Rd, Richmond, BC V7C 0A2",Physical Recreation & Sports,Running tracks (track and field),Indoor,Public,,,,,,,,,"2 rinks, gym, running track, fitness",
,,Richmond Olympic Oval,https://richmondoval.ca/,"6111 River Rd, Richmond, BC V7C 0A2",Physical Recreation & Sports,Fitness centres / areas ,Indoor,Public,,,,,,,,,"2 rinks, gym, running track, fitness",
,,Richmond Olympic Oval,https://richmondoval.ca/,"6111 River Rd, Richmond, BC V7C 0A2",Physical Recreation & Sports,Gymnasiums ,Indoor,Public,,,,,,,,,,
,,Watermania,https://www.richmond.ca/parksrec/pools/watermania.htm,"14300 Entertainment Blvd, Richmond, BC V6W 1K3",Aquatics,50m+ pool with or without other pools,Indoor,Public,,,,,,,,,"pools, spray park, fitness",
,,Watermania,https://www.richmond.ca/parksrec/pools/watermania.htm,"14300 Entertainment Blvd, Richmond, BC V6W 1K3",Aquatics,Spray parks / splash pads,Indoor,Public,,,,,,,,,"pools, spray park, fitness",
,,Watermania,https://www.richmond.ca/parksrec/pools/watermania.htm,"14300 Entertainment Blvd, Richmond, BC V6W 1K3",Aquatics,Leisure / wading pools,Indoor,Public,,,,,,,,,,
,,Watermania,https://www.richmond.ca/parksrec/pools/watermania.htm,"14300 Entertainment Blvd, Richmond, BC V6W 1K3",Physical Recreation & Sports,Fitness centres / areas ,Indoor,Public,,,,,,,,,"pools, spray park, fitness",
,,Marina's Swim School ,https://marinaswimschool.com/,"1751 Savage Rd, Richmond, BC V6V 1R1",Aquatics,25m pool with or without other pools,Indoor,Public,,,,,,,,,,
,,West Richmond Community Centre,https://www.richmond.ca/parksrec/centres/westrich/wrichmond.htm,"9180 No 1 Rd, Richmond, BC V7E 6L5",Leisure / Community Centres,General,Indoor,Public,,,,,,,,,"community centre, gym, fitness, squash, badminton",
,,West Richmond Community Centre,https://www.richmond.ca/parksrec/centres/westrich/wrichmond.htm,"9180 No 1 Rd, Richmond, BC V7E 6L5",Physical Recreation & Sports,Gymnasiums ,Indoor,Public,,,,,,,,,"community centre, gym, fitness, squash, badminton",
,,West Richmond Community Centre,https://www.richmond.ca/parksrec/centres/westrich/wrichmond.htm,"9180 No 1 Rd, Richmond, BC V7E 6L5",Physical Recreation & Sports,Fitness centres / areas ,Indoor,Public,,,,,,,,,"community centre, gym, fitness, squash, badminton",
,,West Richmond Community Centre,https://www.richmond.ca/parksrec/centres/westrich/wrichmond.htm,"9180 No 1 Rd, Richmond, BC V7E 6L5",Physical Recreation & Sports,"Racquet courts (squash, racquetball, badminton)",Indoor,Public,,,,,,,,,"community centre, gym, fitness, squash, badminton",
,,Sea Island Community Centre,https://www.richmond.ca/parksrec/centres/seaislandcentre/seaisland.htm,"7140 Miller Rd, Richmond, BC V7B 1L4",Leisure / Community Centres,General,Indoor,Public,,,,,,,,,"community centre, gym, tennis, playground",
,,Sea Island Community Centre,https://www.richmond.ca/parksrec/centres/seaislandcentre/seaisland.htm,"7140 Miller Rd, Richmond, BC V7B 1L4",Physical Recreation & Sports,Gymnasiums ,Indoor,Public,,,,,,,,,"community centre, gym, tennis, playground",
,,Badminton Vancouver,http://www.badminton-vancouver.com/,"110-13100 Mitchell Rd, Richmond, BC V6V 1M8",Physical Recreation & Sports,"Racquet courts (squash, racquetball, badminton)",Indoor,Public,,,,,,,,,,
,,Stage 18 Badminton Centre,https://www.stage18badminton.com/,"2351 No 6 Rd, Richmond, BC V6V 1P3",Physical Recreation & Sports,"Racquet courts (squash, racquetball, badminton)",Indoor,Public,,,,,,,,,,
,,Richmond Pro Badminton Centre,https://rprobadminton.wordpress.com/,"5800 Minoru Blvd, Richmond, BC V6X 2B1",Physical Recreation & Sports,"Racquet courts (squash, racquetball, badminton)",Indoor,Private,,,,,,,,,,
,Coquitlam,Poirier Sport & Leisure Complex,https://www.coquitlam.ca/parks-recreation-and-culture/sport-and-recreation/sports-facilities/indoors/poirier-sport-leisure-complex.aspx,"633 Poirier St, Coquitlam, BC V3J 6A9",Ice,Single surface,Indoor,Public,633,Poirier Street,,Coquitlam,BC,V3J 6A9,,,"ice rink, 2 pools, fitness, indoor track",
,,Poirier Sport & Leisure Complex,https://www.coquitlam.ca/parks-recreation-and-culture/sport-and-recreation/sports-facilities/indoors/poirier-sport-leisure-complex.aspx,"633 Poirier St, Coquitlam, BC V3J 6A9",Aquatics,25m pool with or without other pools,Indoor,Public,633,Poirier Street,,Coquitlam,BC,V3J 6A9,,,"ice rink, 2 pools, fitness, indoor track",
,,Poirier Sport & Leisure Complex,https://www.coquitlam.ca/parks-recreation-and-culture/sport-and-recreation/sports-facilities/indoors/poirier-sport-leisure-complex.aspx,"633 Poirier St, Coquitlam, BC V3J 6A9",Aquatics,Leisure / wading pools,Indoor,Public,633,Poirier Street,,Coquitlam,BC,V3J 6A9,,,"ice rink, 2 pools, fitness, indoor track",
,,Poirier Sport & Leisure Complex,https://www.coquitlam.ca/parks-recreation-and-culture/sport-and-recreation/sports-facilities/indoors/poirier-sport-leisure-complex.aspx,"633 Poirier St, Coquitlam, BC V3J 6A9",Physical Recreation & Sports,Fitness centres / areas ,Indoor,Public,633,Poirier Street,,Coquitlam,BC,V3J 6A9,,,"ice rink, 2 pools, fitness, indoor track",
,,Poirier Sport & Leisure Complex,https://www.coquitlam.ca/parks-recreation-and-culture/sport-and-recreation/sports-facilities/indoors/poirier-sport-leisure-complex.aspx,"633 Poirier St, Coquitlam, BC V3J 6A9",Physical Recreation & Sports,Running tracks (track and field),Indoor,Public,633,Poirier Street,,Coquitlam,BC,V3J 6A9,,,"ice rink, 2 pools, fitness, indoor track",
,,Smiling Creek Activity Centre,https://www.coquitlam.ca/parks-recreation-and-culture/sport-and-recreation/recreation-centres/smiling-creek-activity-centre,"3456 Princeton Ave, Coquitlam, BC V3E 3H1",Leisure / Community Centres,General,Indoor,Public,3456,Princeton Avenue,,Coquitlam,BC,V3E 3H1,,,"community centre located within Smiling Creek Elementary School, gym, sports courts, playgrounds",
,,Smiling Creek Activity Centre,https://www.coquitlam.ca/parks-recreation-and-culture/sport-and-recreation/recreation-centres/smiling-creek-activity-centre,"3456 Princeton Ave, Coquitlam, BC V3E 3H1",Physical Recreation & Sports,Gymnasiums ,Indoor,Public,3456,Princeton Avenue,,Coquitlam,BC,V3E 3H1,,,"community centre located within Smiling Creek Elementary School, gym, sports courts, playgrounds",
,,City Centre Aquatic Complex,https://www.coquitlam.ca/parks-recreation-and-culture/sport-and-recreation/sports-facilities/indoors/city-centre-aquatic-complex.aspx,"1210 Pinetree Way, Coquitlam, BC V3B 7T8",Aquatics,50m+ pool with or without other pools,Indoor,Public,1210,Pinetree Way,,Coquitlam,BC,V3B 7T8,,,"Olympic-sized pool, wave pool, fitness",
,,City Centre Aquatic Complex,https://www.coquitlam.ca/parks-recreation-and-culture/sport-and-recreation/sports-facilities/indoors/city-centre-aquatic-complex.aspx,"1210 Pinetree Way, Coquitlam, BC V3B 7T8",Aquatics,25m pool with or without other pools,Indoor,Public,1210,Pinetree Way,,Coquitlam,BC,V3B 7T8,,,"Olympic-sized pool, wave pool, fitness",
,,City Centre Aquatic Complex,https://www.coquitlam.ca/parks-recreation-and-culture/sport-and-recreation/sports-facilities/indoors/city-centre-aquatic-complex.aspx,"1210 Pinetree Way, Coquitlam, BC V3B 7T8",Aquatics,Leisure / wading pools,Indoor,Public,1210,Pinetree Way,,Coquitlam,BC,V3B 7T8,,,"Olympic-sized pool, wave pool, fitness",
,,City Centre Aquatic Complex,https://www.coquitlam.ca/parks-recreation-and-culture/sport-and-recreation/sports-facilities/indoors/city-centre-aquatic-complex.aspx,"1210 Pinetree Way, Coquitlam, BC V3B 7T8",Physical Recreation & Sports,Fitness centres / areas ,Indoor,Public,1210,Pinetree Way,,Coquitlam,BC,V3B 7T8,,,"Olympic-sized pool, wave pool, fitness",
,,Planet Ice ,https://planetice.ca/coquitlam/,"2300 Rocket Way, Coquitlam, BC V3K 6Z2",Ice,2+ surfaces,Indoor,Public,2300,Rocket Way,,Coquitlam,BC,V3K 6Z2,,,"4 rinks, Innovative fitness club",
,,Planet Ice ,https://planetice.ca/coquitlam/,"2300 Rocket Way, Coquitlam, BC V3K 6Z2",Physical Recreation & Sports,Fitness centres / areas ,Indoor,Private,2300,Rocket Way,,Coquitlam,BC,V3K 6Z2,,,"4 rinks, Innovative fitness club",
,,Centennial Activity Centre,https://www.coquitlam.ca/parks-recreation-and-culture/sport-and-recreation/recreation-centres/centennial-activity-centre.aspx,"578 Poirier St, Coquitlam, BC  V3J 6A8",Physical Recreation & Sports,Gymnasiums ,Indoor,Public,578,Poirier Street,,Coquitlam,BC,V3J 6A8,,,,
,,The Tennis Centre,http://coquitlam.thetenniscentre.ca/,"1650 Foster Ave, Coquitlam, BC V3J 7X1",Physical Recreation & Sports,Tennis and/or pickleball courts ,Both,Public,5891,144 Street,,Coquitlam,BC,V3X 1A6,,,,
,,Place Maillardville Community Centre,http://www.placemaillardville.ca/,"1200 Cartier Ave, Coquitlam, BC V3K 2C3",Leisure / Community Centres,General,Indoor,Public,,,,,,,,,"community centre with programs for children, youth, adults, families and seniors",
,,Poirier Community Centre,https://www.coquitlam.ca/parks-recreation-and-culture/sport-and-recreation/recreation-centres/poirier-community-centre.aspx,"630 Poirier St, Coquitlam, BC  V3J 6B1",Leisure / Community Centres,General,Indoor,Public,,,,,,,,,"community centre, fitness",
,,Poirier Community Centre,https://www.coquitlam.ca/parks-recreation-and-culture/sport-and-recreation/recreation-centres/poirier-community-centre.aspx,"630 Poirier St, Coquitlam, BC  V3J 6B1",Physical Recreation & Sports,Fitness centres / areas ,Indoor,Public,,,,,,,,,"community centre, fitness",
,,Glen Pine Pavilion,https://www.coquitlam.ca/parks-recreation-and-culture/sport-and-recreation/recreation-centres/glen-pine-pavilion.aspx,"1200 Glen Pine Court, Coquitlam, BC V3B 2P7",Leisure / Community Centres,General,Indoor,Public,,,,,,,,,"adult community centre, fitness",
,,Glen Pine Pavilion,https://www.coquitlam.ca/parks-recreation-and-culture/sport-and-recreation/recreation-centres/glen-pine-pavilion.aspx,"1200 Glen Pine Court, Coquitlam, BC V3B 2P7",Physical Recreation & Sports,Fitness centres / areas ,Indoor,Public,,,,,,,,,"adult community centre, fitness",
,,West Coast Swim School,https://westcoastss.ca/,"631 Lougheed Hwy, Coquitlam, BC V3K 3S5",Aquatics,25m pool with or without other pools,Indoor,Public,,,,,,,,,swim lessons at Ramada ,
,,Dogwood Pavilion,https://www.coquitlam.ca/parks-recreation-and-culture/sport-and-recreation/recreation-centres/dogwood-pavilion.aspx,"1655 Winslow Ave, Coquitlam, BC V3J 0E7",Leisure / Community Centres,General,Indoor,Public,,,,,,,,,,
,,Chimo Aquatic and Fitness Centre,https://enacademic.com/dic.nsf/enwiki/10605488,633 Poirier St V3J 6A9,Aquatics,25m pool with or without other pools,Indoor,Public,,,,,,,,,"pools, fitness",
,,Chimo Aquatic and Fitness Centre,https://enacademic.com/dic.nsf/enwiki/10605488,633 Poirier St V3J 6A9,Physical Recreation & Sports,Fitness centres / areas ,Indoor,Public,,,,,,,,,"pools, fitness",
,,Chimo Aquatic and Fitness Centre,https://enacademic.com/dic.nsf/enwiki/10605488,633 Poirier St V3J 6A9,Aquatics,Leisure / wading pools,Indoor,Public,,,,,,,,,"pools, fitness",
,,Chimo Aquatic and Fitness Centre,https://enacademic.com/dic.nsf/enwiki/10605488,633 Poirier St V3J 6A9,Aquatics,Spray parks / splash pads,Indoor,Public,,,,,,,,,"pools, fitness",
,,Summit Community Centre,https://www.coquitlam.ca/parks-recreation-and-culture/sport-and-recreation/recreation-centres/summit-community-centre.aspx,"1450 Parkway Blvd, Coquitlam, BC V3E 3L2",Leisure / Community Centres,General,Indoor,Public,,,,,,,,,"pools, fitness",
,,Summit Community Centre,https://www.coquitlam.ca/parks-recreation-and-culture/sport-and-recreation/recreation-centres/summit-community-centre.aspx,"1450 Parkway Blvd, Coquitlam, BC V3E 3L2",Physical Recreation & Sports,Gymnasiums ,Indoor,Public,,,,,,,,,"pools, fitness",
,,Pinetree Community Centre,https://www.coquitlam.ca/parks-recreation-and-culture/sport-and-recreation/recreation-centres/pinetree-community-centre.aspx,"1260 Pinetree Way, Coquitlam, BC  V3B 7Z4",Leisure / Community Centres,General,Indoor,Public,,,,,,,,,"community centre, fitness, gym",
,,Pinetree Community Centre,https://www.coquitlam.ca/parks-recreation-and-culture/sport-and-recreation/recreation-centres/pinetree-community-centre.aspx,"1260 Pinetree Way, Coquitlam, BC  V3B 7Z4",Physical Recreation & Sports,Gymnasiums ,Indoor,Public,,,,,,,,,"community centre, fitness, gym",
,,Pinetree Community Centre,https://www.coquitlam.ca/parks-recreation-and-culture/sport-and-recreation/recreation-centres/pinetree-community-centre.aspx,"1260 Pinetree Way, Coquitlam, BC  V3B 7Z4",Physical Recreation & Sports,Fitness centres / areas ,Indoor,Public,,,,,,,,,"community centre, fitness, gym",
,Langley (DM),Canlan Ice Sports,https://www.icesports.com/langleytwin/,"5700 Langley Bypass, Langley City, BC V3A 8L7",Ice,2+ surfaces,Indoor,Private,5700,Langley Bypass,,Langley City,BC,V3A 8L7,,,,
,,Walnut Grove Community Centre,https://www.tol.ca/recreation-culture/facilities/walnut-grove-community-centre/,"8889 Walnut Grove Dr, Langley Twp, BC V1M 2N7",Aquatics,50m+ pool with or without other pools,Indoor,Public,,,,,,,,,"pool, gym, fitness",
,,Walnut Grove Community Centre,https://www.tol.ca/recreation-culture/facilities/walnut-grove-community-centre/,"8889 Walnut Grove Dr, Langley Twp, BC V1M 2N7",Physical Recreation & Sports,Gymnasiums ,Indoor,Public,,,,,,,,,"pool, gym, fitness",
,,Walnut Grove Community Centre,https://www.tol.ca/recreation-culture/facilities/walnut-grove-community-centre/,"8889 Walnut Grove Dr, Langley Twp, BC V1M 2N7",Physical Recreation & Sports,Fitness centres / areas ,Indoor,Public,,,,,,,,,"pool, gym, fitness",
,,Walnut Grove Community Centre,https://www.tol.ca/recreation-culture/facilities/walnut-grove-community-centre/,"8889 Walnut Grove Dr, Langley Twp, BC V1M 2N7",Aquatics,Leisure / wading pools,Indoor,Public,,,,,,,,,"pool, gym, fitness",
,,Aldergrove Kinsmen Community Centre,https://www.tol.ca/recreation-culture/facilities/aldergrove-kinsmen-community-centre/,"26770 29 Ave, Langley Twp, BC V4W 3B8",Leisure / Community Centres,General,Indoor,Public,,,,,,,,,,
,,Aldergrove Credit Union Community Centre,https://www.tol.ca/recreation-culture/facilities/aldergrove-credit-union-community-centre/,"27032 Fraser Hwy, Aldergrove, BC V4W 3P6",Ice,Single surface,Indoor,Public,,,,,,,,,"ice, pool, fitness",
,,Aldergrove Credit Union Community Centre,https://www.tol.ca/recreation-culture/facilities/aldergrove-credit-union-community-centre/,"27032 Fraser Hwy, Aldergrove, BC V4W 3P6",Physical Recreation & Sports,Fitness centres / areas ,Indoor,Public,,,,,,,,,"ice, pool, fitness",
,Delta,Tilbury Ice,http://www.delta.ca/parks-recreation/sport-recreation/indoor-facilities/tilbury-ice,"7187 Vantage Way, Delta, BC V4G 1K7",Ice,Single surface,Indoor,Public,7187,Vantage Way,,Delta,BC,V4G 1K7,,,,
,,Delta Thistle Curling Club,https://deltathistle.ca/,"11415 84 Ave, Delta, BC V4C 2L9",Ice,Curling,Indoor,Public,11415,84 Avenue,,Delta,BC,V4C 2L9,,,,
,,Great Pacific Forum Planet Ice Delta,https://planetice.ca/delta/index.cfm,"10388 Nordel Ct, Delta, BC V4G 1J7",Ice,2+ surfaces,Indoor,Public,10387,Nordel Court,,Delta,BC,V4G 2L2,,,,
,,North Delta Recreation Centre,http://www.delta.ca/parks-recreation/sport-recreation/indoor-facilities/north-delta-recreation-centre,"11415 84 Ave, Delta, BC V4C 2L9",Ice,2+ surfaces,Indoor,Public,11415,84 Avenue,,Delta,BC,V4C 2L9,,,"ice arena, outdoor pool, gym, fitness, curling",
,,North Delta Recreation Centre,http://www.delta.ca/parks-recreation/sport-recreation/indoor-facilities/north-delta-recreation-centre,"11415 84 Ave, Delta, BC V4C 2L9",Ice,Curling,Indoor,Public,11415,84 Avenue,,Delta,BC,V4C 2L9,,,"ice arena, outdoor pool, gym, fitness, curling",
,,North Delta Recreation Centre,http://www.delta.ca/parks-recreation/sport-recreation/indoor-facilities/north-delta-recreation-centre,"11415 84 Ave, Delta, BC V4C 2L9",Physical Recreation & Sports,Gymnasiums ,Indoor,Public,11415,84 Avenue,,Delta,BC,V4C 2L9,,,"ice arena, outdoor pool, gym, fitness, curling",
,,North Delta Recreation Centre,http://www.delta.ca/parks-recreation/sport-recreation/indoor-facilities/north-delta-recreation-centre,"11415 84 Ave, Delta, BC V4C 2L9",Physical Recreation & Sports,Fitness centres / areas ,Indoor,Public,11415,84 Avenue,,Delta,BC,V4C 2L9,,,"ice arena, outdoor pool, gym, fitness, curling",
,,Sungod Recreation Centre,http://www.delta.ca/parks-recreation/sport-recreation/indoor-facilities/sungod-recreation-centre,"7815 112 St, Delta, BC V4C 4V9",Ice,Single surface,Indoor,Public,7815,112 Street ,,Delta,BC,V4C 4V9,,,"arena, 5 pools, fitness, gym",
,,Sungod Recreation Centre,http://www.delta.ca/parks-recreation/sport-recreation/indoor-facilities/sungod-recreation-centre,"7815 112 St, Delta, BC V4C 4V9",Aquatics,25m pool with or without other pools,Indoor,Public,7815,112 Street ,,Delta,BC,V4C 4V9,,,"arena, 5 pools, fitness, gym",
,,Sungod Recreation Centre,http://www.delta.ca/parks-recreation/sport-recreation/indoor-facilities/sungod-recreation-centre,"7815 112 St, Delta, BC V4C 4V9",Aquatics,Leisure / wading pools,Indoor,Public,7815,112 Street ,,Delta,BC,V4C 4V9,,,"arena, 5 pools, fitness, gym",
,,Sungod Recreation Centre,http://www.delta.ca/parks-recreation/sport-recreation/indoor-facilities/sungod-recreation-centre,"7815 112 St, Delta, BC V4C 4V9",Physical Recreation & Sports,Fitness centres / areas ,Indoor,Public,7815,112 Street ,,Delta,BC,V4C 4V9,,,"arena, 5 pools, fitness, gym",
,,Sungod Recreation Centre,http://www.delta.ca/parks-recreation/sport-recreation/indoor-facilities/sungod-recreation-centre,"7815 112 St, Delta, BC V4C 4V9",Physical Recreation & Sports,Gymnasiums ,Indoor,Public,7815,112 Street ,,Delta,BC,V4C 4V9,,,"arena, 5 pools, fitness, gym",
,,Tunnel Town Curling Club,http://www.tunneltowncurlingclub.com/,"1720 56 St, Delta, BC V4L 2B1",Ice,Curling,Indoor,Both,1720,56 Street,,Delta,BC,V4L 2B1,,,,
,,Sunshine Hills Tennis Club,https://www.sunshinehillstennisclub.com/,"6748 Carncross Crescent, Delta, BC V4E 2L5",Physical Recreation & Sports,Tennis and/or pickleball courts ,Both,Private,6748,Carncross Crescenet,,Delta,BC,V4E 2L5,,,,
,,Boys & Girls Clubs of South Coast BC,https://bgcbc.ca/locations/hillside/,"11339 84 Ave, Delta, BC V4C 2L9",Leisure / Community Centres,Youth,Indoor,Public,,,,,,,,,,
,,Ladner Community Centre,http://www.delta.ca/parks-recreation/sport-recreation/indoor-facilities/ladner-community-centre,"4734 51 St, Delta, BC V4K 3R8",Leisure / Community Centres,General,Indoor,Public,,,,,,,,,"community centre, pickleball",
,,Ladner Community Centre,http://www.delta.ca/parks-recreation/sport-recreation/indoor-facilities/ladner-community-centre,"4734 51 St, Delta, BC V4K 3R8",Physical Recreation & Sports,Tennis and/or pickleball courts ,Indoor,Public,,,,,,,,,"community centre, pickleball",
,,Ladner Leisure Centre,http://delta.ca/parks-recreation/sport-recreation/indoor-facilities/ladner-leisure-centre,"4600 Clarence Taylor Crescent, Delta, BC V4K 3X3",Aquatics,25m pool with or without other pools,Indoor,Public,,,,,,,,,"pools, arena, fitness",
,,Ladner Leisure Centre,http://delta.ca/parks-recreation/sport-recreation/indoor-facilities/ladner-leisure-centre,"4600 Clarence Taylor Crescent, Delta, BC V4K 3X3",Aquatics,Leisure / wading pools,Indoor,Public,,,,,,,,,"pools, arena, fitness",
,,Ladner Leisure Centre,http://delta.ca/parks-recreation/sport-recreation/indoor-facilities/ladner-leisure-centre,"4600 Clarence Taylor Crescent, Delta, BC V4K 3X3",Ice,Single surface,Indoor,Public,,,,,,,,,"pools, arena (gym in summer), fitness",
,,Ladner Leisure Centre,http://delta.ca/parks-recreation/sport-recreation/indoor-facilities/ladner-leisure-centre,"4600 Clarence Taylor Crescent, Delta, BC V4K 3X3",Physical Recreation & Sports,Gymnasiums ,Indoor,Public,,,,,,,,,"pools, arena (gym in summer), fitness",
,,Ladner Leisure Centre,http://delta.ca/parks-recreation/sport-recreation/indoor-facilities/ladner-leisure-centre,"4600 Clarence Taylor Crescent, Delta, BC V4K 3X3",Physical Recreation & Sports,Fitness centres / areas ,Indoor,Public,,,,,,,,,"pools, arena (gym in summer), fitness",
,,Winskill Aquatic and Fitness Centre,http://www.delta.ca/parks-recreation/sport-recreation/indoor-facilities/winskill-aquatic-and-fitness-centre,"5575 9 Ave, Delta, BC  V4M 1W1",Aquatics,25m pool with or without other pools,Indoor,Public,,,,,,,,,"pool, fitness",
,,Winskill Aquatic and Fitness Centre,http://www.delta.ca/parks-recreation/sport-recreation/indoor-facilities/winskill-aquatic-and-fitness-centre,"5575 9 Ave, Delta, BC  V4M 1W1",Aquatics,Leisure / wading pools,Indoor,Public,,,,,,,,,"pool, fitness",
,,Winskill Aquatic and Fitness Centre,http://www.delta.ca/parks-recreation/sport-recreation/indoor-facilities/winskill-aquatic-and-fitness-centre,"5575 9 Ave, Delta, BC  V4M 1W1",Physical Recreation & Sports,Fitness centres / areas ,Indoor,Public,,,,,,,,,"pool, fitness",
,,South Delta Recreation Centre,http://www.delta.ca/parks-recreation/sport-recreation/indoor-facilities/south-delta-recreation-centre,"1720 56 St, Delta, BC V4L 2B1",Ice,Single surface,Indoor,Public,,,,,,,,,"arena, gym",
,,South Delta Recreation Centre,http://www.delta.ca/parks-recreation/sport-recreation/indoor-facilities/south-delta-recreation-centre,"1720 56 St, Delta, BC V4L 2B1",Physical Recreation & Sports,Gymnasiums ,Indoor,Public,,,,,,,,,"arena, gym",
,,South Delta Recreation Centre,http://www.delta.ca/parks-recreation/sport-recreation/indoor-facilities/south-delta-recreation-centre,"1720 56 St, Delta, BC V4L 2B1",Ice,Curling,Indoor,Public,,,,,,,,,,
,,McKee Senior's Recreation Centre,http://www.delta.ca/services/seniors/seniors-recreation-centres/lists/seniors-recreation-centres/mckee-seniors-recreation-centre,"5155 47 Ave, Delta, BC  V4K 0A2",Leisure / Community Centres,Seniors,Indoor,Public,,,,,,,,,,
,"North Vancouver, DM",Canlan Ice Sports,https://www.icesports.com/CORPORATE/facility-listings.aspx,"2411 Mt Seymour Pkwy, North Vancouver, BC V7H 2Y9",Ice,2+ surfaces,Indoor,Private,2411,Mount Seymour Parkway,,North Vancouver,BC,V7H 2Y9,,,,
,,Delbrook Community Recreation Centre,https://www.nvrc.ca/facilities-fields/locations-hours/community-recreation-centres/delbrook-community-recreation-centre,"851 W Queens Rd, North Vancouver, BC V7N 4E3",Leisure / Community Centres,General,Indoor,Public,851,W Queens Road,,North Vancouver,BC,V7N 4E3,,,"community centre with 2 pools, fitness, gym, racquet courts",
,,Delbrook Community Recreation Centre,https://www.nvrc.ca/facilities-fields/locations-hours/community-recreation-centres/delbrook-community-recreation-centre,"851 W Queens Rd, North Vancouver, BC V7N 4E3",Aquatics,25m pool with or without other pools,Indoor,Public,851,W Queens Road,,North Vancouver,BC,V7N 4E3,,,"community centre with 2 pools, fitness, gym, racquet courts",
,,Delbrook Community Recreation Centre,https://www.nvrc.ca/facilities-fields/locations-hours/community-recreation-centres/delbrook-community-recreation-centre,"851 W Queens Rd, North Vancouver, BC V7N 4E3",Aquatics,Leisure / wading pools,Indoor,Public,,,,,,,,,,
,,Delbrook Community Recreation Centre,https://www.nvrc.ca/facilities-fields/locations-hours/community-recreation-centres/delbrook-community-recreation-centre,"851 W Queens Rd, North Vancouver, BC V7N 4E3",Physical Recreation & Sports,Fitness centres / areas ,Indoor,Public,851,W Queens Road,,North Vancouver,BC,V7N 4E3,,,"community centre with 2 pools, fitness, gym, racquet courts",
,,Delbrook Community Recreation Centre,https://www.nvrc.ca/facilities-fields/locations-hours/community-recreation-centres/delbrook-community-recreation-centre,"851 W Queens Rd, North Vancouver, BC V7N 4E3",Physical Recreation & Sports,Gymnasiums ,Indoor,Public,851,W Queens Road,,North Vancouver,BC,V7N 4E3,,,"community centre with 2 pools, fitness, gym, racquet courts",
,,Delbrook Community Recreation Centre,https://www.nvrc.ca/facilities-fields/locations-hours/community-recreation-centres/delbrook-community-recreation-centre,"851 W Queens Rd, North Vancouver, BC V7N 4E3",Physical Recreation & Sports,"Racquet courts (squash, racquetball, badminton)",Indoor,Public,851,W Queens Road,,North Vancouver,BC,V7N 4E3,,,"community centre with 2 pools, fitness, gym, racquet courts",
,,North Shore Winter Club,https://www.nswc.ca/,"1325 Keith Rd E, North Vancouver, BC V7J 1J3",Ice,2+ surfaces,Indoor,Private,1325,Keith Road E,,North Vancouver,BC,V7J 1J3,,,"3 ice rinks, 11 tennis courts, 2 outdoor pools, fitness, racquet courts ",
,,North Shore Winter Club,https://www.nswc.ca/,"1325 Keith Rd E, North Vancouver, BC V7J 1J3",Physical Recreation & Sports,Fitness centres / areas ,Indoor,Private,1325,Keith Road E,,North Vancouver,BC,V7J 1J3,,,"3 ice rinks, 11 tennis courts, 2 outdoor pools, fitness, racquet courts ",
,,North Shore Winter Club,https://www.nswc.ca/,"1325 Keith Rd E, North Vancouver, BC V7J 1J3",Physical Recreation & Sports,"Racquet courts (squash, racquetball, badminton)",Indoor,Private,1325,Keith Road E,,North Vancouver,BC,V7J 1J3,,,"3 ice rinks, 11 tennis courts, 2 outdoor pools, fitness, racquet courts ",
,,Seylynn Community Recreation Centre,https://www.nvrc.ca/facilities-fields/locations-hours/community-recreation-centres/seylynn-community-recreation-centre,"625 Mountain Hwy, North Vancouver, BC V7J 2L5",Leisure / Community Centres,General,Indoor,Public,625,Mountain Highway Avenue,,North Vancouver,BC,V7J 2L5,,,minimal information on website - community centre with few fitness programs,
,,Seylynn Community Recreation Centre,https://www.nvrc.ca/facilities-fields/locations-hours/community-recreation-centres/seylynn-community-recreation-centre,"625 Mountain Hwy, North Vancouver, BC V7J 2L5",Physical Recreation & Sports,Fitness centres / areas ,Indoor,Public,625,Mountain Highway Avenue,,North Vancouver,BC,V7J 2L5,,,minimal information on website - community centre with few fitness programs,
,,John Braithwaite Community Centre,https://www.nvrc.ca/facilities-fields/locations-hours/community-recreation-centres/john-braithwaite-community-centre,"145 W 1st St, North Vancouver, BC V7M 1B1",Leisure / Community Centres,General,Indoor,Public,145,W 1st Street,,North Vancouver,BC,V7M 1B1,,,"community centre with senior's centre, fitness, gym, badminton, pickleball",
,,John Braithwaite Community Centre,https://www.nvrc.ca/facilities-fields/locations-hours/community-recreation-centres/john-braithwaite-community-centre,"145 W 1st St, North Vancouver, BC V7M 1B1",Physical Recreation & Sports,Fitness centres / areas ,Indoor,Public,145,W 1st Street,,North Vancouver,BC,V7M 1B1,,,"community centre with senior's centre, fitness, gym, badminton, pickleball",
,,John Braithwaite Community Centre,https://www.nvrc.ca/facilities-fields/locations-hours/community-recreation-centres/john-braithwaite-community-centre,"145 W 1st St, North Vancouver, BC V7M 1B1",Physical Recreation & Sports,Gymnasiums ,Indoor,Public,145,W 1st Street,,North Vancouver,BC,V7M 1B1,,,"community centre with senior's centre, fitness, gym, badminton, pickleball",
,,John Braithwaite Community Centre,https://www.nvrc.ca/facilities-fields/locations-hours/community-recreation-centres/john-braithwaite-community-centre,"145 W 1st St, North Vancouver, BC V7M 1B1",Physical Recreation & Sports,"Racquet courts (squash, racquetball, badminton)",Indoor,Public,145,W 1st Street,,North Vancouver,BC,V7M 1B1,,,"community centre with senior's centre, fitness, gym, badminton, pickleball",
,,John Braithwaite Community Centre,https://www.nvrc.ca/facilities-fields/locations-hours/community-recreation-centres/john-braithwaite-community-centre,"145 W 1st St, North Vancouver, BC V7M 1B1",Physical Recreation & Sports,Tennis and/or pickleball courts ,Indoor,Public,145,W 1st Street,,North Vancouver,BC,V7M 1B1,,,"community centre with senior's centre, fitness, gym, badminton, pickleball",
,,Harry Jerome Community Recreation Centre,https://www.nvrc.ca/facilities-fields/locations-hours/community-recreation-centres/harry-jerome-community-recreation,"123 23rd St E, North Vancouver, BC V7L 3E2",Leisure / Community Centres,General,Indoor,Public,123,23rd Avenue ,,North Vancouver,BC,V7L 3E2,,,"community centre, pool, fitness",
,,Harry Jerome Community Recreation Centre,https://www.nvrc.ca/facilities-fields/locations-hours/community-recreation-centres/harry-jerome-community-recreation,"123 23rd St E, North Vancouver, BC V7L 3E2",Aquatics,25m pool with or without other pools,Indoor,Public,123,23rd Avenue ,,North Vancouver,BC,V7L 3E2,,,"community centre, pool, fitness",
,,Harry Jerome Community Recreation Centre,https://www.nvrc.ca/facilities-fields/locations-hours/community-recreation-centres/harry-jerome-community-recreation,"123 23rd St E, North Vancouver, BC V7L 3E2",Physical Recreation & Sports,Fitness centres / areas ,Indoor,Public,123,23rd Avenue ,,North Vancouver,BC,V7L 3E2,,,"community centre, pool, fitness",
,,Harry Jerome Community Recreation Centre,https://www.nvrc.ca/facilities-fields/locations-hours/community-recreation-centres/harry-jerome-community-recreation,"123 23rd St E, North Vancouver, BC V7L 3E2",Ice,Single surface,Indoor,Public,123,23rd Avenue ,,North Vancouver,BC,V7L 3E2,,,"community centre, pool, fitness",
,,Chief Joe Mathias Centre,https://www.squamish.net/,"123 23rd St E, North Vancouver, BC V7L 3E2",Leisure / Community Centres,General,Indoor,Public,123,23rd Avenue ,,North Vancouver,BC,V7L 3E2,,,"community centre, Aboriginal",
,,Mickey McDougall Community Recreation Centre,https://www.nvrc.ca/facilities-fields/locations-hours/community-recreation-centres/mickey-mcdougall-community-recreation,"240 23rd St E, North Vancouver, BC V7L 3L2",Physical Recreation & Sports,Gymnasiums ,Indoor,Public,240,23rd Street E,,North Vancouver,BC,V7L 3L2,,,"gym, badminton",
,,Mickey McDougall Community Recreation Centre,https://www.nvrc.ca/facilities-fields/locations-hours/community-recreation-centres/mickey-mcdougall-community-recreation,"240 23rd St E, North Vancouver, BC V7L 3L2",Physical Recreation & Sports,"Racquet courts (squash, racquetball, badminton)",Indoor,Public,240,23rd Street E,,North Vancouver,BC,V7L 3L2,,,"gym, badminton",
,,Karen Magnussen Community Recreation Centre,https://www.nvrc.ca/facilities-fields/locations-hours/community-recreation-centres/karen-magnussen-community-recreation,"2300 Kirkstone Rd, North Vancouver, BC V7J 1Z6",Aquatics,25m pool with or without other pools,Indoor,Public,2300,Kirkstone Road,,North Vancouver,BC,V7J 1Z6,,,"pool, fitness",
,,Karen Magnussen Community Recreation Centre,https://www.nvrc.ca/facilities-fields/locations-hours/community-recreation-centres/karen-magnussen-community-recreation,"2300 Kirkstone Rd, North Vancouver, BC V7J 1Z6",Physical Recreation & Sports,Fitness centres / areas ,Indoor,Public,2300,Kirkstone Road,,North Vancouver,BC,V7J 1Z6,,,"pool, fitness",
,,Ron Andrews Community Recreation Centre,https://www.nvrc.ca/facilities-fields/locations-hours/community-recreation-centres/ron-andrews-community-recreation,"931 Lytton St, North Vancouver, BC V7H 2M5",Aquatics,25m pool with or without other pools,Indoor,Public,931,Lytton Street,,North Vancouver,BC,V7H 2M5,,,"pool, racquet courts, fitness",
,,Ron Andrews Community Recreation Centre,https://www.nvrc.ca/facilities-fields/locations-hours/community-recreation-centres/ron-andrews-community-recreation,"931 Lytton St, North Vancouver, BC V7H 2M5",Physical Recreation & Sports,"Racquet courts (squash, racquetball, badminton)",Indoor,Public,931,Lytton Street,,North Vancouver,BC,V7H 2M5,,,"pool, racquet courts, fitness",
,,Ron Andrews Community Recreation Centre,https://www.nvrc.ca/facilities-fields/locations-hours/community-recreation-centres/ron-andrews-community-recreation,"931 Lytton St, North Vancouver, BC V7H 2M5",Physical Recreation & Sports,Fitness centres / areas ,Indoor,Public,931,Lytton Street,,North Vancouver,BC,V7H 2M5,,,"pool, racquet courts, fitness",
,,Lynn Valley Community Recreation Centre,https://www.nvrc.ca/facilities-fields/locations-hours/community-recreation-centres/lynn-valley-community-recreation,"3590 Mountain Hwy, North Vancouver, BC V7K 0A2",Physical Recreation & Sports,Fitness centres / areas ,Indoor,Public,3590,Mountain Highway Avenue,,North Vancouver,BC,V7K 0A2,,,,
,,Parkgate Community Centre,https://www.myparkgate.com/,"3625 Banff Ct, North Vancouver, BC V7H 2Z8",Leisure / Community Centres,General,Indoor,Public,3625,Banff Court,,North Vancouver,BC,V7H 2Z8,,,"community centre, gym, fitness",
,,Parkgate Community Centre,https://www.myparkgate.com/,"3625 Banff Ct, North Vancouver, BC V7H 2Z8",Physical Recreation & Sports,Gymnasiums ,Indoor,Public,3625,Banff Court,,North Vancouver,BC,V7H 2Z8,,,"community centre, gym, fitness",
,,Parkgate Community Centre,https://www.myparkgate.com/,"3625 Banff Ct, North Vancouver, BC V7H 2Z8",Physical Recreation & Sports,Fitness centres / areas ,Indoor,Public,3625,Banff Court,,North Vancouver,BC,V7H 2Z8,,,"community centre, gym, fitness",
,,North Vancouver Tennis Centre,https://www.nvrc.ca/facilities-fields/locations-hours/community-recreation-centres/north-vancouver-tennis-centre,"280 Lloyd Ave, North Vancouver, BC V7P 3H3",Physical Recreation & Sports,Tennis and/or pickleball courts ,Indoor,Public,280,Lloyd Avenue,,North Vancouver,BC,V7P 3H3,,,,
,,Capilano Tennis Club,https://www.capilanotennisclub.com/,"2500 Capilano Rd, North Vancouver, BC V7R 4H2",Physical Recreation & Sports,Tennis and/or pickleball courts ,Both,Private,2500,Capilano Road,,North Vancouver,,V7R 4H2,,,,
,,North Shore Neighbourhood House,https://www.nsnh.bc.ca/,"225 2nd St E, North Vancouver, BC V7L 1C4",Leisure / Community Centres,General,Indoor,Public,225,2nd Street E,,North Vancouver,BC,V7L 1C4,,,,
,,North Shore Neighbourhood House,https://www.nsnh.bc.ca/,"225 2nd St E, North Vancouver, BC V7L 1C4",Physical Recreation & Sports,Gymnasiums ,Indoor,Public,225,2nd Street E,,North Vancouver,BC,V7L 1C4,,,,
,,Tsleil-Waututh Cultural and Recreation Centre,https://www.google.ca/search?source=hp&ei=Iv4lXtvwG4q1tAbSsr6IAQ&q=tsleil-waututh+cultural+and+recreation+centre&oq=tsleil-waututh+cult&gs_l=psy-ab.3.0.0.22.12559..13972...2.0..0.172.2098.12j8......0....1..gws-wiz.......0i131j0i131i10j0i22i30j33i160j0i13.mhC3cuYinvI,"3010 Sleil Waututh Rd, North Vancouver, BC V7H 2V5",Leisure / Community Centres,General,Indoor,Public,3010,Sleil Waututh Road,,North Vancouver,BC,V7H 2V5,,,no website - Google reviews state the centre has a gym,
,,Tsleil-Waututh Cultural and Recreation Centre,https://www.google.ca/search?source=hp&ei=Iv4lXtvwG4q1tAbSsr6IAQ&q=tsleil-waututh+cultural+and+recreation+centre&oq=tsleil-waututh+cult&gs_l=psy-ab.3.0.0.22.12559..13972...2.0..0.172.2098.12j8......0....1..gws-wiz.......0i131j0i131i10j0i22i30j33i160j0i13.mhC3cuYinvI,"3010 Sleil Waututh Rd, North Vancouver, BC V7H 2V5",Physical Recreation & Sports,Fitness centres / areas ,Indoor,Public,3010,Sleil Waututh Road,,North Vancouver,BC,V7H 2V5,,,no website - Google reviews state the centre has a gym,
,,LVSS at Mollie NYE House,http://mollienyehouse.com/,"940 Lynn Valley Rd, North Vancouver, BC V7J 1Z7",Leisure / Community Centres,General,Indoor,Public,940,Lynn Valley Road,,North Vancouver,BC,V7J 1Z7,,,,
,,Memorial Community Recreation Centre,https://www.nvrc.ca/facilities-fields/locations-hours/community-recreation-centres/memorial-community-recreation-centre,"123 East 23rd Street, North Vancouver, BC V7N 2L3",Leisure / Community Centres,General,Indoor,Public,123,East 23rd Street,,North Vancouver,BC,V7N 2L3,,,community centre with gymnasium,
,,Memorial Community Recreation Centre,https://www.nvrc.ca/facilities-fields/locations-hours/community-recreation-centres/memorial-community-recreation-centre,"123 East 23rd Street, North Vancouver, BC V7N 2L3",Physical Recreation & Sports,Gymnasiums ,Indoor,Public,123,East 23rd Street,,North Vancouver,BC,V7N 2L3,,,community centre with gymnasium,
,Maple Ridge,Golden Ears Winter Club,http://gewc.ca/,"23580 105 Ave, Maple Ridge, BC V2W 1B8",Ice,Curling,Indoor,Private,23580,105 Avenue,,Maple Ridge,BC,V2W 1B8,,,,
,,Planet Ice - Maple Ridge,https://planetice.ca/mapleridge/,"23588 105 Ave, Maple Ridge, BC V2W 1B8",Ice,2+ surfaces,Indoor,Public,23588,105 Avenue,,Maple Ridge,Bc,V2W 1B8,,,,
,,CEED Centre Society,https://www.ceedcentre.com/,"11739 223 St, Maple Ridge, BC V2X 5X8",Leisure / Community Centres,General,Indoor,Public,,,,,,,,,,
,,Greg Moore Youth Centre,https://www.google.ca/search?source=hp&ei=KZUpXq_PKtHr_QbSr7foDw&q=greg+moore+youth+center+maple+ridge&oq=greg+moore+youth+center+maple+ridge&gs_l=psy-ab.3..0j0i22i30l3.233.5020..5576...1.0..1.157.1607.16j3......0....1..gws-wiz.......0i131.2Vq6ELQrk98&ved=0ahUKEwjvh66C4JnnAhXRdd8KHdLXDf0Q4dUDCAg&uact=5,"11925 Haney Pl, Maple Ridge, BC V2X 6G2",Leisure / Community Centres,Youth,Indoor,Public,,,,,,,,,"youth centre, indoor skate park (website difficult to navigate, so I used the Google comments)",
,,Maple Ridge Leisure Centre,https://www.mapleridge.ca/Facilities/Facility/Details/Maple-Ridge-Leisure-Centre-145,"11925 Haney Pl, Maple Ridge, BC V2X 6G2",Aquatics,25m pool with or without other pools,Indoor,Public,,,,,,,,,"pools, gym, fitness, racquet courts",
,,Maple Ridge Leisure Centre,https://www.mapleridge.ca/Facilities/Facility/Details/Maple-Ridge-Leisure-Centre-145,"11925 Haney Pl, Maple Ridge, BC V2X 6G2",Aquatics,Leisure / wading pools,Indoor,Public,,,,,,,,,"pools, gym, fitness, racquet courts",
,,Maple Ridge Leisure Centre,https://www.mapleridge.ca/Facilities/Facility/Details/Maple-Ridge-Leisure-Centre-145,"11925 Haney Pl, Maple Ridge, BC V2X 6G2",Physical Recreation & Sports,Gymnasiums ,Indoor,Public,,,,,,,,,"pools, gym, fitness, racquet courts",
,,Maple Ridge Leisure Centre,https://www.mapleridge.ca/Facilities/Facility/Details/Maple-Ridge-Leisure-Centre-145,"11925 Haney Pl, Maple Ridge, BC V2X 6G2",Physical Recreation & Sports,Fitness centres / areas ,Indoor,Public,,,,,,,,,"pools, gym, fitness, racquet courts",
,,Maple Ridge Leisure Centre,https://www.mapleridge.ca/Facilities/Facility/Details/Maple-Ridge-Leisure-Centre-145,"11925 Haney Pl, Maple Ridge, BC V2X 6G2",Physical Recreation & Sports,"Racquet courts (squash, racquetball, badminton)",Indoor,Public,,,,,,,,,"pools, gym, fitness, racquet courts",
,,Ruskin Community Hall,http://ruskinhall.com/,"28395 96 Ave, Maple Ridge, BC V2W 1L2",Leisure / Community Centres,General,Indoor,Public,,,,,,,,,,
,,Thornhill Community Hall,http://thornhillhall.ca/,"26007 98 Ave, Maple Ridge, BC V2W 1T3",Leisure / Community Centres,General,Indoor,Public,,,,,,,,,"community hall, tennis",
,,Maple Ridge Seniors Activity Centre,https://rmssseniors.org/,"12150 224 St, Maple Ridge, BC V2X 6B6",Leisure / Community Centres,Seniors,Indoor,Public,,,,,,,,,,
,New Westminster,Queen's Park Arena,https://www.newwestcity.ca/parks-and-recreation/facilities/queens-park-arena,"1st St &, 3rd Ave, New Westminster, BC V3L 1L7",Ice,Single surface,Indoor,Private,?,1st Street and 3rd Avenue,,New Westminster,BC,V3l 1L7,,,skating/hockey/lacrosse,only intersection provided - no civic address
,,Queen's Park Arena,https://www.newwestcity.ca/parks-and-recreation/facilities/queens-park-arena,"1st St &, 3rd Ave, New Westminster, BC V3L 1L7",Physical Recreation & Sports,Gymnasiums ,Indoor,Private,?,1st Street and 3rd Avenue,,New Westminster,BC,V3l 1L7,,,skating/hockey/lacrosse,only intersection provided - no civic address
,,Moody Park Arena,https://www.newwestcity.ca/parks-and-recreation/facilities/moody-park-arena,"701 8th Ave, New Westminster, BC V3M 2R2",Ice,Single surface,Indoor,Public,701,8th Avenue,,New Westminster,BC,V3M 2R2,,,"dry floor April to June, ice skating July to March",
,,Canada Games Pool,https://www.newwestcity.ca/parks-and-recreation/facilities/canada-games-pool,"65 E Sixth Ave, New Westminster, BC V3L 4G6",Aquatics,25m pool with or without other pools,Indoor,Public,65,E Sixth Avenue ,,New Westminster,BC,V3L 4G6,,,"website does not work - swimming complex with 4 pools, fitness gym",
,,Canada Games Pool,https://www.newwestcity.ca/parks-and-recreation/facilities/canada-games-pool,"65 E Sixth Ave, New Westminster, BC V3L 4G6",Physical Recreation & Sports,Fitness centres / areas ,Indoor,Public,65,E Sixth Avenue ,,New Westminster,BC,V3L 4G6,,,"website does not work - swimming complex with 4 pools, fitness gym",
,,Centennial Community Centre,https://www.newwestcity.ca/parks-and-recreation/facilities/centennial-community-centre,"65 E Sixth Ave, New Westminster, BC V3L 4G6",Leisure / Community Centres,General,Indoor,Public,65,E Sixth Avenue ,,New Westminster,BC,V3L 4G6,,,community centre with fitness,
,,Centennial Community Centre,https://www.newwestcity.ca/parks-and-recreation/facilities/centennial-community-centre,"65 E Sixth Ave, New Westminster, BC V3L 4G6",Physical Recreation & Sports,Fitness centres / areas ,Indoor,Public,65,E Sixth Avenue ,,New Westminster,BC,V3L 4G6,,,community centre with fitness,
,,Century House,https://www.newwestcity.ca/parks-and-recreation/facilities/century-house,"620 8th St, New Westminster, BC V3M 3S6",Leisure / Community Centres,Seniors,Indoor,Public,620,8th Street,,New Westminster,BC,V3M 3S6,,,,
,,Century House,https://www.newwestcity.ca/parks-and-recreation/facilities/century-house,"620 8th St, New Westminster, BC V3M 3S6",Leisure / Community Centres,Youth,Indoor,Public,620,8th Street,,New Westminster,BC,V3M 3S6,,,,
,,Queensborough Community Centre,https://www.newwestcity.ca/parks-and-recreation/facilities/queensborough-community-centre,"920 Ewen Ave, New Westminster, BC V3M 5C8",Leisure / Community Centres,General,Indoor,Public,920,Ewen Avenue,,New Westminster,BC,V3M 5C8,,,community centre with fitness,
,,Queensborough Community Centre,https://www.newwestcity.ca/parks-and-recreation/facilities/queensborough-community-centre,"920 Ewen Ave, New Westminster, BC V3M 5C8",Physical Recreation & Sports,Fitness centres / areas ,Indoor,Public,920,Ewen Avenue,,New Westminster,BC,V3M 5C8,,,community centre with fitness,
,,Royal City Curling Club,https://royalcitycc.com/,"75 6 Ave E, New Westminster, BC V3L 4G6",Ice,Curling,Indoor,Public,75,6 Avenue E,,New Westminster,BC,V3L 4G6,,,,
,,New West Youth Centre,https://www.newwestyouth.ca/,"620 8th St, New Westminster, BC V3M 3S6",Leisure / Community Centres,Youth,Indoor,Public,620,8th Street,,New Westminster,BC,V3M 3S6,,,youth centre with fitness room,
,,New West Youth Centre,https://www.newwestyouth.ca/,"620 8th St, New Westminster, BC V3M 3S6",Physical Recreation & Sports,Fitness centres / areas ,Indoor,Public,620,8th Street,,New Westminster,BC,V3M 3S6,,,youth centre with fitness room,
,,New Westminster Tennis Club,https://nwtennis.com/,"305 Royal Ave, New Westminster, BC V3L 1G7",Physical Recreation & Sports,Tennis and/or pickleball courts ,Both,Private,305,Royal Avenue,,New Westminster,BC,V3L 1G7,,,,
,,Port Coquitlam Community Centre,https://www.portcoquitlam.ca/recreation/port-coquitlam-recreation-complex/,"2150 Wilson Ave, Port Coquitlam, BC V3C 6J5",Leisure / Community Centres,General,Indoor,Public,2150,Wilson Avenue,,Port Coquitlam,BC,V3C 6J5,,,"community centre with seniors' and youth programs, ice rinks, fitness, pool (opening in March), gym, ",
,,Port Coquitlam Community Centre,https://www.portcoquitlam.ca/recreation/port-coquitlam-recreation-complex/,"2150 Wilson Ave, Port Coquitlam, BC V3C 6J5",Ice,2+ surfaces,Indoor,Public,2150,Wilson Avenue,,Port Coquitlam,BC,V3C 6J5,,,"ice rinks, fitness, pool (opening in March), gym, ",
,,Port Coquitlam Community Centre,https://www.portcoquitlam.ca/recreation/port-coquitlam-recreation-complex/,"2150 Wilson Ave, Port Coquitlam, BC V3C 6J5",Aquatics,Leisure / wading pools,Indoor,Public,2150,Wilson Avenue,,Port Coquitlam,BC,V3C 6J5,,,"ice rinks, fitness, pool (opening in March), gym, fitness",
,,Port Coquitlam Community Centre,https://www.portcoquitlam.ca/recreation/port-coquitlam-recreation-complex/,"2150 Wilson Ave, Port Coquitlam, BC V3C 6J5",Physical Recreation & Sports,Gymnasiums ,Indoor,Public,2150,Wilson Avenue,,Port Coquitlam,BC,V3C 6J5,,,"ice rinks, fitness, pool (opening in March), gym, fitness",
,,Port Coquitlam Community Centre,https://www.portcoquitlam.ca/recreation/port-coquitlam-recreation-complex/,"2150 Wilson Ave, Port Coquitlam, BC V3C 6J5",Physical Recreation & Sports,Fitness centres / areas ,Indoor,Public,2150,Wilson Avenue,,Port Coquitlam,BC,V3C 6J5,,,"ice rinks, fitness, pool (opening in March), gym, fitness",
,,Hyde Creek Recreation Centre,https://www.portcoquitlam.ca/recreation/hyde-creek-recreation-centre/,"1379 Laurier Ave, Port Coquitlam, BC V3B 2B9",Aquatics,25m pool with or without other pools,Indoor,Public,,,,,,,,,"pools, racquet courts, gym, fitness",
,,Hyde Creek Recreation Centre,https://www.portcoquitlam.ca/recreation/hyde-creek-recreation-centre/,"1379 Laurier Ave, Port Coquitlam, BC V3B 2B9",Aquatics,Leisure / wading pools,Indoor,Public,,,,,,,,,"pools, racquet courts, gym, fitness",
,,Hyde Creek Recreation Centre,https://www.portcoquitlam.ca/recreation/hyde-creek-recreation-centre/,"1379 Laurier Ave, Port Coquitlam, BC V3B 2B9",Physical Recreation & Sports,"Racquet courts (squash, racquetball, badminton)",Indoor,Public,,,,,,,,,"pools, racquet courts, gym, fitness",
,,Hyde Creek Recreation Centre,https://www.portcoquitlam.ca/recreation/hyde-creek-recreation-centre/,"1379 Laurier Ave, Port Coquitlam, BC V3B 2B9",Physical Recreation & Sports,Gymnasiums ,Indoor,Public,,,,,,,,,"pools, racquet courts, gym, fitness",
,,Hyde Creek Recreation Centre,https://www.portcoquitlam.ca/recreation/hyde-creek-recreation-centre/,"1379 Laurier Ave, Port Coquitlam, BC V3B 2B9",Physical Recreation & Sports,Fitness centres / areas ,Indoor,Public,,,,,,,,,"pools, racquet courts, gym, fitness",
,,Shuttlesport Badminton Academy,https://www.shuttlesport.com/,"550 Sherling Pl, Port Coquitlam, BC V3B 0J6",Physical Recreation & Sports,"Racquet courts (squash, racquetball, badminton)",Indoor,Private,,,,,,,,,,
,West Vancouver,Ice Arena - West Vancouver,https://westvancouver.ca/parks-recreation/community-centres/ice-arena,"786 22nd St, West Vancouver, BC V7V 4B9",Ice,Single surface,Indoor,Public,786,22nd Street,,West Vancouver,BC,V7V 4B9,,,,
,,Hollyburn Country Club,http://aclubforlife.com/,"950 Cross Creek Road, West Vancouver, BC V7S 2S5",Ice,2+ surfaces,Indoor,Private,950,Cross Creek Road,,West Vancouver,BC,V7S 2S5,,,"ice rinks, tennis, squash, swimming pools, fitness, badminton",
,,Hollyburn Country Club,http://aclubforlife.com/,"950 Cross Creek Road, West Vancouver, BC V7S 2S5",Aquatics,25m pool with or without other pools,Indoor,Private,950,Cross Creek Road,,West Vancouver,BC,V7S 2S5,,,"ice rinks, tennis, squash, swimming pools, fitness, badminton",
,,Hollyburn Country Club,http://aclubforlife.com/,"950 Cross Creek Road, West Vancouver, BC V7S 2S5",Physical Recreation & Sports,Tennis and/or pickleball courts ,Indoor,Private,950,Cross Creek Road,,West Vancouver,BC,V7S 2S5,,,"ice rinks, tennis, squash, swimming pools, fitness, badminton",
,,Hollyburn Country Club,http://aclubforlife.com/,"950 Cross Creek Road, West Vancouver, BC V7S 2S5",Physical Recreation & Sports,"Racquet courts (squash, racquetball, badminton)",Indoor,Private,950,Cross Creek Road,,West Vancouver,BC,V7S 2S5,,,"ice rinks, tennis, squash, swimming pools, fitness, badminton",
,,Hollyburn Country Club,http://aclubforlife.com/,"950 Cross Creek Road, West Vancouver, BC V7S 2S5",Physical Recreation & Sports,Fitness centres / areas ,Indoor,Private,950,Cross Creek Road,,West Vancouver,BC,V7S 2S5,,,"ice rinks, tennis, squash, swimming pools, fitness, badminton",
,,West Vancouver Aquatic Centre,https://westvancouver.ca/parks-recreation/community-centres/aquatic-centre,"2121 Marine Dr, West Vancouver, BC V7V 4Y2",Aquatics,25m pool with or without other pools,Indoor,Public,2121,Marine Drive,,West Vancouver,BC,V7V 4Y2,,,"3 pools, fitness area",
,,West Vancouver Aquatic Centre,https://westvancouver.ca/parks-recreation/community-centres/aquatic-centre,"2121 Marine Dr, West Vancouver, BC V7V 4Y2",Aquatics,Leisure / wading pools,Indoor,Public,2121,Marine Drive,,West Vancouver,BC,V7V 4Y2,,,"3 pools, fitness area",
,,West Vancouver Aquatic Centre,https://westvancouver.ca/parks-recreation/community-centres/aquatic-centre,"2121 Marine Dr, West Vancouver, BC V7V 4Y2",Physical Recreation & Sports,Fitness centres / areas ,Indoor,Public,2121,Marine Drive,,West Vancouver,BC,V7V 4Y2,,,"3 pools, fitness area",
,,West Vancouver Community Centre,https://westvancouver.ca/parks-recreation/community-centres/west-vancouver-community-centre,"2121 Marine Dr, West Vancouver, BC V7V 4Y2",Leisure / Community Centres,General,Indoor,Public,2121,Marine Drive,,West Vancouver,BC,V7V 4Y2,,,"community centre, fitness, gym",
,,West Vancouver Community Centre,https://westvancouver.ca/parks-recreation/community-centres/west-vancouver-community-centre,"2121 Marine Dr, West Vancouver, BC V7V 4Y2",Physical Recreation & Sports,Fitness centres / areas ,Indoor,Public,2121,Marine Drive,,West Vancouver,BC,V7V 4Y2,,,"community centre, fitness, gym",
,,West Vancouver Community Centre,https://westvancouver.ca/parks-recreation/community-centres/west-vancouver-community-centre,"2121 Marine Dr, West Vancouver, BC V7V 4Y2",Physical Recreation & Sports,Gymnasiums ,Indoor,Public,2121,Marine Drive,,West Vancouver,BC,V7V 4Y2,,,"community centre, fitness, gym",
,,Gleneagles Community Centre,https://westvancouver.ca/parks-recreation/community-centres/gleneagles-community-centre,"6262 Marine Dr, West Vancouver, BC V7W 2S5",Leisure / Community Centres,General,Indoor,Public,6262,Marine Drive,,West Vancouver,BC,V7W 2S5,,,"community centre, fitness, gym, skate park",
,,Gleneagles Community Centre,https://westvancouver.ca/parks-recreation/community-centres/gleneagles-community-centre,"6262 Marine Dr, West Vancouver, BC V7W 2S5",Physical Recreation & Sports,Fitness centres / areas ,Indoor,Public,6262,Marine Drive,,West Vancouver,BC,V7W 2S5,,,"community centre, fitness, gym, skate park",
,,Gleneagles Community Centre,https://westvancouver.ca/parks-recreation/community-centres/gleneagles-community-centre,"6262 Marine Dr, West Vancouver, BC V7W 2S5",Physical Recreation & Sports,Gymnasiums ,Indoor,Public,6262,Marine Drive,,West Vancouver,BC,V7W 2S5,,,"community centre, fitness, gym, skate park",
,,West Vancouver Tennis Club,https://wvtc.info/,"821 21st St, West Vancouver, BC V7V 4T3",Physical Recreation & Sports,Tennis and/or pickleball courts ,Both,Private,821,21st Street,,West Vancouver,BC,V7V 4T3,,,,
,,Seniors' Activity Centre,https://westvancouver.ca/parks-recreation/community-centres/seniors-activity-centre,"695 21st St, West Vancouver, BC V7V 4A7",Leisure / Community Centres,Seniors,Indoor,Public,695,21st Street,,West Vancouver,BC,V7V 4A7,,,,
,,Evergreen Squash Club,http://www.evergreensquash.com/w/homepage,"315 Klahanie Court, West Vancouver, BC  V7P 1V7",Physical Recreation & Sports,"Racquet courts (squash, racquetball, badminton)",Indoor,Private,,,,,,,,,"racquet courts, fitness",
,,Evergreen Squash Club,http://www.evergreensquash.com/w/homepage,"315 Klahanie Court, West Vancouver, BC  V7P 1V7",Physical Recreation & Sports,Fitness centres / areas ,Indoor,Private,,,,,,,,,"racquet courts, fitness",
,Port Moody,Port Moody Recreation Complex & Weight Room,https://www.portmoody.ca/en/recreation-parks-and-environment/fitness-and-weight-room.aspx,"300 Ioco Rd, Port Moody, BC V3H 2V7",Ice,Curling,Indoor,Public,300,Ioco Road,,Port Moody,BC,V3H 2V7,,,"curling, fitness, gym, track, sports fields",
,,Port Moody Recreation Complex & Weight Room,https://www.portmoody.ca/en/recreation-parks-and-environment/fitness-and-weight-room.aspx,"300 Loco Rd, Port Moody, BC V3H 2V7",Physical Recreation & Sports,Fitness centres / areas ,Indoor,Public,300,Ioco Road,,Port Moody,BC,V3H 2V7,,,"curling, fitness, gym, track, sports fields",
,,Port Moody Recreation Complex & Weight Room,https://www.portmoody.ca/en/recreation-parks-and-environment/fitness-and-weight-room.aspx,"300 Loco Rd, Port Moody, BC V3H 2V7",Physical Recreation & Sports,Gymnasiums ,Indoor,Public,300,Ioco Road,,Port Moody,BC,V3H 2V7,,,"curling, fitness, gym, track, sports fields",
,,Port Moody Recreation Complex & Weight Room,https://www.portmoody.ca/en/recreation-parks-and-environment/fitness-and-weight-room.aspx,"300 Loco Rd, Port Moody, BC V3H 2V7",Physical Recreation & Sports,Running tracks (track and field),Indoor,Public,300,Ioco Road,,Port Moody,BC,V3H 2V7,,,"curling, fitness, gym, track, sports fields",
,,Port Moody Recreation Complex & Weight Room,https://www.portmoody.ca/en/recreation-parks-and-environment/fitness-and-weight-room.aspx,"300 Loco Rd, Port Moody, BC V3H 2V7",Physical Recreation & Sports,Sport fields,Indoor,Public,300,Ioco Road,,Port Moody,BC,V3H 2V7,,,"curling, fitness, gym, track, sports fields",
,,Glenayre Community Centre,https://www.portmoody.ca/en/recreation-parks-and-environment/facilities-and-rentals.aspx#Glenayre-Community-Centre,"492 Glencoe Dr, Port Moody, BC V3H 1G5",Leisure / Community Centres,General,Indoor,Public,,,,,,,,,,
,,Kyle Centre,https://www.portmoody.ca/en/recreation-parks-and-environment/facilities-and-rentals.aspx#Kyle-Centre,"125 Kyle St, Port Moody, BC  V3H 3B3",Leisure / Community Centres,General,Indoor,Public,,,,,,,,,,
,,Heritage Mountain Community Centre,https://www.portmoody.ca/en/recreation-parks-and-environment/facilities-and-rentals.aspx#Heritage-Mountain-Community-Centre,"200 Panorama Pl, Port Moody, BC V3H 5H5",Leisure / Community Centres,General,Indoor,Public,,,,,,,,,,
,,Langley Curling Club ,http://langleycurlingclub.com/,"20699 42 Ave, Langley City, BC V3A 3B1",Ice,Curling,Indoor,Private,20699,42 Avenue,,Langley City,BC,V3A 3B1,,,,
,,Langley Figure Skating Club,http://www.skatelangley.com/,"20699 42 Ave, Langley City, BC V3A 3B1",Ice,Single surface,Indoor,Private,20699,42 Avenue,,Langley City,BC,V3A 3B1,,,,
,,Langley Sportsplex,http://www.sportsplexbc.com/,"20165 91a Ave, Langley City, BC V1M 3A2",Ice,Single surface,Indoor,Public,20165,91a Avenue,100,Langley City,BC,V1M 3A2,,,ice rink and private fitness facility,
,,Langley Sportsplex,http://www.sportsplexbc.com/,"20165 91a Ave, Langley City, BC V1M 3A2",Physical Recreation & Sports,Fitness centres / areas ,Indoor,Private,20165,91a Avenue,100,Langley City,BC,V1M 3A2,,,ice rink and private fitness facility,
,,National Hockey Training Centre,https://www.nhtclangley.com/,"20740 Mufford Crescent, Langley City, BC V2Y 1N9",Ice,Single surface,Indoor,Public,20740,Mufford Crescent,110,Langley City,BC,V2Y 1N9,,,,
,,Douglas Recreation Centre,https://www.google.ca/search?ei=G0MoXvPUKozl_QaN-IGgAg&q=douglas+recreation+centre+langley&oq=douglas+recreation+centre+la&gs_l=psy-ab.3.0.0j0i22i30l3.54093.58472..59368...0.1..0.155.2457.25j3......0....1..gws-wiz.......0i71j0i273j0i131j0i67.4wrA6eaUM6k,"20550 Douglas Crescent, Langley City, BC V3A 4B3",Physical Recreation & Sports,Fitness centres / areas ,Indoor,Public,20550,Douglas Crescent,,Langley City,BC,V3A 4B3,,,no website - Google comments state there is a fitness studio,
,,Willowbrook Recreation Centre,https://www.tol.ca/recreation-culture/facilities/willowbrook-recreation-centre/,"20338 65 Ave, Langley City, BC V2Y 3J1",Physical Recreation & Sports,Fitness centres / areas ,Indoor,Public,20338,65 Avenue,,Langley City,BC,V2Y 3J1,,,,
,,Willoughby Community Centre,https://www.tol.ca/recreation-culture/facilities/willoughby-community-centre/,"7888 200 St, Langley City, BC V2Y 3J4",Physical Recreation & Sports,Fitness centres / areas ,Indoor,Public,7888,200 Street,,Langley City,BC,V2Y 3J4,,,,
,,W.C. Blair Recreation Centre,https://www.tol.ca/recreation-culture/facilities/w.c.-blair-recreation-centre/,"22200 Fraser Hwy, Langley City, BC V3A 3T2",Aquatics,25m pool with or without other pools,Indoor,Public,22200,Fraser Highway  ,,Langley City,BC,V3A 3T2,,,"wave pool, fitness",
,,W.C. Blair Recreation Centre,https://www.tol.ca/recreation-culture/facilities/w.c.-blair-recreation-centre/,"22200 Fraser Hwy, Langley City, BC V3A 3T2",Aquatics,Spray parks / splash pads,Indoor,Public,22200,Fraser Highway  ,,Langley City,BC,V3A 3T2,,,"wave pool, fitness",
,,W.C. Blair Recreation Centre,https://www.tol.ca/recreation-culture/facilities/w.c.-blair-recreation-centre/,"22200 Fraser Hwy, Langley City, BC V3A 3T2",Physical Recreation & Sports,Fitness centres / areas ,Indoor,Public,22200,Fraser Highway  ,,Langley City,BC,V3A 3T2,,,"wave pool, fitness",
,,Timms Community Centre,https://city.langley.bc.ca/index.php/parks-recreation/recreation/fitness-schedule,"20399 Douglas Crescent, Langley City, BC V3A 4B3",Physical Recreation & Sports,Gymnasiums ,Indoor,Public,20399,Douglas Crescent,,Langley City,BC,V3A 4B3,,,"gym, fitness",
,,Timms Community Centre,https://city.langley.bc.ca/index.php/parks-recreation/recreation/fitness-schedule,"20399 Douglas Crescent, Langley City, BC V3A 4B3",Physical Recreation & Sports,Fitness centres / areas ,Indoor,Public,20399,Douglas Crescent,,Langley City,BC,V3A 4B3,Douglas Crescent,,"gym, fitness",
,,George Preston Recreation Centre,https://www.tol.ca/recreation-culture/facilities/george-preston-recreation-centre/,"20699 42 Ave, Langley City, BC V3A 3B1",Ice,Single surface,Indoor,Public,,,,,,,,,,
,,Langley Senior Resources Society,http://lsrs.ca/,"20605 51b Ave, Langley City, BC V3A 9H1",Leisure / Community Centres,Seniors,Indoor,Public,,,,,,,,,,
,,Langley Tennis Centre,https://www.langleytenniscentre.com/,"7888 200 St, Langley City, BC V2Y 3J4",Physical Recreation & Sports,Tennis and/or pickleball courts ,Indoor,Public,,,,,,,,,,
,White Rock,Peace Arch Curling Club,https://peacearchcurling.com/,"1475 Anderson St, White Rock, BC V4B 0A8",Ice,Curling,Indoor,Public,1475,Anderson Street,,White Rock,BC,V4B 0A8,,,,
,,White Rock South Surrey Skating Club,https://www.wrsssc.com/,"1544 Foster St, White Rock, BC V4B 3X8",Ice,Single surface,Indoor,Public,1544,Foster Street,,White Rock,BC,V4B 3X8,,,,
,,Centennial Arena,https://www.whiterockcity.ca/Facilities/Facility/Details/Centennial-Park-Leisure-Centre-Arena-15,"14600 North Bluff Rd, White Rock, BC V4B 3C9",Ice,Single surface,Indoor,Public,14600,North Bluff Road,,White Rock,BC,V4B 3C9,,,Ice think (becomes dry floor from April to August),
,,Centennial Arena,https://www.whiterockcity.ca/Facilities/Facility/Details/Centennial-Park-Leisure-Centre-Arena-15,"14600 North Bluff Rd, White Rock, BC V4B 3C9",Physical Recreation & Sports,Gymnasiums ,Indoor,Public,14600,North Bluff Road,,White Rock,BC,V4B 3C9,,,Ice think (becomes dry floor from April to August),
,,White Rock Community Centre,https://www.whiterockcity.ca/Facilities/Facility/Details/White-Rock-Community-Centre-1,"15154 Russell Ave, White Rock, BC V4B 0A6",Leisure / Community Centres,General,Indoor,Public,,,,,,,,,,
,,Kent Street Activity Centre,https://www.whiterockcity.ca/Facilities/Facility/Details/Kent-Street-Activity-Centre-12,"1475 Kent St, White Rock, BC V4B 5A2",Leisure / Community Centres,General,Indoor,Public,,,,,,,,,,
,,Horst and Emmy Werner Centre for Active Living,https://www.whiterockcity.ca/Facilities/Facility/Details/Horst-and-Emmy-Werner-Centre-for-Active--20,"1475 Anderson St, White Rock, BC V4B 0A8",Leisure / Community Centres,General,Indoor,Public,,,,,,,,,,
,,ThirdSpace,http://www.ourthirdspace.com/,"1381 George St, White Rock, BC V4B 2L1",Leisure / Community Centres,General,Indoor,Public,,,,,,,,,,
,,Pitt Meadows Arena Complex,http://www.pittmeadowsarena.com/,"11435 Bonson Rd, Pitt Meadows, BC V3Y 2S3",Ice,2+ surfaces,Indoor,Public,,,,,,,,,,
,,South Bonson Community Centre,http://www.placemaillardville.ca/,"10932 Barnston View Rd, Pitt Meadows, BC V3Y 0B9",Leisure / Community Centres,General,Indoor,Public,,,,,,,,,,
,,Pitt Meadows Family Recreation Centre,https://www.pittmeadows.ca/parks-recreation/parks-fields-facilities/parks-list/pitt-meadows-family-recreation-centre,"12027 Harris Rd, Pitt Meadows, BC V3Y 0B9",Physical Recreation & Sports,Fitness centres / areas ,Indoor,Public,,,,,,,,,"fitness, gym, sports",
,,Pitt Meadows Family Recreation Centre,https://www.pittmeadows.ca/parks-recreation/parks-fields-facilities/parks-list/pitt-meadows-family-recreation-centre,"12027 Harris Rd, Pitt Meadows, BC V3Y 0B9",Physical Recreation & Sports,Gymnasiums ,Indoor,Public,,,,,,,,,"fitness, gym, sports",
,,Pitt Meadows Family Recreation Centre,https://www.pittmeadows.ca/parks-recreation/parks-fields-facilities/parks-list/pitt-meadows-family-recreation-centre,"12027 Harris Rd, Pitt Meadows, BC V3Y 0B9",Physical Recreation & Sports,Sport fields,Indoor,Public,,,,,,,,,"fitness, gym, sports",
,Bowen Island,Bowen Island Community Recreation,https://www.bowencommunityrecreation.com/,"1041 Mt Gardner Rd, Bowen Island, BC V0N 1G0",Leisure / Community Centres,General,Indoor,Public,,,,,,,,,,
,,Bowen Island Community Recreation,https://www.bowencommunityrecreation.com/,"1041 Mt Gardner Rd, Bowen Island, BC V0N 1G0",Physical Recreation & Sports,Fitness centres / areas ,Indoor,Public,,,,,,,,,,
,Capilano 5,,,,,,,,,,,,,,,,,
,Anmore,,,,,,,,,,,,,,,,,
,Burrard Inlet 3,,,,,,,,,,,,,,,,,
,Musqueam 2,,,,,,,,,,,,,,,,,
,Lions Bay,,,,,,,,,,,,,,,,,
,Tsawwassen,,,,,,,,,,,,,,,,,
,Belcarra,,,,,,,,,,,,,,,,,
,Mission 1,,,,,,,,,,,,,,,,,
,Matsqui 4,,,,,,,,,,,,,,,,,
,Katzie 1,,,,,,,,,,,,,,,,,
,Seymour Creek 2,,,,,,,,,,,,,,,,,
,Semiahmoo,,,,,,,,,,,,,,,,,
,McMillan Island 6,,,,,,,,,,,,,,,,,
,Coquitlam 1,,,,,,,,,,,,,,,,,
,Barnston Island 3,,,,,,,,,,,,,,,,,
,Katzie 2,,,,,,,,,,,,,,,,,
,Musqueam 4,,,,,,,,,,,,,,,,,
,Coquitlam 2,,,,,,,,,,,,,,,,,
,Langley 5,,,,,,,,,,,,,,,,,
,Whonnock 1,,,,,,,,,,,,,,,,,
