CMANAME,CSDNAME,Facility name,URL,Full address,Facility Type,Facility Sub-type,Exposure,Ownership Type,Civic #,Street name,Street Type,Unit/block,City name,Province,Postal Code,Longitude (X),Latitude (Y),Source description/comment,
Winnipeg (MN),Winnipeg,Bonivital,https://winnipeg.ca/cms/recreation/facilities/pools/indoor_pools/bonivital.stm,"1215 Archibald Street, MB",Aquatics,25m pool with or without other pools,Indoor,Public,,,,,,,,,,,
,Winnipeg,Bonivital,https://winnipeg.ca/cms/recreation/facilities/pools/indoor_pools/bonivital.stm,"1215 Archibald Street, MB",Aquatics,Leisure / wading pools,Indoor,Public,,,,,,,,,,,
,Winnipeg,Cindy Klassen Recreation Complex,https://winnipeg.ca/cms/recreation/facilities/pools/indoor_pools/cindy_klassen.stm,"999 Sargent Avenue, MB",Aquatics,25m pool with or without other pools,Indoor,Public,,,,,,,,,,,
,Winnipeg,Cindy Klassen Recreation Complex,https://winnipeg.ca/cms/recreation/facilities/pools/indoor_pools/cindy_klassen.stm,"999 Sargent Avenue, MB",Aquatics,Leisure / wading pools,Indoor,Public,,,,,,,,,,,
,Winnipeg,Cindy Klassen Recreation Complex,https://winnipeg.ca/cms/recreation/facilities/pools/indoor_pools/cindy_klassen.stm,"999 Sargent Avenue, MB",Physical Recreation & Sports,Fitness centres / areas ,Indoor,Public,,,,,,,,,,,
,Winnipeg,Cindy Klassen Recreation Complex,https://winnipeg.ca/cms/recreation/facilities/pools/indoor_pools/cindy_klassen.stm,"999 Sargent Avenue, MB",Physical Recreation & Sports,Running tracks (track and field),Indoor,Public,,,,,,,,,,,
,Winnipeg,Cindy Klassen Recreation Complex,https://winnipeg.ca/cms/recreation/facilities/pools/indoor_pools/cindy_klassen.stm,"999 Sargent Avenue, MB",Leisure / Community Centres,General,Indoor,Public,,,,,,,,,,,
,Winnipeg,Eldon Ross,https://winnipeg.ca/cms/recreation/facilities/pools/indoor_pools/eldon_ross.stm,"1887 Pacific Avenue West, MB",Aquatics,25m pool with or without other pools,Indoor,Public,,,,,,,,,,,
,Winnipeg,Eldon Ross,https://winnipeg.ca/cms/recreation/facilities/pools/indoor_pools/eldon_ross.stm,"1887 Pacific Avenue West, MB",Aquatics,Leisure / wading pools,Indoor,Public,,,,,,,,,,,
,Winnipeg,Elmwood Kildonans ,https://winnipeg.ca/cms/recreation/facilities/pools/indoor_pools/elmwood_kildonan.stm,"909 Concordia Avenue, MB",Aquatics,25m pool with or without other pools,Indoor,Public,,,,,,,,,,,
,Winnipeg,Elmwood Kildonans,https://winnipeg.ca/cms/recreation/facilities/pools/indoor_pools/elmwood_kildonan.stm,"909 Concordia Avenue, MB",Physical Recreation & Sports,Fitness centres / areas ,Indoor,Public,,,,,,,,,,,
,Winnipeg,Kinsmen Sherbrook (formerly Sherbrook Pool),https://winnipeg.ca/cms/recreation/facilities/pools/indoor_pools/sherbrook.stm,"381 Sherbrook Street, MB",Aquatics,25m pool with or without other pools,Indoor,Public,,,,,,,,,,,
,Winnipeg,Kinsmen Sherbrook (formerly Sherbrook Pool),https://winnipeg.ca/cms/recreation/facilities/pools/indoor_pools/sherbrook.stm,"381 Sherbrook Street, MB",Physical Recreation & Sports,Fitness centres / areas ,Indoor,Public,,,,,,,,,,,
,Winnipeg,Margaret Grant,https://winnipeg.ca/cms/recreation/facilities/pools/indoor_pools/margaret_grant.stm,"685 Dalhousie Drive, MB",Aquatics,25m pool with or without other pools,Indoor,Public,,,,,,,,,,,
,Winnipeg,Pan Am,https://winnipeg.ca/cms/recreation/facilities/pools/indoor_pools/pan_am.stm,"25 Poseidon Bay, MB",Aquatics,25m pool with or without other pools,Indoor,Public,,,,,,,,,,,
,Winnipeg,Pan Am,https://winnipeg.ca/cms/recreation/facilities/pools/indoor_pools/pan_am.stm,"25 Poseidon Bay, MB",Aquatics,Leisure / wading pools,Indoor,Public,,,,,,,,,,,
,Winnipeg,Pan Am,https://winnipeg.ca/cms/recreation/facilities/pools/indoor_pools/pan_am.stm,"25 Poseidon Bay, MB",Physical Recreation & Sports,Fitness centres / areas ,Indoor,Public,,,,,,,,,,,
,Winnipeg,Pan Am,https://winnipeg.ca/cms/recreation/facilities/pools/indoor_pools/pan_am.stm,"25 Poseidon Bay, MB",Physical Recreation & Sports,Running tracks (track and field),Indoor,Public,,,,,,,,,,,
,Winnipeg,Seven Oaks,https://winnipeg.ca/cms/recreation/facilities/pools/indoor_pools/seven_oaks.stm,"444 Adsum Drive, MB",Aquatics,25m pool with or without other pools,Indoor,Public,,,,,,,,,,,
,Winnipeg,Sergeant Tommy Prince Place,https://winnipeg.ca/cms/recreation/facilities/pools/indoor_pools/sergeant_tommy_prince_place.stm,"90 Sinclair Street, MB",Aquatics,25m pool with or without other pools,Indoor,Public,,,,,,,,,,,
,Winnipeg,Sergeant Tommy Prince Place,https://winnipeg.ca/cms/recreation/facilities/pools/indoor_pools/sergeant_tommy_prince_place.stm,"90 Sinclair Street, MB",Physical Recreation & Sports,Fitness centres / areas ,Indoor,Public,,,,,,,,,,,
,Winnipeg,Sergeant Tommy Prince Place,https://winnipeg.ca/cms/recreation/facilities/pools/indoor_pools/sergeant_tommy_prince_place.stm,"90 Sinclair Street, MB",Physical Recreation & Sports,Gymnasiums ,Indoor,Public,,,,,,,,,,,
,Winnipeg,St. James Assiniboia Centennial,https://winnipeg.ca/cms/recreation/facilities/pools/indoor_pools/st_james_assiniboia.stm,"644 Parkdale Street, MB",Aquatics,25m pool with or without other pools,Indoor,Public,,,,,,,,,,,
,Winnipeg,St. James Assiniboia Centennial,https://winnipeg.ca/cms/recreation/facilities/pools/indoor_pools/st_james_assiniboia.stm,"644 Parkdale Street, MB",Physical Recreation & Sports,Fitness centres / areas ,Indoor,Public,,,,,,,,,,,
,Winnipeg,St. James Assiniboia Centennial,https://winnipeg.ca/cms/recreation/facilities/pools/indoor_pools/st_james_assiniboia.stm,"644 Parkdale Street, MB",Physical Recreation & Sports,Running tracks (track and field),Indoor,Public,,,,,,,,,,,
,Winnipeg,St. James Assiniboia Centennial,https://winnipeg.ca/cms/recreation/facilities/pools/indoor_pools/st_james_assiniboia.stm,"644 Parkdale Street, MB",Aquatics,Spray parks / splash pads,Indoor,Public,,,,,,,,,,,
,Winnipeg,St. James Assiniboia Centennial,https://winnipeg.ca/cms/recreation/facilities/pools/indoor_pools/st_james_assiniboia.stm,"644 Parkdale Street, MB",Leisure / Community Centres,General,Indoor,Public,,,,,,,,,,,
,Winnipeg,St. James Civic Centre,https://winnipeg.ca/cms/recreation/facilities/pools/indoor_pools/st_james_civic.stm,"2055 Ness Avenue, MB",Aquatics,25m pool with or without other pools,Indoor,Public,,,,,,,,,,,
,Winnipeg,St. James Civic Centre,https://winnipeg.ca/cms/recreation/facilities/pools/indoor_pools/st_james_civic.stm,"2055 Ness Avenue, MB",Physical Recreation & Sports,Fitness centres / areas ,Indoor,Public,,,,,,,,,,,
,Winnipeg,Transcona Kinsmen Centennial,https://winnipeg.ca/cms/recreation/facilities/pools/indoor_pools/transcona.stm,"1101 Wabasha Street, MB",Aquatics,25m pool with or without other pools,Indoor,Public,,,,,,,,,,,
,Winnipeg,Transcona Kinsmen Centennial,https://winnipeg.ca/cms/recreation/facilities/pools/indoor_pools/transcona.stm,"1101 Wabasha Street, MB",Physical Recreation & Sports,Fitness centres / areas ,Indoor,Public,,,,,,,,,,,
,Winnipeg,Bourkevale Lawn Bowling,https://winnipeg.ca/cms/recreation/facilities/leisurecentres/bourkevale.stm,"90 Ferry Road, MB",Leisure / Community Centres,General,Indoor,Public,,,,,,,,,,,
,Winnipeg,Deer Lodge Tennis Club,https://winnipeg.ca/cms/recreation/facilities/leisurecentres/deer_lodge.stm,"2050 Ness Avenue, MB",Physical Recreation & Sports,Tennis and/or pickleball courts ,Indoor,Public,,,,,,,,,,,
,Winnipeg,Sam Southern Arena,https://winnipeg.ca/cms/recreation/facilities/leisurecentres/fortrougeleisurecentre.stm,"625 Osborne Street, MB",Ice,Single surface,Indoor,Public,,,,,,,,,,,
,Winnipeg,Fort Rouge Leisure Centre,https://winnipeg.ca/cms/recreation/facilities/leisurecentres/fortrougeleisurecentre.stm,"625 Osborne Street, MB",Leisure / Community Centres,General,Indoor,Public,,,,,,,,,,,
,Winnipeg,Fort Rouge Leisure Centre,https://winnipeg.ca/cms/recreation/facilities/leisurecentres/fortrougeleisurecentre.stm,"625 Osborne Street, MB",Physical Recreation & Sports,Fitness centres / areas ,Indoor,Public,,,,,,,,,,,
,Winnipeg,Freight House Recreation and Leisure Centre,https://winnipeg.ca/cms/recreation/facilities/leisurecentres/freighthouse.stm,"200 Isabel Street, MB",Leisure / Community Centres,General,Indoor,Public,,,,Door #1,,,,,,,
,Winnipeg,Freight House Recreation and Leisure Centre,https://winnipeg.ca/cms/recreation/facilities/leisurecentres/freighthouse.stm,"200 Isabel Street, MB",Physical Recreation & Sports,Fitness centres / areas ,Indoor,Public,,,,Door #1,,,,,,,
,Winnipeg,Magnus Eliason Recreation Centre,https://winnipeg.ca/cms/recreation/facilities/leisurecentres/magnuseliason.stm,"430 Langside Street, MB",Leisure / Community Centres,General,Indoor,Public,,,,,,,,,,,
,Winnipeg,Magnus Eliason Recreation Centre,https://winnipeg.ca/cms/recreation/facilities/leisurecentres/magnuseliason.stm,"430 Langside Street, MB",Physical Recreation & Sports,Gymnasiums ,Indoor,Public,,,,,,,,,,,
,Winnipeg,Mayfair Recreation Centre,https://winnipeg.ca/cms/recreation/facilities/leisurecentres/mayfair.stm,"40 Mayfair Place, MB",Leisure / Community Centres,General,Indoor,Public,,,,,,,,,,,
,Winnipeg,Mayfair Recreation Centre,https://winnipeg.ca/cms/recreation/facilities/leisurecentres/mayfair.stm,"40 Mayfair Place, MB",Physical Recreation & Sports,Gymnasiums ,Indoor,Public,,,,,,,,,,,
,Winnipeg,Mayfair Recreation Centre,https://winnipeg.ca/cms/recreation/facilities/leisurecentres/mayfair.stm,"40 Mayfair Place, MB",Ice,2+ Surfaces,Both,Public,,,,,,,,,,,
,Winnipeg,Peguis Trail Health & Fitness Centre,https://winnipeg.ca/cms/recreation/facilities/leisurecentres/peguistrail.stm,"1400 Rothesay Street, MB",Physical Recreation & Sports,Fitness centres / areas ,Indoor,Public,,,,,,,,,,,
,Winnipeg,Peguis Trail Health & Fitness Centre,https://winnipeg.ca/cms/recreation/facilities/leisurecentres/peguistrail.stm,"1400 Rothesay Street, MB",Physical Recreation & Sports,Running tracks (track and field),Indoor,Public,,,,,,,,,,,
,Winnipeg,Sergeant Tommy Prince Place,https://winnipeg.ca/cms/recreation/facilities/pools/indoor_pools/sergeant_tommy_prince_place.stm,"90 Sinclair Street, MB",Leisure / Community Centres,General,Indoor,Public,,,,,,,,,,,
,Winnipeg,St. James Civic Centre,"http://www.flippubs.com/publication/?i=602895#{""issue_id"":602895,""publication_id"":""60769"",""page"":10}","2055 Ness Avenue, MB",Ice,Single surface,Indoor,Public,,,,,,,,,,,
,Winnipeg,St. James Civic Centre,"http://www.flippubs.com/publication/?i=602895#{""issue_id"":602895,""publication_id"":""60769"",""page"":10}","2055 Ness Avenue, MB",Leisure / Community Centres,General,Indoor,Public,,,,,,,,,,,
,Winnipeg,St. John's Leisure Centre,https://winnipeg.ca/cms/recreation/facilities/leisurecentres/stjohnsleisure.stm,"601 Aikins Street, MB",Leisure / Community Centres,General,Indoor,Public,,,,,,,,,,,
,Winnipeg,Turtle Island Neighbourhood Centre,https://winnipeg.ca/cms/recreation/facilities/leisurecentres/turtleisland.stm,"510 King Street, MB",Leisure / Community Centres,General,Indoor,Public,,,,,,,,,,,
,Winnipeg,Turtle Island Neighbourhood Centre,https://winnipeg.ca/cms/recreation/facilities/leisurecentres/turtleisland.stm,"510 King Street, MB",Physical Recreation & Sports,Gymnasiums ,Indoor,Public,,,,,,,,,,,
,Winnipeg,Bertrand Arena,https://winnipeg.ca/cms/recreation/programs/skating.stm#skateSchedule,"294 Bertrand St., MB",Ice,Single surface,Indoor,Public,,,,,,,,,,,
,Winnipeg,Billy Mosienko Arena,https://winnipeg.ca/cms/recreation/programs/skating.stm#skateSchedule,709 Keewatin St. MB,Ice,Single surface,Indoor,Public,,,,,,,,,,,
,Winnipeg,Century Arena,https://winnipeg.ca/cms/recreation/programs/skating.stm#skateSchedule,"1377 Clarence Ave., MB",Ice,Single surface,Indoor,Public,,,,,,,,,,,
,Winnipeg,Charles A. Barbour Arena,https://winnipeg.ca/cms/recreation/programs/skating.stm#skateSchedule,"500 Nathaniel St., MB",Ice,Single surface,Indoor,Public,,,,,,,,,,,
,Winnipeg,Charlie Gardiner Arena  (formerly Pioneer),https://winnipeg.ca/cms/recreation/programs/skating.stm#skateSchedule,"799 Logan Ave, MB",Ice,Single surface,Indoor,Public,,,,,,,,,,,
,Winnipeg,Eric Coy Arena,https://winnipeg.ca/cms/recreation/programs/skating.stm#skateSchedule,"535 Oakdale Dr., MB",Ice,Single surface,Indoor,Public,,,,,,,,,,,
,Winnipeg,Maginot Arena,https://winnipeg.ca/cms/recreation/programs/skating.stm#skateSchedule,"910 Maginot St., MB",Ice,Single surface,Indoor,Public,,,,,,,,,,,
,Winnipeg,River East Arena,https://winnipeg.ca/cms/recreation/programs/skating.stm#skateSchedule,"1410 Rothesay St., MB",Ice,Single surface,Indoor,Public,,,,,,,,,,,
,Winnipeg,Sargent Park Arena,https://winnipeg.ca/cms/recreation/programs/skating.stm#skateSchedule,"1111 Wall St., MB",Ice,Single surface,Indoor,Public,,,,,,,,,,,
,Winnipeg,St. James Civic Centre Arena,https://winnipeg.ca/cms/recreation/programs/skating.stm#skateSchedule,"2055 Ness Avenue, MB",Ice,Single surface,Indoor,Public,,,,,,,,,,,
,Winnipeg,St. Vital Centennial Arena,https://winnipeg.ca/cms/recreation/programs/skating.stm#skateSchedule,"580 St. Anne's Road, MB",Ice,Single surface,Indoor,Public,,,,,,,,,,,
,Winnipeg,Terry Sawchuk Arena,https://winnipeg.ca/cms/recreation/programs/skating.stm#skateSchedule,901 Kimberly Ave. MB,Ice,Single surface,Indoor,Public,,,,,,,,,,,
,Winnipeg,Oakbank & District Community Club & ONE Insurance Arena,https://springfield.municipalwebsites.ca/ckfinder/connector?command=Proxy&lang=en&type=Files&currentFolder=%2Fdocuments%2Fcommunity_services%2F&hash=c245c263ce0eced480effe66bbede6b4d46c15ae&fileName=2019%20Community%20Services%20Directory.pdf,"1016 Almey Avenue, Oakbank, MB",Ice,Single surface,Indoor,Public,,,,,,,,,,,
,Winnipeg,Oakbank & District Community Club & ONE Insurance Arena,https://springfield.municipalwebsites.ca/ckfinder/connector?command=Proxy&lang=en&type=Files&currentFolder=%2Fdocuments%2Fcommunity_services%2F&hash=c245c263ce0eced480effe66bbede6b4d46c15ae&fileName=2019%20Community%20Services%20Directory.pdf,"1016 Almey Avenue, Oakbank, MB",Leisure / Community Centres,General,Indoor,Public,,,,,,,,,,,
,Winnipeg,Maples Community Centre,http://maplescc.ca/contacts.html,"434 Adsum Dr, Winnipeg, MB",Leisure / Community Centres,General,Indoor,Public,,,,,,,,,,,
,Winnipeg,Maples Community Centre,http://maplescc.ca/contacts.html,"434 Adsum Dr, Winnipeg, MB",Physical Recreation & Sports,Gymnasiums ,Indoor,Public,,,,,,,,,,,
,Winnipeg,Westdale Community Centre,https://westdale.mb.ca/,"550 Dale Blvd, Winnipeg, MB",Leisure / Community Centres,General,Indoor,Public,,,,,,,,,,,
,Winnipeg,Fort Garry Community Centre - Victoria Site,http://www.fortgarrycc.ca/home/facilities_programming,"80 Derek St, Winnipeg, MB",Leisure / Community Centres,General,Indoor,Public,,,,,,,,,,,
,Winnipeg,Fort Garry Community Centre - Victoria Site,http://www.fortgarrycc.ca/home/facilities_programming,"80 Derek St, Winnipeg, MB",Physical Recreation & Sports,Gymnasiums ,Indoor,Public,,,,,,,,,,,
,Winnipeg,Fort Garry Community Centre,http://www.fortgarrycc.ca/home/recreation,"880 Oakenwald Ave, Winnipeg, MB",Leisure / Community Centres,General,Indoor,Public,,,,,,,,,,,
,Winnipeg,Chalmers Community Centre,http://www.chalmerscc.ca/,"480 Chalmers Ave, Winnipeg, MB",Leisure / Community Centres,General,Indoor,Public,,,,,,,,,,,
,Winnipeg,Robert A. Steen Memorial Community Centre,http://robertasteencc.ca/facility-rental/,"980 Palmerston Ave, Winnipeg, MB",Leisure / Community Centres,General,Indoor,Public,,,,,,,,,,,
,Winnipeg,Robert A. Steen Memorial Community Centre,http://robertasteencc.ca/facility-rental/,"980 Palmerston Ave, Winnipeg, MB",Physical Recreation & Sports,Gymnasiums ,Indoor,Public,,,,,,,,,,,
,Winnipeg,Morse Place Community Centre,https://www.google.ca/search?q=Morse+Place+Community+Centre&oq=Morse+Place+Community+Centre&aqs=chrome..69i57.1724j0j4&sourceid=chrome&ie=UTF-8,"700 Munroe Ave, Winnipeg, MB",Leisure / Community Centres,General,Indoor,Public,,,,,,,,,,,
,Winnipeg,Varsity View Community Centre,https://varsityview.org/about/,"315 Laxdal Rd, Winnipeg, MB",Leisure / Community Centres,General,Indoor,Public,,,,,,,,,,,
,Winnipeg,Varsity View Community Centre,https://varsityview.org/about/,"315 Laxdal Rd, Winnipeg, MB",Ice,Single surface,Indoor,Public,,,,,,,,,,,
,Winnipeg,River Osborne Community Centre,https://www.google.ca/search?q=River+Osborne+Community+Centre&oq=River+Osborne+Community+Centre&aqs=chrome..69i57.652j0j4&sourceid=chrome&ie=UTF-8,"101 Pembina Hwy, Winnipeg, MB",Leisure / Community Centres,General,Indoor,Public,,,,,,,,,,,
,Winnipeg,River Osborne Community Centre,https://www.google.ca/search?q=River+Osborne+Community+Centre&oq=River+Osborne+Community+Centre&aqs=chrome..69i57.652j0j4&sourceid=chrome&ie=UTF-8,"101 Pembina Hwy, Winnipeg, MB",Physical Recreation & Sports,Gymnasiums ,Indoor,Public,,,,,,,,,,,
,Winnipeg,Norwood Community Centre,https://www.norwoodcc.ca/contact-us,"87 Walmer St, Winnipeg, MB",Leisure / Community Centres,General,Indoor,Public,,,,,,,,,,,
,Winnipeg,Norwood Community Centre,https://www.norwoodcc.ca/contact-us,"87 Walmer St, Winnipeg, MB",Physical Recreation & Sports,Fitness centres / areas ,Indoor,Public,,,,,,,,,,,
,Winnipeg,Valour Community Centre - Orioles Site,http://valourcc.ca/facilities/orioles/,"448 Burnell Street, Winnipeg, MB",Leisure / Community Centres,General,Indoor,Public,,,,,,,,,,,
,Winnipeg,Valour Community Centre - Orioles Site,http://valourcc.ca/facilities/orioles/,"448 Burnell Street, Winnipeg, MB",Physical Recreation & Sports,Fitness centres / areas ,Indoor,Public,,,,,,,,,,,
,Winnipeg,Central Community Centre,https://www.gcwcc.mb.ca/site/assets/files/3133/central.pdf,"200 Isabel St, Winnipeg, MB",Leisure / Community Centres,General,Indoor,Public,,,,,,,,,,,
,Winnipeg,Central Community Centre,https://www.gcwcc.mb.ca/site/assets/files/3133/central.pdf,"200 Isabel St, Winnipeg, MB",Physical Recreation & Sports,Gymnasiums ,Indoor,Public,,,,,,,,,,,
,Winnipeg,Deer Lodge Community Centre,http://www.deerlodgecommunityclub.ca/contact/,"323 Bruce Ave East, Winnipeg, MB",Leisure / Community Centres,General,Indoor,Public,,,,,,,,,,,
,Winnipeg,Norberry-Glenlee Community Centre - Glenlee site,http://www.norberry-glenlee.ca/Contact.aspx,"176 Worthington Ave, Winnipeg, MB",Leisure / Community Centres,General,Indoor,Public,,,,,,,,,,,
,Winnipeg,Norberry-Glenlee Community Centre - Glenlee site,http://www.norberry-glenlee.ca/Contact.aspx,"176 Worthington Ave, Winnipeg, MB",Physical Recreation & Sports,Gymnasiums ,Indoor,Public,,,,,,,,,,,
,Winnipeg,Norberry-Glenlee Community Centre - Glenlee site,http://www.norberry-glenlee.ca/Contact.aspx,"176 Worthington Ave, Winnipeg, MB",Physical Recreation & Sports,Tennis and/or pickleball courts ,Indoor,Public,,,,,,,,,,,
,Winnipeg,East End Community Centre,https://eastendarena.ca/,"517 Pandora Ave E, Winnipeg, MB",Leisure / Community Centres,General,Indoor,Public,,,,,,,,,,,
,Winnipeg,East End Community Centre,https://eastendarena.ca/,"517 Pandora Ave E, Winnipeg, MB",Ice,Single surface,Indoor,Public,,,,,,,,,,,
,Winnipeg,East End Community Centre,https://eastendarena.ca/,"517 Pandora Ave E, Winnipeg, MB",Physical Recreation & Sports,Gymnasiums ,Indoor,Public,,,,,,,,,,,
,Winnipeg,East End Community Centre,https://eastendarena.ca/,"517 Pandora Ave E, Winnipeg, MB",Physical Recreation & Sports,Fitness centres / areas ,Indoor,Public,,,,,,,,,,,
,Winnipeg,North Kildonan Community Centre,http://nkcc.ca/,"1144 Kingsford Pl, Winnipeg, MB",Leisure / Community Centres,General,Indoor,Public,,,,,,,,,,,
,Winnipeg,North Kildonan Community Centre,http://nkcc.ca/,"1144 Kingsford Pl, Winnipeg, MB",Physical Recreation & Sports,Sport fields,Indoor,Public,,,,,,,,,,,
,Winnipeg,North Kildonan Community Centre,http://nkcc.ca/,"1144 Kingsford Pl, Winnipeg, MB",Physical Recreation & Sports,Gymnasiums ,Indoor,Public,,,,,,,,,,,
,Winnipeg,North Kildonan Community Centre,http://nkcc.ca/,"1144 Kingsford Pl, Winnipeg, MB",Physical Recreation & Sports,Fitness centres / areas ,Indoor,Public,,,,,,,,,,,
,Winnipeg,Champlain Community Centre,https://champlaincc.ca/contact/,"282 Niverville Ave, Winnipeg, MB",Leisure / Community Centres,General,Indoor,Public,,,,,,,,,,,
,Winnipeg,Champlain Community Centre,https://champlaincc.ca/contact/,"282 Niverville Ave, Winnipeg, MB",Physical Recreation & Sports,Fitness centres / areas ,Indoor,Public,,,,,,,,,,,
,Winnipeg,Champlain Community Centre,https://champlaincc.ca/contact/,"282 Niverville Ave, Winnipeg, MB",Physical Recreation & Sports,Gymnasiums ,Indoor,Public,,,,,,,,,,,
,Winnipeg,Tuxedo Community Centre,https://www.tuxedocc.ca/,"368 Southport Blvd, Winnipeg, MB",Leisure / Community Centres,General,Indoor,Public,,,,,,,,,,,
,Winnipeg,Tuxedo Community Centre,https://www.tuxedocc.ca/,"368 Southport Blvd, Winnipeg, MB",Physical Recreation & Sports,Tennis and/or pickleball courts ,Indoor,Public,,,,,,,,,,,
,Winnipeg,Tuxedo Community Centre,https://www.tuxedocc.ca/,"368 Southport Blvd, Winnipeg, MB",Physical Recreation & Sports,Gymnasiums ,Indoor,Public,,,,,,,,,,,
,Winnipeg,Westridge Community Centre - Whyte Ridge Site,http://whyteridge.ca/wp-cc/contact-us/,"170 Fleetwood Rd, Winnipeg, MB",Leisure / Community Centres,General,Indoor,Public,,,,,,,,,,,
,Winnipeg,Westridge Community Centre - Whyte Ridge Site,http://whyteridge.ca/wp-cc/contact-us/,"170 Fleetwood Rd, Winnipeg, MB",Physical Recreation & Sports,Fitness centres / areas ,Indoor,Public,,,,,,,,,,,
,Winnipeg,East Elmwood Community Centre,http://eastelmwoodcc.ca/contact-us/,"490 Keenleyside Street, Winnipeg, MB",Leisure / Community Centres,General,Indoor,Public,,,,,,,,,,,
,Winnipeg,East Elmwood Community Centre,http://eastelmwoodcc.ca/contact-us/,"490 Keenleyside Street, Winnipeg, MB",Physical Recreation & Sports,Gymnasiums ,Indoor,Public,,,,,,,,,,,
,Winnipeg,East Elmwood Community Centre,http://eastelmwoodcc.ca/contact-us/,"490 Keenleyside Street, Winnipeg, MB",Physical Recreation & Sports,Tennis and/or pickleball courts ,Indoor,Public,,,,,,,,,,,
,Winnipeg,South Transcona Community Centre,https://www.southtransconacc.com/contact-us,"124 Borden Ave, Winnipeg, MB",Leisure / Community Centres,General,Indoor,Public,,,,,,,,,,,
,Winnipeg,South Transcona Community Centre,https://www.southtransconacc.com/contact-us,"124 Borden Ave, Winnipeg, MB",Physical Recreation & Sports,Fitness centres / areas ,Indoor,Public,,,,,,,,,,,
,Winnipeg,Oxford Heights Community Centre,http://oxfordheights.pointstreaksites.com/view/oxfordheights/hall-rentals,"359 Dowling Ave E, Winnipeg, MB",Leisure / Community Centres,General,Indoor,Public,,,,,,,,,,,
,Winnipeg,Oxford Heights Community Centre,http://oxfordheights.pointstreaksites.com/view/oxfordheights/hall-rentals,"359 Dowling Ave E, Winnipeg, MB",Physical Recreation & Sports,Gymnasiums ,Indoor,Public,,,,,,,,,,,
,Winnipeg,Oxford Heights Community Centre,http://oxfordheights.pointstreaksites.com/view/oxfordheights/hall-rentals,"359 Dowling Ave E, Winnipeg, MB",Physical Recreation & Sports,Fitness centres / areas ,Indoor,Public,,,,,,,,,,,
,Winnipeg,Red River Community Centre,https://www.redrivercommunitycentre.ca/contact,"293 Murray Ave, Winnipeg, Mb",Leisure / Community Centres,General,Indoor,Public,,,,,,,,,,,
,Winnipeg,Red River Community Centre,https://www.redrivercommunitycentre.ca/contact,"293 Murray Ave, Winnipeg, Mb",Physical Recreation & Sports,Gymnasiums ,Indoor,Public,,,,,,,,,,,
,Winnipeg,Varsity View Community Centre - Sportsplex,https://varsityview.org/hall-rental/,"4230 Ridgewood Ave, Winnipeg, MB",Leisure / Community Centres,General,Indoor,Public,,,,,,,,,,,
,Winnipeg,Varsity View Community Centre - Sportsplex,https://varsityview.org/hall-rental/,"4230 Ridgewood Ave, Winnipeg, MB",Physical Recreation & Sports,Fitness centres / areas ,Indoor,Public,,,,,,,,,,,
,Winnipeg,Tyndall Park Community Centre,http://www.tyndallparkcc.com/Basketball.html,"2255 King Edward St, Winnipeg, MB",Leisure / Community Centres,General,Indoor,Public,,,,,,,,,,,
,Winnipeg,Tyndall Park Community Centre,http://www.tyndallparkcc.com/Basketball.html,"2255 King Edward St, Winnipeg, MB",Physical Recreation & Sports,Fitness centres / areas ,Indoor,Public,,,,,,,,,,,
,Winnipeg,Roblin Park Community Centre,http://roblinpark.mb.ca/home,"640 Pepperloaf Cres,  Winnipeg, MB",Leisure / Community Centres,General,Indoor,Public,,,,,,,,,,,
,Winnipeg,Garden City Community Centre,https://www.gardencitycc.com/arena/info,"725 Kingsbury Ave, Winnipeg, MB",Leisure / Community Centres,General,Indoor,Public,,,,,,,,,,,
,Winnipeg,Garden City Community Centre,https://www.gardencitycc.com/arena/info,"725 Kingsbury Ave, Winnipeg, MB",Ice,2+ surfaces,Indoor,Public,,,,,,,,,,,
,Winnipeg,Garden City Community Centre,https://www.gardencitycc.com/arena/info,"725 Kingsbury Ave, Winnipeg, MB",Physical Recreation & Sports,Running tracks (track and field),Indoor,Public,,,,,,,,,,,
,Winnipeg,Garden City Community Centre,https://www.gardencitycc.com/arena/info,"725 Kingsbury Ave, Winnipeg, MB",Physical Recreation & Sports,Fitness centres / areas ,Indoor,Public,,,,,,,,,,,
,Winnipeg,Garden City Community Centre,https://www.gardencitycc.com/arena/info,"725 Kingsbury Ave, Winnipeg, MB",Physical Recreation & Sports,Sport fields,Indoor,Public,,,,,,,,,,,
,Winnipeg,Bourkevale Community Centre,http://www.mybourkevale.com/p/hall-bookings.html,"100 Ferry Rd, Winnipeg, MB",Leisure / Community Centres,General,Indoor,Public,,,,,,,,,,,
,Winnipeg,Bord-Aire Community Centre,https://www.facebook.com/BordAire/,"471 Hampton St, Winnipeg, MB",Leisure / Community Centres,General,Indoor,Public,,,,,,,,,,,
,Winnipeg,Greendell Community Centre,http://greendellparkcc.pointstreaksites.com/view/greendellparkcc/programs/greendell-badminton,"75 Woodlawn Ave, Winnipeg,MB",Leisure / Community Centres,General,Indoor,Public,,,,,,,,,,,
,Winnipeg,Greendell Community Centre,http://greendellparkcc.pointstreaksites.com/view/greendellparkcc/programs/greendell-badminton,"75 Woodlawn Ave, Winnipeg,MB",Physical Recreation & Sports,Gymnasiums ,Indoor,Public,,,,,,,,,,,
,Winnipeg,Greendell Community Centre,http://greendellparkcc.pointstreaksites.com/view/greendellparkcc/programs/greendell-badminton,"75 Woodlawn Ave, Winnipeg,MB",Physical Recreation & Sports,"Racquet courts (squash, racquetball, badminton)",Indoor,Public,,,,,,,,,,,
,Winnipeg,Greendell Community Centre,http://greendellparkcc.pointstreaksites.com/view/greendellparkcc/programs/greendell-badminton,"75 Woodlawn Ave, Winnipeg,MB",Physical Recreation & Sports,Tennis and/or pickleball courts ,Indoor,Public,,,,,,,,,,,
,Winnipeg,Greendell Community Centre,http://greendellparkcc.pointstreaksites.com/view/greendellparkcc/programs/greendell-badminton,"75 Woodlawn Ave, Winnipeg,MB",Physical Recreation & Sports,Fitness centres / areas ,Indoor,Public,,,,,,,,,,,
,Winnipeg,Windsor Community Centre,http://windsorcc.ca/?page_id=62,"99 Springside Dr, Winnipeg, MB",Leisure / Community Centres,General,Indoor,Public,,,,,,,,,,,
,Winnipeg,Windsor Community Centre,http://windsorcc.ca/?page_id=62,"99 Springside Dr, Winnipeg, MB",Physical Recreation & Sports,Fitness centres / areas ,Indoor,Public,,,,,,,,,,,
,Winnipeg,Windsor Community Centre,http://windsorcc.ca/?page_id=62,"99 Springside Dr, Winnipeg, MB",Physical Recreation & Sports,Sport fields,Indoor,Public,,,,,,,,,,,
,Winnipeg,Windsor Community Centre,http://windsorcc.ca/?page_id=62,"99 Springside Dr, Winnipeg, MB",Physical Recreation & Sports,"Racquet courts (squash, racquetball, badminton)",Indoor,Public,,,,,,,,,,,
,Winnipeg,Maples Community Centre - James Nisbett site,http://maplescc.ca/,"70 Doubleday Dr, Winnipeg, MB",Leisure / Community Centres,General,Indoor,Public,,,,,,,,,,,
,Winnipeg,Maples Community Centre - James Nisbett site,http://maplescc.ca/,"70 Doubleday Dr, Winnipeg, MB",Ice,Single surface,Indoor,Public,,,,,,,,,,,
,Winnipeg,Maples Community Centre - James Nisbett site,http://maplescc.ca/,"70 Doubleday Dr, Winnipeg, MB",Physical Recreation & Sports,Sport fields,Indoor,Public,,,,,,,,,,,
,Winnipeg,Maples Community Centre - James Nisbett site,http://maplescc.ca/,"70 Doubleday Dr, Winnipeg, MB",Physical Recreation & Sports,Fitness centres / areas ,Indoor,Public,,,,,,,,,,,
,Winnipeg,Sir John Franklin Community Centre,https://corydoncc.com/facilities/sir-john-franklin-facilities/,"1 Sir John Franklin Rd, Winnipeg, MB",Leisure / Community Centres,General,Indoor,Public,,,,,,,,,,,
,Winnipeg,Westridge Community Centre,https://www.facebook.com/Westridgecommcenter/,"3 Marshall Cres, Winnipeg, MB",Leisure / Community Centres,General,Indoor,Public,,,,,,,,,,,
,Winnipeg,Luxton Community Centre,https://luxtoncc.org/facilities/hall-rental/,"210 St Cross St, Winnipeg, MB",Leisure / Community Centres,,Indoor,Public,,,,,,,,,,,
,Winnipeg,Central Corydon CC- River Heights site,https://corydoncc.com/facilities/river-heights-facilities/,"1370 Grosvenor Ave, Winnipeg, MB",Leisure / Community Centres,General,Indoor,Public,,,,,,,,,,,
,Winnipeg,Central Corydon CC- River Heights site,https://corydoncc.com/facilities/river-heights-facilities/,"1370 Grosvenor Ave, Winnipeg, MB",Physical Recreation & Sports,Gymnasiums ,Indoor,Public,,,,,,,,,,,
,Winnipeg,Park City West Community Centre,http://pcwcc.pointstreaksites.com/view/pcwcc/contact-us-1,"115 Sanford Fleming Rd, Winnipeg, MB",Leisure / Community Centres,General,Indoor,Public,,,,,,,,,,,
,Winnipeg,Park City West Community Centre,http://pcwcc.pointstreaksites.com/view/pcwcc/contact-us-1,"115 Sanford Fleming Rd, Winnipeg, MB",Physical Recreation & Sports,Fitness centres / areas ,Indoor,Public,,,,,,,,,,,
,Winnipeg,Valley Gardens Community Centre,https://www.google.ca/search?q=valley+Gardens+Community+Centre&oq=valley+Gardens+Community+Centre&aqs=chrome..69i57j69i59j69i60l3.3510j0j4&sourceid=chrome&ie=UTF-8,"218 Antrim Rd, Winnipeg, MB",Leisure / Community Centres,General,Indoor,Public,,,,,,,,,,,
,Winnipeg,Northwood Community Centre,http://northwoodcc.ca/our-facilities.html,"1415 Burrows Ave, Winnipeg, MB",Leisure / Community Centres,General,Indoor,Public,,,,,,,,,,,
,Winnipeg,Northwood Community Centre,http://northwoodcc.ca/our-facilities.html,"1415 Burrows Ave, Winnipeg, MB",Physical Recreation & Sports,Gymnasiums ,Indoor,Public,,,,,,,,,,,
,Winnipeg,Weston Community Centre,https://www.google.ca/maps/uv?hl=en&pb=!1s0x52ea724d0fcb5df9%3A0xaa28fd68c9d44cec!3m1!7e115!4shttps%3A%2F%2Flh5.googleusercontent.com%2Fp%2FAF1QipMbf7LIjJ1srSEkYbtjLuspCD_IsopnDaoxXHch%3Dw213-h160-k-no!5sWeston%20Community%20Centre%20-%20Google%20Search&imagekey=!1e10!2sAF1QipPjXMG4w3lcPsx9NUNfm9OIVz2O3RTUjcagJFan&sa=X&ved=2ahUKEwjwiNDI9eznAhXig3IEHXSRAn0QoiowCnoECA4QBg,"1625 Logan Ave, Winnipeg, MB",Leisure / Community Centres,General,Indoor,Public,,,,,,,,,,,
,Winnipeg,Weston Community Centre,https://www.google.ca/maps/uv?hl=en&pb=!1s0x52ea724d0fcb5df9%3A0xaa28fd68c9d44cec!3m1!7e115!4shttps%3A%2F%2Flh5.googleusercontent.com%2Fp%2FAF1QipMbf7LIjJ1srSEkYbtjLuspCD_IsopnDaoxXHch%3Dw213-h160-k-no!5sWeston%20Community%20Centre%20-%20Google%20Search&imagekey=!1e10!2sAF1QipPjXMG4w3lcPsx9NUNfm9OIVz2O3RTUjcagJFan&sa=X&ved=2ahUKEwjwiNDI9eznAhXig3IEHXSRAn0QoiowCnoECA4QBg,"1625 Logan Ave, Winnipeg, MB",Physical Recreation & Sports,Gymnasiums ,Indoor,Public,,,,,,,,,,,
,Winnipeg,Norquay Community Centre,https://www.facebook.com/Norquaycc/,"65 Granville St, Winnipeg, MB",Leisure / Community Centres,General,Indoor,Public,,,,,,,,,,,
,Winnipeg,Southdale Community Centre,http://www.southdale.ca/,"254 Lakewood Blvd, Winnipeg, MB",Leisure / Community Centres,General,Indoor,Public,,,,,,,,,,,
,Winnipeg,Southdale Community Centre,http://www.southdale.ca/,"254 Lakewood Blvd, Winnipeg, MB",Ice,Single surface,Indoor,Public,,,,,,,,,,,
,Winnipeg,Valour Community Centre - Isaac Brock site,http://valourcc.ca/facilities/isaac-brock/,"715 Telfer St N, Winnipeg, MB",Leisure / Community Centres,General,Indoor,Public,,,,,,,,,,,
,Winnipeg,Valour Community Centre - Isaac Brock site,http://valourcc.ca/facilities/isaac-brock/,"715 Telfer St N, Winnipeg, MB",Physical Recreation & Sports,Fitness centres / areas ,Indoor,Public,,,,,,,,,,,
,Winnipeg,Valour Community Centre - Isaac Brock site,http://valourcc.ca/facilities/isaac-brock/,"715 Telfer St N, Winnipeg, MB",Physical Recreation & Sports,Gymnasiums ,Indoor,Public,,,,,,,,,,,
,Winnipeg,Dakota Community Centre,https://dakotacc.com/184/ice-rentals,"1188 Dakota St, Winnipeg, MB",Leisure / Community Centres,General,Indoor,Public,,,,,,,,,,,
,Winnipeg,Dakota Community Centre,https://dakotacc.com/184/ice-rentals,"1188 Dakota St, Winnipeg, MB",Ice,Single surface,Indoor,Public,,,,,,,,,,,
,Winnipeg,Dakota Community Centre,https://dakotacc.com/184/ice-rentals,"1188 Dakota St, Winnipeg, MB",Physical Recreation & Sports,"Racquet courts (squash, racquetball, badminton)",Indoor,Public,,,,,,,,,,,
,Winnipeg,Dakota Community Centre,https://dakotacc.com/184/ice-rentals,"1188 Dakota St, Winnipeg, MB",Physical Recreation & Sports,Fitness centres / areas ,Indoor,Public,,,,,,,,,,,
,Winnipeg,Dakota Community Centre,https://dakotacc.com/184/ice-rentals,"1188 Dakota St, Winnipeg, MB",Physical Recreation & Sports,Tennis and/or pickleball courts ,Indoor,Public,,,,,,,,,,,
,Winnipeg,Kirkfield Westwood Community Centre - McBey Site,http://www.kirkfieldwestwood.com/,"3160 McBey Ave, Winnipeg, MB",Leisure / Community Centres,General,Indoor,Public,,,,,,,,,,,
,Winnipeg,Kirkfield Westwood Community Centre - McBey Site,http://www.kirkfieldwestwood.com/,"3160 McBey Ave, Winnipeg, MB",Physical Recreation & Sports,Gymnasiums ,Indoor,Public,,,,,,,,,,,
,Winnipeg,Kirkfield Westwood Community Centre - McBey Site,http://www.kirkfieldwestwood.com/,"3160 McBey Ave, Winnipeg, MB",Physical Recreation & Sports,Fitness centres / areas ,Indoor,Public,,,,,,,,,,,
,Winnipeg,Wildwood Community Centre,http://wildwoodcc.ca/contact/,"271 North Dr, Winnipeg, MB",Leisure / Community Centres,General,Indoor,Public,,,,,,,,,,,
,Winnipeg,Sinclair Park Community Centre,https://www.sinclairparkcc.com/,"490 Sinclair St,Winnipeg, MB",Leisure / Community Centres,General,Indoor,Public,,,,,,,,,,,
,Winnipeg,Sinclair Park Community Centre,https://www.sinclairparkcc.com/,"490 Sinclair St,Winnipeg, MB",Physical Recreation & Sports,Gymnasiums ,Indoor,Public,,,,,,,,,,,
,Winnipeg,Valour Community Centre - Clifton site,http://valourcc.ca/facilities/clifton/,"1315 Strathcona St, Winnipeg, MB",Leisure / Community Centres,General,Indoor,Public,,,,,,,,,,,
,Winnipeg,Woodhaven Community Centre,http://woodhavencc.ca/,"200 Glendale Blvd, Winnipeg, MB",Leisure / Community Centres,General,Indoor,Public,,,,,,,,,,,
,Winnipeg,Woodhaven Community Centre,http://woodhavencc.ca/,"200 Glendale Blvd, Winnipeg, MB",Physical Recreation & Sports,Fitness centres / areas ,Indoor,Public,,,,,,,,,,,
,Winnipeg,Vince Leah Community Centre,https://www.vinceleahrecreationcentre.com/contact-us.html,"1295 Salter St, Winnipeg, MB",Leisure / Community Centres,General,Indoor,Public,,,,,,,,,,,
,Winnipeg,St. Norbert Community Centre,https://www.stnorbertcc.ca/contact-us,"3450 Pembina Hwy, Winnipeg, MB",Leisure / Community Centres,General,Indoor,Public,,,,,,,,,,,
,Winnipeg,St. Norbert Community Centre,https://www.stnorbertcc.ca/contact-us,"3450 Pembina Hwy, Winnipeg, MB",Ice,Single surface,Indoor,Public,,,,,,,,,,,
,Winnipeg,St. Norbert Community Centre,https://www.stnorbertcc.ca/contact-us,"3450 Pembina Hwy, Winnipeg, MB",Physical Recreation & Sports,Gymnasiums ,Indoor,Public,,,,,,,,,,,
,Winnipeg,Ralph Brown Community Centre,http://ralphbrowncc.com/rental.html,"460 Andrews St, Winnipeg, MB",Leisure / Community Centres,Youth,Indoor,Public,,,,,,,,,,,
,Winnipeg,Assiniboine West Recreation Association - Morgan Site,https://www.awra.ca/hallrentals,"305 Morgan Cres, Winnipeg, MB",Leisure / Community Centres,General,Indoor,Public,,,,,,,,,,,
,Winnipeg,Melrose Park Community Centre,http://melroseparkcc.ca/contact.cfm,"480 Kimberly Ave, Winnipeg, MB",Leisure / Community Centres,General,Indoor,Public,,,,,,,,,,,
,Winnipeg,Linden Woods Community Centre,http://www.lindenwoodscc.com/,"414 Lindenwood Dr W, Winnipeg, MB",Leisure / Community Centres,General,Indoor,Public,,,,,,,,,,,
,Winnipeg,Linden Woods Community Centre,http://www.lindenwoodscc.com/,"414 Lindenwood Dr W, Winnipeg, MB",Physical Recreation & Sports,Gymnasiums ,Indoor,Public,,,,,,,,,,,
,Winnipeg,Linden Woods Community Centre,http://www.lindenwoodscc.com/,"414 Lindenwood Dr W, Winnipeg, MB",Physical Recreation & Sports,"Racquet courts (squash, racquetball, badminton)",Indoor,Public,,,,,,,,,,,
,Winnipeg,Linden Woods Community Centre,http://www.lindenwoodscc.com/,"414 Lindenwood Dr W, Winnipeg, MB",Physical Recreation & Sports,Tennis and/or pickleball courts ,Indoor,Public,,,,,,,,,,,
,Winnipeg,Lord Roberts Community Centre,http://lordrobertscc.ca/programs/,"725 Kylemore Ave, Winnipeg, MB",Leisure / Community Centres,General,Indoor,Public,,,,,,,,,,,
,Winnipeg,Lord Roberts Community Centre,http://lordrobertscc.ca/programs/,"725 Kylemore Ave, Winnipeg, MB",Physical Recreation & Sports,Gymnasiums ,Indoor,Public,,,,,,,,,,,
,Winnipeg,Lord Roberts Community Centre,http://lordrobertscc.ca/programs/,"725 Kylemore Ave, Winnipeg, MB",Physical Recreation & Sports,Fitness centres / areas ,Indoor,Public,,,,,,,,,,,
,Winnipeg,Notre Dame Recreation Association,https://www.ndrc.ca/,"271 De La Cathedrale Ave, Winnipeg, MB",Leisure / Community Centres,General,Indoor,Public,,,,,,,,,,,
,Winnipeg,Notre Dame Recreation Association,https://www.ndrc.ca/,"271 De La Cathedrale Ave, Winnipeg, MB",Ice,Single surface,Indoor,Public,,,,,,,,,,,
,Winnipeg,Notre Dame Recreation Association,https://www.ndrc.ca/,"271 De La Cathedrale Ave, Winnipeg, MB",Physical Recreation & Sports,Gymnasiums ,Indoor,Public,,,,,,,,,,,
,Winnipeg,Notre Dame Recreation Association,https://www.ndrc.ca/,"271 De La Cathedrale Ave, Winnipeg, MB",Physical Recreation & Sports,Fitness centres / areas ,Indoor,Public,,,,,,,,,,,
,Winnipeg,Gateway Recreation Centre,https://gatewayrec.com/contact-us/,"1717 Gateway Rd, Winnipeg, MB",Leisure / Community Centres,General,Indoor,Public,,,,,,,,,,,
,Winnipeg,Gateway Recreation Centre,https://gatewayrec.com/contact-us/,"1717 Gateway Rd, Winnipeg, MB",Physical Recreation & Sports,Sport fields,Indoor,Public,,,,,,,,,,,
,Winnipeg,Gateway Recreation Centre,https://gatewayrec.com/contact-us/,"1717 Gateway Rd, Winnipeg, MB",Ice,2+ surfaces,Indoor,Public,,,,,,,,,,,
,Winnipeg,Kirkfield Westwood Community Centre - Sansome Site,https://kirkfieldwestwoodcc.teamsnapsites.com/facilityrental/,"165 Sansome Ave, Winnipeg, MB",Leisure / Community Centres,General,Indoor,Public,,,,,,,,,,,
,Winnipeg,Kirkfield Westwood Community Centre - Sansome Site,https://kirkfieldwestwoodcc.teamsnapsites.com/facilityrental/,"165 Sansome Ave, Winnipeg, MB",Physical Recreation & Sports,Gymnasiums ,Indoor,Public,,,,,,,,,,,
,Winnipeg,Kirkfield Westwood Community Centre - Sansome Site,https://kirkfieldwestwoodcc.teamsnapsites.com/facilityrental/,"165 Sansome Ave, Winnipeg, MB",Ice,Single surface,Indoor,Public,,,,,,,,,,,
,Winnipeg,Kirkfield Westwood Community Centre - Sansome Site,https://kirkfieldwestwoodcc.teamsnapsites.com/facilityrental/,"165 Sansome Ave, Winnipeg, MB",Physical Recreation & Sports,Fitness centres / areas ,Indoor,Public,,,,,,,,,,,
,Winnipeg,Earl Grey Community Centre,http://www.earlgreycc.ca/,"360 Cockburn St N, Winnipeg, MB",Leisure / Community Centres,General,Indoor,Public,,,,,,,,,,,
,Winnipeg,Earl Grey Community Centre,http://www.earlgreycc.ca/,"360 Cockburn St N, Winnipeg, MB",Physical Recreation & Sports,Fitness centres / areas ,Indoor,Public,,,,,,,,,,,
,Winnipeg,Earl Grey Community Centre,http://www.earlgreycc.ca/,"360 Cockburn St N, Winnipeg, MB",Physical Recreation & Sports,Gymnasiums ,Indoor,Public,,,,,,,,,,,
,Winnipeg,Bronx Park Community Centre,https://www.bronxpark.ca/content.php?navigation_id=2449,"720 Henderson Hwy, Winnipeg, MB",Leisure / Community Centres,General,Indoor,Public,,,,,,,,,,,
,Winnipeg,Bronx Park Community Centre,https://www.bronxpark.ca/content.php?navigation_id=2449,"720 Henderson Hwy, Winnipeg, MB",Physical Recreation & Sports,Gymnasiums ,Indoor,Public,,,,,,,,,,,
,Winnipeg,Winakwa Community Centre,https://winakwacc.ca/services,"980 Winakwa Rd, Winnipeg, MB",Leisure / Community Centres,General,Indoor,Public,,,,,,,,,,,
,Winnipeg,Winakwa Community Centre,https://winakwacc.ca/services,"980 Winakwa Rd, Winnipeg, MB",Physical Recreation & Sports,Gymnasiums ,Indoor,Public,,,,,,,,,,,
,Winnipeg,Winakwa Community Centre,https://winakwacc.ca/services,"980 Winakwa Rd, Winnipeg, MB",Physical Recreation & Sports,Fitness centres / areas ,Indoor,Public,,,,,,,,,,,
,Winnipeg,Winakwa Community Centre,https://winakwacc.ca/services,"980 Winakwa Rd, Winnipeg, MB",Physical Recreation & Sports,Tennis and/or pickleball courts ,Indoor,Public,,,,,,,,,,,
,Winnipeg,Central Corydon Community Centre - Crescentwood Site,https://corydoncc.com/facilities/crescentwood-facilities/,"980 Winakwa Rd, Winnipeg, MB",Leisure / Community Centres,General,Indoor,Public,,,,,,,,,,,
,Winnipeg,Waverley Heights Community Centre,https://www.swcc1.ca/facilities/,"1885 Chancellor Dr, Winnipeg, MB",Leisure / Community Centres,General,Indoor,Public,,,,,,,,,,,
,Winnipeg,Archwood Community Centre,http://www.archwoodcc.com/hall-rentals.html,"565 Guilbault St, Winnipeg, MB",Leisure / Community Centres,General,Indoor,Public,,,,,,,,,,,
,Winnipeg,Archwood Community Centre,http://www.archwoodcc.com/hall-rentals.html,"565 Guilbault St, Winnipeg, MB",Physical Recreation & Sports,Gymnasiums ,Indoor,Public,,,,,,,,,,,
,Winnipeg,Richmond Kings Community Centre,https://www.swcc1.ca/family-centre/,"666 Silverstone Ave, Winnipeg, MB",Leisure / Community Centres,General,Indoor,Public,,,,,,,,,,,
,Winnipeg,Burton Cummings Community Centre,https://web.winnipeg-chamber.com/COMMUNITY-CENTRES/Burton-Cummings-Community-Centre-1679,"960 Arlington St, Winnipeg, MB",Leisure / Community Centres,General,Indoor,Public,,,,,,,,,,,
,Winnipeg,Sturgeon Heights Community Centre - Rita Site,http://www.sturgeonheightscc.com/winnipeg-hall-rentals/,"210 Rita St, Winnipeg, MB",Leisure / Community Centres,General,Indoor,Public,,,,,,,,,,,
,Winnipeg,Riverview Community Centre,https://riverviewcc.ca/facility-rental/,"90 Ashland Ave, Winnipeg, MB",Leisure / Community Centres,General,Indoor,Public,,,,,,,,,,,
,Springfield,Oakbank and District Community Club (OBCC),http://www.oakbankcc.ca/,"1016 Almey Ave, Oakbank, MB ",Leisure / Community Centres,General,Indoor,Public,,,,,,,,,,,
,Springfield,Oakbank and District Community Club (OBCC),http://www.oakbankcc.ca/,"1016 Almey Ave, Oakbank, MB ",Ice,Single surface,Indoor,Public,,,,,,,,,,,
,Springfield,Cooks Creek Community Club,https://www.rmofspringfield.ca/p/springfield-community-clubs,"30 026 Zora Road, Anola, MB",Leisure / Community Centres,General,Indoor,Public,,,,,,,,,,,
,Springfield,Cooks Creek Community Club,https://www.rmofspringfield.ca/p/springfield-community-clubs,"30 026 Zora Road, Anola, MB",Physical Recreation & Sports,Fitness centres / areas ,Indoor,Public,,,,,,,,,,,
,Springfield,Dugald Community Club,https://www.rmofspringfield.ca/p/springfield-community-clubs,"544 Holland Street, Anola, MB",Leisure / Community Centres,General,Indoor,Public,,,,,,,,,,,
,Springfield,Hazelridge Sports Complex,https://hazelridgesports.ca/,"26 Memorial Blvd, Hazelridge, MB",Leisure / Community Centres,General,Indoor,Public,,,,,,,,,,,
,Springfield,Hazelridge Sports Complex,https://hazelridgesports.ca/,"26 Memorial Blvd, Hazelridge, MB",Ice,Single surface,Indoor,Public,,,,,,,,,,,
,Springfield,Springfield Curling Club,https://www.rmofspringfield.ca/p/springfield-community-clubs,"672 Dugald Rd, Dugald, MB",Ice,Curling,Indoor,Public,,,,,,,,,,,
,Taché,Lorette Community Complex,http://rmtache.ca/main.aspx?CategoryCode=7308C02D-61DC-4624-B98F-F11F11C92D1C&pageCode=22F69C43-47EE-41D2-B06C-5348779557B1&subPageCode=854B5FE9-BBA2-401C-AD31-7B8018CCEE46,"1420 Dawson Rd, Lorette, MB",Leisure / Community Centres,General,Indoor,Public,,,,,,,,,,,
,Taché,Lorette Community Complex,http://rmtache.ca/main.aspx?CategoryCode=7308C02D-61DC-4624-B98F-F11F11C92D1C&pageCode=22F69C43-47EE-41D2-B06C-5348779557B1&subPageCode=854B5FE9-BBA2-401C-AD31-7B8018CCEE46,"1420 Dawson Rd, Lorette, MB",Ice,Single surface,Indoor,Public,,,,,,,,,,,
,Taché,Landmark Recreation Association,http://rmtache.ca/main.aspx?CategoryCode=7308C02D-61DC-4624-B98F-F11F11C92D1C&pageCode=22F69C43-47EE-41D2-B06C-5348779557B1&subPageCode=854B5FE9-BBA2-401C-AD31-7B8018CCEE46,"191 Robert Koop Rd, Landmark, MB",Ice,Single surface,Indoor,Public,,,,,,,,,,,
,Taché,Landmark Recreation Association,http://rmtache.ca/main.aspx?CategoryCode=7308C02D-61DC-4624-B98F-F11F11C92D1C&pageCode=22F69C43-47EE-41D2-B06C-5348779557B1&subPageCode=854B5FE9-BBA2-401C-AD31-7B8018CCEE46,"191 Robert Koop Rd, Landmark, MB",Leisure / Community Centres,General,Indoor,Public,,,,,,,,,,,
,Taché,Kinsmen Community Centre,http://rmtache.ca/main.aspx?CategoryCode=7308C02D-61DC-4624-B98F-F11F11C92D1C&pageCode=22F69C43-47EE-41D2-B06C-5348779557B1&subPageCode=854B5FE9-BBA2-401C-AD31-7B8018CCEE46,"191 Robert Koop Rd, Landmark, MB",Leisure / Community Centres,General,Indoor,Public,,,,,,,,,,,
,Taché,Ste Genevieve Community Center ,http://rmtache.ca/main.aspx?CategoryCode=7308C02D-61DC-4624-B98F-F11F11C92D1C&pageCode=22F69C43-47EE-41D2-B06C-5348779557B1&subPageCode=854B5FE9-BBA2-401C-AD31-7B8018CCEE46,"84 Saltel Rd, Ste Genevieve, MB",Leisure / Community Centres,General,Indoor,Public,,,,,,,,,,,
,Taché,Ross Community Centre,http://rmtache.ca/main.aspx?CategoryCode=7308C02D-61DC-4624-B98F-F11F11C92D1C&pageCode=22F69C43-47EE-41D2-B06C-5348779557B1&subPageCode=854B5FE9-BBA2-401C-AD31-7B8018CCEE46,"51080 PR 501, Ross Municipal Rd 45 E, Richer, MB ",Leisure / Community Centres,General,Indoor,Public,,,,,,,,,,,
,St. Clements,Selkitk Community Pool,https://selkirkcommunitypool.weebly.com/about.html,"211 Mercy Street, Selkirk, MB",Aquatics,25m pool with or without other pools,Indoor,Public,,,,,,,,,,,
,St. Clements,Grand Marais Recreation Centre,https://rmofstclements.com/venue/grand-marais-recreation-centre/,"90 Matilda Ave, Grand Marais, MB",Leisure / Community Centres,General,Indoor,Public,,,,,,,,,,,
,St. Clements,Corpus Christi Church Hall,https://rmofstclements.com/fitness-classes/,"5819 Henderson Hwy, Narol, MB",Physical Recreation & Sports,Fitness centres / areas ,Indoor,Public,,,,,,,,,,,
,St. Clements,East Selkirk Recreation Association,https://www.eastselkirkrec.com/,"1145 Strathcona Road, East Selkirk, MB",Leisure / Community Centres,General,Indoor,Public,,,,,,,,,,,
,East St. Paul,East St. Paul Arena and Recreation Complex,"http://www.eaststpaul.com/main.asp?fxoid=FXMenu,4&cat_ID=3&sub_ID=76","266 Hoddinott Rd, East Saint Paul, MB ",Ice,Single surface,Both,Public,,,,,,,,,,,
,East St. Paul,East St. Paul Arena and Recreation Complex,"http://www.eaststpaul.com/main.asp?fxoid=FXMenu,4&cat_ID=3&sub_ID=76","266 Hoddinott Rd, East Saint Paul, MB ",Leisure / Community Centres,General,Indoor,Public,,,,,,,,,,,
,East St. Paul,Centennial Plaza,"http://www.eaststpaul.com/main.asp?fxoid=FXMenu,1&cat_ID=3&sub_ID=89&sub2_ID=102","3021 Birds Hill Road, East St. Paul, MB",Leisure / Community Centres,General,Indoor,Public,,,,,,,,,,,
,East St. Paul,East St. Paul Curling,https://eaststpaulcurlingclub.net/index.php/our-club/location,"260 Hoddinott Road, East St Paul, MB",Ice,Single surface,Indoor,Public,,,,,,,,,,,
,Macdonald,Brunkild Memorial Recreation Centre,"https://www.mhrd.ca/pages/community-directory/42/page/brunkild/46,47,48,49,50,51","10 305 Pr, Brunkild, MB ",Leisure / Community Centres,General,Indoor,Public,,,,,,,,,,,
,Macdonald,Macdonald Hockey - Sanford/Brunkild Rep. (Sanford Arena),"https://www.mhrd.ca/pages/community-directory/42/page/brunkild/46,47,48,49,50,51","174 Mandan Dr, Sanford, MB ",Ice,Single surface,Indoor,Public,,,,,,,,,,,
,Macdonald,Domain Arena,"https://www.mhrd.ca/pages/community-directory/42/page/brunkild/46,47,48,49,50,51","Domain, MB (M0G 0M0)",Ice,Single surface,Indoor,Public,,,,,,,,,,,
,Macdonald,Lasalle Curling Club,"https://www.mhrd.ca/pages/community-directory/42/page/brunkild/46,47,48,49,50,51","80 MB-247, La Salle, MB ",Ice,Single surface,Indoor,Public,,,,,,,,,,,https://arenaguide.ca/city/oak-bluff/
,Macdonald,Oak Bluff Recreation Centre,"https://www.mhrd.ca/pages/community-directory/42/page/brunkild/46,47,48,49,50,51","101 MacDonald Rd., Oak Bluff, MB ",Leisure / Community Centres,General,Indoor,Public,,,,,,,,,,,
,Macdonald,Oak Bluff Arena,"https://www.mhrd.ca/pages/community-directory/42/page/brunkild/46,47,48,49,50,51","101 MacDonald Rd., Oak Bluff, MB ",Ice,Single surface,Indoor,Public,,,,,,,,,,,
,Ritchot,St. Adolphe Arena & Pioneer Hall,https://www.ritchot.com/p/recreation-centres-arenas-,"345 St. Adolphe Rd., St. Adolphe, MB. ",Ice,Single surface,Indoor,Public,,,,,,,,,,,
,Ritchot,St. Adolphe Arena & Pioneer Hall,https://www.ritchot.com/p/recreation-centres-arenas-,"345 St. Adolphe Rd., St. Adolphe, MB. ",Leisure / Community Centres,General,Indoor,Public,,,,,,,,,,,
,Ritchot,"

St. Adolphe Curling Club",https://www.ritchot.com/p/recreation-centres-arenas-,"327 St. Adolphe Road, St. Adolphe, MB",Ice,Curling,Indoor,Public,,,,,,,,,,,
,Ritchot,TransCanada Centre,https://www.ritchot.com/p/recreation-centres-arenas-,"1 Rivard St., Ile-des-Chênes, MB",Leisure / Community Centres,General,Indoor,Public,,,,,,,,,,,
,Ritchot,Ile des Chenes Arena,https://www.ritchot.com/p/recreation-centres-arenas-,"630 Rivard St., Ile-des-Chênes, MB",Ice,Single surface,Indoor,Public,,,,,,,,,,,
,Ritchot,Ste. Agathe Arena,https://www.ritchot.com/p/recreation-centres-arenas-,"276 Ste. Agathe St., Ste. Agathe, MB",Ice,Single surface,Indoor,Public,,,,,,,,,,,
,Ritchot,Ste. Agathe Culture & Community Club,https://www.ritchot.com/p/recreation-centres-arenas-,"304-183 Pembina Trail, Ste. Agathe, MB",Leisure / Community Centres,General,Indoor,Public,,,,,,,,,,,
,Ritchot,Red River Valley Floods Interpretive Centre ,https://www.ritchot.com/p/recreation-centres-arenas-,"Sir George Etienne Cartier Park, Ste. Agathe, MB",Leisure / Community Centres,General,Indoor,Public,,,,,,,,,,,
,Ritchot,Howden Community Centre,https://www.ritchot.com/p/recreation-centres-arenas-,"1078 Red River Drive, Howden, MB",Leisure / Community Centres,General,Indoor,Public,,,,,,,,,,,
,West St. Paul,West St. Paul Curling Rink,https://weststpaul.com/p/other-recreation,"431 Grassmere Rd., West St.Paul, MB",Ice,Curling,Indoor,Public,,,,,,,,,,,
,West St. Paul,West St. Paul School,https://weststpaul.com/p/other-recreation,"3740 Main Street,Winnipeg,MB",Physical Recreation & Sports,Tennis and/or pickleball courts ,Indoor,Public,,,,,,,,,,,
,West St. Paul,Sunova Center,https://weststpaul.com/p/sunova-programs,"48 Holland Rd. West St. Paul, MB",Leisure / Community Centres,General,Indoor,Public,,,,,,,,,,,
,West St. Paul,Sunova Center,https://weststpaul.com/p/sunova-programs,"48 Holland Rd. West St. Paul, MB",Physical Recreation & Sports,Gymnasiums ,Indoor,Public,,,,,,,,,,,
,West St. Paul,Sunova Center,https://weststpaul.com/p/sunova-programs,"48 Holland Rd. West St. Paul, MB",Physical Recreation & Sports,Fitness centres / areas ,Indoor,Public,,,,,,,,,,,
,West St. Paul,Sunova Center,https://weststpaul.com/p/sunova-programs,"48 Holland Rd. West St. Paul, MB",Physical Recreation & Sports,Tennis and/or pickleball courts ,Indoor,Public,,,,,,,,,,,
,Headingley,Headingley Community Centre,http://www.rmofheadingley.ca/p/rental-rates,"48 Holland Rd. West St. Paul, MB",Leisure / Community Centres,General,Indoor,Public,,,,,,,,,,,
,Headingley,South Hall – Phoenix Recreation Centre,http://www.rmofheadingley.ca/p/rental-rates,"153 Seekings, Headingley, MB  ",Leisure / Community Centres,General,Indoor,Public,,,,,,,,,,,
,St. François Xavier,St. Francois Xavier Community Club,http://www.rm-stfrancois.mb.ca/main.aspx?CategoryCode=71C5B41B-2BE9-45BB-BE76-B808B9C1C779&pageCode=7184CC72-6ABF-4FB1-8D3C-F708996C8F9A#.Xi76lyiJK70,"983 MB-26, Saint François Xavier, MB ",Leisure / Community Centres,General,Indoor,Public,,,,,,,,,,,
,St. François Xavier,St. Francois Xavier Community Club,http://www.sfxcc.com/programs-1.html,"983 MB-26, Saint François Xavier, MB",Physical Recreation & Sports,Tennis and/or pickleball courts ,Indoor,Public,,,,,,,,,,,
,St. François Xavier,Belcourt Community Club,http://www.rm-stfrancois.mb.ca/main.aspx?CategoryCode=71C5B41B-2BE9-45BB-BE76-B808B9C1C779&pageCode=7184CC72-6ABF-4FB1-8D3C-F708996C8F9A#.Xi79tiiJKUl,"55 Belcourt Rd, MB",Leisure / Community Centres,General,Indoor,Public,,,,,,,,,,,
,Rosser,Little Mountain Sportsplex,"http://www.rmofrosser.com/main.asp?fxoid=FXMenu,5&cat_ID=4&sub_ID=48","64-128 Klimpke Rd, Rosser, MB",Leisure / Community Centres,General,Indoor,Public,,,,,,,,,,,
,Rosser,Rosser Community centre,"http://www.rmofrosser.com/main.asp?fxoid=FXMenu,7&cat_ID=4&sub_ID=73","MB-221, Rosser, MB",Leisure / Community Centres,General,Indoor,Public,,,,,,,,,,,
,Brokenhead 4,Garson Centennial Community Hall,http://rmofbrokenhead.ca/m/garson-centennial-community-hall,"11 Thompson Avenue, Garson, MB",Leisure / Community Centres,General,Indoor,Public,,,,,,,,,,,
,Brokenhead 4,Tyndall Curling Club,http://rmofbrokenhead.ca/m/tyndall-curling-club,"8 Second Street, Tyndall, MB",Ice,Curling,Indoor,Public,,,,,,,,,,,
,Brokenhead 4,Tyndall Village Community Centre,http://rmofbrokenhead.ca/m/tyndall-village-community-centre,"69 Pierson Drive, Tyndall, MB",Leisure / Community Centres,General,Indoor,Public,,,,,,,,,,,
